company_name,address_line_1,address_line_2,city,state_alpha,postal_code,country_code,latitude,longitude,when_verified
Build-A-Bear,1595 Highway 36 W,Spc 525,Rosedale,MN,55113-4094,US,45.01300812,-93.16976929,2022-11-14 06:21:07
Build-A-Bear,172 E Broadway,,Bloomington,MN,55425-5511,US,44.85348892,-93.23904419,2022-11-14 06:21:07
Build-A-Bear,1600 Miller Trunk Hwy,H07C,Duluth,MN,55811,US,46.80456924,-92.15986633,2022-11-14 06:21:07
Build-A-Bear,210 Gasser Road,Suite 371,Baraboo,WI,53913,US,43.45145416,-89.74576569,2022-11-14 06:21:07
Build-A-Bear,4001 W 41st St,,Sioux Falls,SD,57106,US,43.51473618,-96.77368927,2022-11-14 06:21:07
Build-A-Bear,66 W Towne Mall,Spc PK40,Madison,WI,53719-1019,US,43.05661774,-89.50321198,2022-11-14 06:21:07
Build-A-Bear,4301 W Wisconsin Ave,Spc 404,Appleton,WI,54913-8605,US,44.272995,-88.47098541,2022-11-14 06:21:07
Build-A-Bear,101 74th St,Ste 2064,West Des Moines,IA,50266-8116,US,41.56763458,-93.80929565,2022-11-14 06:21:07
Build-A-Bear,1451 Coral Ridge Ave,Spc 5543,Coralville,IA,52241-5543,US,41.69091034,-91.60258484,2022-11-14 06:21:07
Build-A-Bear,357 Bay Park Sq,,Green Bay,WI,54304,US,44.48461914,-88.06778717,2022-11-14 06:21:07
Build-A-Bear,320 West Kimberly Road,Space #56,Davenport,IA,52806,US,41.56020355,-90.57710266,2022-11-14 06:21:07
Build-A-Bear,7200 Harrison Ave,,Rockford,IL,61112,US,42.24118042,-88.97544861,2022-11-14 06:21:07
Build-A-Bear,2500 N Mayfair Rd,,Wauwatosa,WI,53226-1409,US,43.06385803,-88.04759979,2022-11-14 06:21:07
Build-A-Bear,3001 S. 144th Street,Suite 2120,Omaha,NE,68144,US,41.23112869,-96.13848114,2022-11-14 06:21:07
Build-A-Bear,6170 W. Grand Ave,Space #519,Gurnee,IL,60031,US,42.38323975,-87.9548111,2022-11-14 06:21:07
Build-A-Bear,G314 Woodfield Shopping Ctr,,Schaumburg,IL,60173-5846,US,42.05073166,-88.03456116,2022-11-14 06:21:07
Build-A-Bear,1477 Fox Valley Drive,Space F6,Aurora,IL,60504,US,41.75931931,-88.21137238,2022-11-14 06:21:07
Build-A-Bear,5220 Fashion Outlets Way,Spc 8025,Rosement,IL,60018-5321,US,41.97498703,-87.86711884,2022-11-14 06:21:07
Build-A-Bear,517 Oakbrook,Ctr,Oak Brook,IL,60523-1810,US,41.84760284,-87.95317078,2022-11-14 06:21:07
Build-A-Bear,2200 W. War Memorial Dr.,,Peoria,IL,61613,US,40.74202347,-89.62741852,2022-11-14 06:21:07
Build-A-Bear,600 E Grand Ave,,Chicago,IL,60611,US,41.89155197,-87.6073761,2022-11-14 06:21:07
Build-A-Bear,148 Oralnd Square Dr,Ste A-13,Orland Park,IL,60462,US,41.62146759,-87.84481049,2022-11-14 06:21:07
Build-A-Bear,2138 Southlake Mall,,Merrillville,IN,46410-6439,US,41.46753311,-87.30661011,2022-11-14 06:21:07
Build-A-Bear,3700 RiverTown Parkway SW,#1138,Grandville,MI,49418,US,42.8822937,-85.75286102,2022-11-14 06:21:07
Build-A-Bear,2501 West Wabash Ave,A09B,Springfield,IL,62704,US,39.76409912,-89.69692993,2022-11-14 06:21:07
Build-A-Bear,8660 N. Dixon Avenue,,Kansas City,MO,64153,US,39.25119019,-94.66530609,2022-11-14 06:21:07
Build-A-Bear,2095 Independence Ctr. Dr.,,Independence,MO,64057,US,39.06961823,-94.35293579,2022-11-14 06:21:07
Build-A-Bear,6501 Grape Rd,Ste 470,Mishawaka,IN,46545-1035,US,41.71634293,-86.18759918,2022-11-14 06:21:07
Build-A-Bear,6650 South Westnedge Ave,Suite 145,Portage,MI,49024,US,42.22126389,-85.58955383,2022-11-14 06:21:07
Build-A-Bear,11465 W. 95th Street,,Overland Park,KS,66214-1827,US,38.95647049,-94.71622467,2022-11-14 06:21:07
Build-A-Bear,1444 Saint Louis Galleria,,Saint Louis,MO,63117-3500,US,38.63471603,-90.34616089,2022-11-14 06:21:07
Build-A-Bear,67 West County Center,,Des Peres,MO,63131,US,38.60180664,-90.44887543,2022-11-14 06:21:07
Build-A-Bear,415 S 18th St,Suite 102,Saint Louis,MO,63103,US,38.62586975,-90.20741272,2022-11-14 06:21:07
Build-A-Bear,134 Saint Clair Sq,K-9,Fairview Heights,IL,62208,US,38.59521484,-89.98093414,2022-11-14 06:21:07
Build-A-Bear,4201 Coldwater Road,Space E2,Fort Wayne,IN,46805,US,41.11554718,-85.13529205,2022-11-14 06:21:07
Build-A-Bear,6020 East 82nd Street,#909,Indianapolis,IN,46250-4572,US,39.90533447,-86.06439209,2022-11-14 06:21:07
Build-A-Bear,27400 Novi Rd,Space K107,Novi,MI,48377-3416,US,42.51320648,-83.48388672,2022-11-14 06:21:07
Build-A-Bear,4000 Baldwin Rd,Spc K300,Auburn Hills,MI,48326-1221,US,42.70259476,-83.29947662,2022-11-14 06:21:07
Build-A-Bear,1251 US Highway 31 N,Spc D02A,Greenwood,IN,46142-4503,US,39.61594009,-86.15316772,2022-11-14 06:21:07
Build-A-Bear,2800 W. Big Beaver Road,V-362,Troy,MI,48084,US,42.5614357,-83.18386078,2022-11-14 06:21:07
Build-A-Bear,5001 Monroe St,Ste 1705,Toledo,OH,43623-7014,US,41.6975975,-83.64038086,2022-11-14 06:21:07
Build-A-Bear,2984 E 3rd St,F12B,Bloomington,IN,47401,US,39.16418076,-86.49608612,2022-11-14 06:21:07
Build-A-Bear,2825 S. Glenstone,"Space P11, Suite 236",Springfield,MO,65804,US,37.16263199,-93.2627182,2022-11-14 06:21:07
Build-A-Bear,7700 East Kellogg,Suite 747,Wichita,KS,67207,US,37.67950821,-97.24743652,2022-11-14 06:21:07
Build-A-Bear,800 N Green River Rd,Ste 0132,Evansville,IN,47715-2471,US,37.98418045,-87.49275208,2022-11-14 06:21:07
Build-A-Bear,313 Branson Landing Blvd,,Branson,MO,65616-2088,US,36.63893127,-93.2145462,2022-11-14 06:21:07
Build-A-Bear,2727 Fairfield Commons,Space E 277,Beaver Creek,OH,45431,US,39.76695251,-84.05355835,2022-11-14 06:21:07
Build-A-Bear,7100 Foundry Row,Ste 218,Liberty Township,OH,45069-7542,US,39.36950684,-84.37042999,2022-11-14 06:21:07
Build-A-Bear,2028 Florence Mall,Space # 1134,Florence,KY,41042,US,38.99862289,-84.65171814,2022-11-14 06:21:07
Build-A-Bear,7875 Montgomery Rd,#89,Cincinnati,OH,45236,US,39.1999855,-84.37742615,2022-11-14 06:21:07
Build-A-Bear,2203 S Promenade Blvd,Ste 8130,Rogers,AR,72758,US,36.30708313,-94.17771149,2022-11-14 06:21:07
Build-A-Bear,4156 Summit Plaza Dr,,Louisville,KY,40241-8104,US,38.30890656,-85.57545471,2022-11-14 06:21:07
Build-A-Bear,5043 Tuttle Crossing Blvd,Ste 190,Dublin,OH,43016,US,40.0765419,-83.12931061,2022-11-14 06:21:07
Build-A-Bear,4046 Fenlon St,Suite 806,Columbus,OH,43219-6135,US,40.05176926,-82.91771698,2022-11-14 06:21:07
Build-A-Bear,320 Southpark Center,,Strongsville,OH,44136,US,41.31235886,-81.82434845,2022-11-14 06:21:07
Build-A-Bear,7850 Mentor Avenue,Suite 760,Mentor,OH,44060,US,41.66144943,-81.35933685,2022-11-14 06:21:07
Build-A-Bear,7021 S Memorial Dr,Ste 112A,Tulsa,OK,74133-2077,US,36.06272125,-95.88631439,2022-11-14 06:21:07
Build-A-Bear,1680 Fort Campbell,Blvd,Clarksville,TN,37042,US,36.58047485,-87.41286469,2022-11-14 06:21:07
Build-A-Bear,4230 Beldon Village Mall,Spc B16,Canton,OH,44718-2504,US,40.85762787,-81.43132019,2022-11-14 06:21:07
Build-A-Bear,3615 Nicholasville Rd,Ste 712,Lexington,KY,40503-4453,US,37.98600769,-84.52616882,2022-11-14 06:21:07
Build-A-Bear,5957 Sky Pond Dr,Unit E415,Loveland,CO,80538-9010,US,40.41053391,-104.98852539,2022-11-14 06:21:07
Build-A-Bear,440 Millcreek Mall,,Erie,PA,16565-0402,US,42.06676865,-80.09416199,2022-11-14 06:21:07
Build-A-Bear,2200 W Danforth,Rd,Edmond,OK,73003,US,35.6660614,-97.51232147,2022-11-14 06:21:07
Build-A-Bear,7401 Market Street,Space 715,Youngstown,OH,44512,US,41.0210228,-80.66271973,2022-11-14 06:21:07
Build-A-Bear,1907 NW Expressway,Spc 2027,Oklahoma City,OK,73118,US,35.52274704,-97.54433441,2022-11-14 06:21:07
Build-A-Bear,401 Opry Mills Drive,Suite 205A,Nashville,TN,37214,US,36.20506668,-86.69595337,2022-11-14 06:21:07
Build-A-Bear,1 W Flatiron Crossing Dr,Ste 2080,Broomfield,CO,80021-8870,US,39.88236618,-105.10536194,2022-11-14 06:21:07
Build-A-Bear,2760 N Germantown Parkway,Suite 124,Memphis,TN,38133,US,35.2007103,-89.79206848,2022-11-14 06:21:07
Build-A-Bear,8505 Park Meadows Center Dr,Ste 2040,Lone Tree,CO,80124,US,39.55954742,-104.87276459,2022-11-14 06:21:07
Build-A-Bear,14500 W Colfax Ave,Unit 487,Lakewood,CO,80401,US,39.73475266,-105.15959167,2022-11-14 06:21:07
Build-A-Bear,1800 Galleria Blvd,Space #2374,Franklin,TN,37067,US,35.95576477,-86.81638336,2022-11-14 06:21:07
Build-A-Bear,6000 W Markham St,Ste 3160,Little Rock,AR,72205,US,34.75222015,-92.34120941,2022-11-14 06:21:07
Build-A-Bear,4670 Merchants Park Cir.,Suite 628,Collierville,TN,38017,US,35.02512741,-89.71595764,2022-11-14 06:21:07
Build-A-Bear,2000 Old Fort,Pkwy,Murfreesboro,TN,37129,US,35.84975815,-86.42758179,2022-11-14 06:21:07
Build-A-Bear,1710 Briargate Blvd,Ste 138,Colorado Springs,CO,80920,US,38.94522476,-104.79557037,2022-11-14 06:21:07
Build-A-Bear,1 Walden Galleria,Spc D209,Buffalo,NY,14225-5408,US,42.90811539,-78.75933838,2022-11-14 06:21:07
Build-A-Bear,100 Robinson Center Dr,Spc 1110,Pittsburgh,PA,15205-4828,US,40.45586014,-80.16024017,2022-11-14 06:21:07
Build-A-Bear,1000 Ross Park Mall Dr,Ste K09,Pittsburgh,PA,15237-3870,US,40.5410881,-80.00654602,2022-11-14 06:21:07
Build-A-Bear,301 S Hills Vlg,Spc 1135A,Pittsburgh,PA,15241-1400,US,40.34453964,-80.05828857,2022-11-14 06:21:07
Build-A-Bear,300 S. 24th Street West,Space A-15,Billings,MT,59102,US,45.76467514,-108.57629395,2022-11-14 06:21:07
Build-A-Bear,1027 Charleston Town Ctr,,Charleston,WV,25389,US,38.35291672,-81.63820648,2022-11-14 06:21:07
Build-A-Bear,1001 Barnes Crossing Road,#622,Tupelo,MS,38804,US,34.31302643,-88.70661926,2022-11-14 06:21:07
Build-A-Bear,443 Eastview Mall,,Victor,NY,14564,US,43.03168869,-77.44541168,2022-11-14 06:21:07
Build-A-Bear,7600 Kingston Pike,#1056B,Knoxville,TN,37919,US,35.92842102,-84.03619385,2022-11-14 06:21:07
Build-A-Bear,2801 Memorial Pkwy SW,Ste 230,Huntsville,AL,35801,US,34.70780182,-86.58937073,2022-11-14 06:21:07
Build-A-Bear,2100 Hamilton Place Blvd,Ste 129,Chattanooga,TN,37421,US,35.03691101,-85.16100311,2022-11-14 06:21:07
Build-A-Bear,131 Island Dr,Ste 9113,Pigeon Forge,TN,37863,US,35.80404282,-83.57409668,2022-11-14 06:21:07
Build-A-Bear,4610 S Coulter,St,Amarillo,TX,79119,US,35.15960312,-101.92352295,2022-11-14 06:21:07
Build-A-Bear,2011 N Roan St,Spc T-31A,Johnson City,TN,37601-3130,US,36.33836365,-82.37807465,2022-11-14 06:21:07
Build-A-Bear,2601 Preston Rd,Ste 1246,Frisco,TX,75034-9473,US,33.10097885,-96.80579376,2022-11-14 06:21:07
Build-A-Bear,9090 Destiny USA Dr,Spc F211,Syracuse,NY,13204-6090,US,43.07032776,-76.16971588,2022-11-14 06:21:07
Build-A-Bear,610 Beebalm Lane,Space G15,Garland,TX,75040,US,32.95333862,-96.61154938,2022-11-14 06:21:07
Build-A-Bear,13350 Dallas Pkwy,Spc 2465A,Dallas,TX,75240,US,32.9299469,-96.81983185,2022-11-14 06:21:07
Build-A-Bear,3000 Grapevine Mills Pkwy,Space 514,Grapevine,TX,76051,US,32.96809387,-97.03705597,2022-11-14 06:21:07
Build-A-Bear,3 South Tunnel Rd,Space D5,Asheville,NC,28805,US,35.58501434,-82.52760315,2022-11-14 06:21:07
Build-A-Bear,2063 Town East Mall,Spc 5553,Mesquite,TX,75150-4118,US,32.80755615,-96.6237793,2022-11-14 06:21:07
Build-A-Bear,425 Boardwalk Blvd,,Bossier City,LA,71111,US,32.5186615,-93.7388916,2022-11-14 06:21:07
Build-A-Bear,4802 Valley View Blvd. NW,Unit UD 175,Roanoke,VA,24012,US,37.30861282,-79.9624176,2022-11-14 06:21:07
Build-A-Bear,1521 N Cockrell Hill Rd,,Dallas,TX,75211-1315,US,32.76375961,-96.89718628,2022-11-14 06:21:07
Build-A-Bear,2000 Riverchase Galleria,Ste 111,Hoover,AL,35244,US,33.38007355,-86.80686951,2022-11-14 06:21:07
Build-A-Bear,3811 S Cooper St,Ste 1060,Arlington,TX,76015-4135,US,32.68411255,-97.13260651,2022-11-14 06:21:07
Build-A-Bear,4800 S Hulen St,Ste 2335,Fort Worth,TX,76132-1540,US,32.6783371,-97.39848328,2022-11-14 06:21:07
Build-A-Bear,3519 Capital City Mall Dr,,Camp Hill,PA,17011-7002,US,40.23713303,-76.92758179,2022-11-14 06:21:07
Build-A-Bear,4601 S. Broadway Ave.,C06A,Tyler,TX,75703,US,32.30010986,-95.30069733,2022-11-14 06:21:07
Build-A-Bear,400 Ernest W Barrett Pkwy NW,#276,Kennesaw,GA,30144-4957,US,34.01257324,-84.56354523,2022-11-14 06:21:07
Build-A-Bear,1092 North Point Circle,,Alpharetta,GA,30022,US,34.05044174,-84.29133606,2022-11-14 06:21:07
Build-A-Bear,1559 E Rio Rd,Space 1311,Charlottesville,VA,22901,US,38.07910156,-78.47238159,2022-11-14 06:21:07
Build-A-Bear,3900 Wards,Rd,Lynchburg,VA,24502,US,37.35372162,-79.18540192,2022-11-14 06:21:07
Build-A-Bear,2860 Cumberland Mall SE,Ste 1223,Atlanta,GA,30339-5125,US,33.88023376,-84.46862793,2022-11-14 06:21:07
Build-A-Bear,6700 Douglas Blvd,#2010,Douglasville,GA,30135-7109,US,33.72966385,-84.74843597,2022-11-14 06:21:07
Build-A-Bear,3333 Buford Drive.,#2017,Buford,GA,30519-4913,US,34.07129669,-83.98423767,2022-11-14 06:21:07
Build-A-Bear,3500 Peachtree Rd,Ste 2034,Atlanta,GA,30326-1222,US,33.85280228,-84.36225891,2022-11-14 06:21:07
Build-A-Bear,700 Haywood Mall,Space #2014,Greenville,SC,29607,US,34.84967422,-82.33772278,2022-11-14 06:21:07
Build-A-Bear,2150 Wilkes Barre Township,Blvd,Wilkes-Barre Township,PA,18702,US,41.21875,-75.88529205,2022-11-14 06:21:07
Build-A-Bear,3320 Silas Creek Pkwy,Space 440,Winston-Salem,NC,27103,US,36.07338715,-80.29824066,2022-11-14 06:21:07
Build-A-Bear,11770U Fair Oaks,,Fairfax,VA,22033,US,38.86555481,-77.36173248,2022-11-14 06:21:07
Build-A-Bear,7101 Democracy Blvd.,,Bethesda,MD,20817,US,39.02231598,-77.14812469,2022-11-14 06:21:07
Build-A-Bear,228 Park City Ctr,Ste C228,Lancaster,PA,17601-2708,US,40.06890106,-76.33618164,2022-11-14 06:21:07
Build-A-Bear,6002 Slide Rd,Spc K107,Lubbock,TX,79414-1531,US,33.53929138,-101.92536163,2022-11-14 06:21:07
Build-A-Bear,10300 Little Patuxent Pkwy,Ste 2340,Columbia,MD,21044-7046,US,39.21878433,-76.85871887,2022-11-14 06:21:07
Build-A-Bear,2700 Potomac Mills Circle,Suite 219,Prince Williams,VA,22192,US,38.64030457,-77.29794312,2022-11-14 06:21:07
Build-A-Bear,825 Dulaney Valley Road,"Box# 350, Space 3145",Towson,MD,21204,US,39.4045105,-76.60150909,2022-11-14 06:21:07
Build-A-Bear,137 Spotsylvania Mall,Space 645,Fredericksburg,VA,22407,US,38.29403687,-77.51300812,2022-11-14 06:21:07
Build-A-Bear,3108 Northline,Ave,Greensboro,NC,27408,US,36.0861702,-79.83002472,2022-11-14 06:21:07
Build-A-Bear,7000 Arundel Mills Cir,Spc K003A,Hanover,MD,21076-1282,US,39.15641403,-76.72618866,2022-11-14 06:21:07
Build-A-Bear,173 Waterfront Street,,National Harbor,MD,20745,US,38.79551697,-76.99712372,2022-11-14 06:21:07
Build-A-Bear,8111 Concord Mills Blvd,Ste 618A,Concord,NC,28027,US,35.39320374,-80.65033722,2022-11-14 06:21:07
Build-A-Bear,8200 Perry Hall Blvd,Spc 5529,Baltimore,MD,21236-4901,US,39.37565231,-76.4682312,2022-11-14 06:21:07
Build-A-Bear,238 Lehigh Valley Mall,,Whitehall,PA,18052-5719,US,40.63040543,-75.48319244,2022-11-14 06:21:07
Build-A-Bear,11110 Mall Circle,Space F06A,Waldorf,MD,20603,US,38.61990356,-76.92652893,2022-11-14 06:21:07
Build-A-Bear,11025 Carolina Place Parkway,D12,Pineville,NC,28134,US,35.082901,-80.8797226,2022-11-14 06:21:07
Build-A-Bear,2002 Annapolis Mall,Space 1805,Annapolis,MD,21401,US,38.99135971,-76.54729462,2022-11-14 06:21:07
Build-A-Bear,11800 W Broad St,Ste 1304,Richmond,VA,23233-7903,US,37.65349197,-77.62117767,2022-11-14 06:21:07
Build-A-Bear,1550 N Main,St,North Logan,UT,84341,US,41.76034164,-111.8314209,2022-11-14 06:21:07
Build-A-Bear,6001 West Waco Drive,Suite 317,Waco,TX,76710,US,31.51358032,-97.18799591,2022-11-14 06:21:07
Build-A-Bear,160 N Gulph Rd,Ste 1061,King of Prussia,PA,19406-3104,US,40.08537674,-75.3946228,2022-11-14 06:21:07
Build-A-Bear,740 Christiana Mall,Spc 1150,Newark,DE,19702-3214,US,39.67596436,-75.65369415,2022-11-14 06:21:07
Build-A-Bear,1250 Baltimore Pike,,Springfield,PA,19064-2706,US,39.91352081,-75.35018921,2022-11-14 06:21:07
Build-A-Bear,1 Crossgates Mall Rd,Spc C211,Albany,NY,12203-5368,US,42.68703842,-73.8506012,2022-11-14 06:21:07
Build-A-Bear,1 Galleria Drive,Space B210,Middletown,NY,10941,US,41.45435333,-74.36672211,2022-11-14 06:21:07
Build-A-Bear,2500 W Moreland Rd,Ste 2029,Willow Grove,PA,19090-4026,US,40.14279938,-75.11959839,2022-11-14 06:21:07
Build-A-Bear,10000 Coors Blvd. NW,Suite #F11A,Albuquerque,NM,87114,US,35.19629288,-106.65911865,2022-11-14 06:21:07
Build-A-Bear,Rte. 80 and Mt. Hope Avenue,Space #1037,Rockaway,NJ,07866,US,40.92314911,-74.51685333,2022-11-14 06:21:07
Build-A-Bear,220 N West Promontory,,Farmington,UT,84025,US,40.98329926,-111.90750122,2022-11-14 06:21:07
Build-A-Bear,6600 Menaul Blvd NE,Ste 1,Albuquerque,NM,87110-3429,US,35.10715103,-106.57300568,2022-11-14 06:21:07
Build-A-Bear,2300 E Lincoln Hwy,Ste 111,Langhorne,PA,19047-3301,US,40.17914963,-74.8793335,2022-11-14 06:21:07
Build-A-Bear,400 Commons Way,Spc 1060,Bridgewater,NJ,08807-2800,US,40.58884811,-74.61965942,2022-11-14 06:21:07
Build-A-Bear,2000 Route 38,,Cherry Hills,NJ,08002,US,39.93872833,-75.0267868,2022-11-14 06:21:07
Build-A-Bear,1750 Deptford Center Rd,Spc KL12,Woodbury,NJ,08096-5222,US,39.83150101,-75.09764099,2022-11-14 06:21:07
Build-A-Bear,100 Columbiana Cir,Ste 1210,Columbia,SC,29212,US,34.07611084,-81.15857697,2022-11-14 06:21:07
Build-A-Bear,4325  Glenwood Avenue,#1021,Raleigh,NC,27612,US,35.83926392,-78.67586517,2022-11-14 06:21:07
Build-A-Bear,6191 S. State,#1550,Murray,UT,84107,US,40.63605118,-111.88909149,2022-11-14 06:21:07
Build-A-Bear,575 University Pkwy,Suite B32,Orem,UT,84097,US,40.2734642,-111.68185425,2022-11-14 06:21:07
Build-A-Bear,2001 South Rd,A121,Poughkeepsie,NY,12601,US,41.62700653,-73.91700745,2022-11-14 06:21:07
Build-A-Bear,3450 Wrightsboro Rd,,Augusta,GA,30909,US,33.46731949,-82.08029938,2022-11-14 06:21:07
Build-A-Bear,1400 Willowbrook Mall,Spc 5513,Wayne,NJ,07470-6905,US,40.88907623,-74.25942993,2022-11-14 06:21:07
Build-A-Bear,55 Parsonage Rd,Spc 1270B,Edison,NJ,08837-2480,US,40.54969788,-74.33786774,2022-11-14 06:21:07
Build-A-Bear,1215 Paramus Park,Mall,Paramus,NJ,07652,US,40.94313812,-74.06557465,2022-11-14 06:21:07
Build-A-Bear,3771 Palisades Ctr Drive,,West Nyack,NY,10994,US,41.09574509,-73.95966339,2022-11-14 06:21:07
Build-A-Bear,5711 Richmond Rd,Spc 28B,Williamsburg,VA,23188-1987,US,37.31958389,-76.73758698,2022-11-14 06:21:07
Build-A-Bear,1 American Way,Spc B162,East Rutherford,NJ,07073-2147,US,40.82820129,-74.08030701,2022-11-14 06:21:07
Build-A-Bear,2655 Richmond Avenue,,Staten Island,NY,10314,US,40.58090973,-74.16913605,2022-11-14 06:21:07
Build-A-Bear,22 W 34th St,,New York,NY,10001-3010,US,40.7489357,-73.98643494,2022-11-14 06:21:07
Build-A-Bear,45 Rockefeller Plz,c/o FAO Store Room,New York,NY,10111,US,40.75912476,-73.97955322,2022-11-14 06:21:07
Build-A-Bear,3710 Highway 9,#F-222,Freehold,NJ,07728-4801,US,40.24806213,-74.28444672,2022-11-14 06:21:07
Build-A-Bear,125 Westchester Ave,Spc 3200,White Plains,NY,10601,US,41.03250504,-73.75856781,2022-11-14 06:21:07
Build-A-Bear,438 Cross Creek Mall,,Fayetteville,NC,28303,US,35.07494736,-78.96038818,2022-11-14 06:21:07
Build-A-Bear,9015 Queens Blvd,Ste K304,Elmhurst,NY,11373-4924,US,40.73478699,-73.86884308,2022-11-14 06:21:07
Build-A-Bear,6401 Bluebonnet Blvd,Suite 1102,Baton Rouge,LA,70836,US,30.39195061,-91.09067535,2022-11-14 06:21:07
Build-A-Bear,7 Backus Ave,Space #KlO44,Danbury,CT,06810,US,41.37895584,-73.47674561,2022-11-14 06:21:07
Build-A-Bear,36502 Seaside Outlet Dr,Unit 1230,Rehoboth Beach,DE,19971-1227,US,38.71989441,-75.11431885,2022-11-14 06:21:07
Build-A-Bear,880 N Highway,190,Covington,LA,70433,US,30.44356918,-90.07888031,2022-11-14 06:21:07
Build-A-Bear,1201 Hooper Ave.,Space 1031,Toms River,NJ,08753,US,39.98506927,-74.17925262,2022-11-14 06:21:07
Build-A-Bear,5725 Johnston Street,,Lafayette,LA,70503,US,30.17478752,-92.07769775,2022-11-14 06:21:07
Build-A-Bear,630 Old Country Road,Space 1049,Garden City,NY,11530,US,40.74313736,-73.61431122,2022-11-14 06:21:07
Build-A-Bear,1900 Cunningham,Dr,Hampton,VA,23666,US,37.04141998,-76.37995911,2022-11-14 06:21:07
Build-A-Bear,6155 Eastex Freeway,Suite D-416,Beaumont,TX,77706,US,30.1276722,-94.16007996,2022-11-14 06:21:07
Build-A-Bear,30500 State Highway 181,Ste 223,Spanish Fort,AL,36527,US,30.66860962,-87.85207367,2022-11-14 06:21:07
Build-A-Bear,1201 Lake Woodlands Dr,Ste 1016,The Woodlands,TX,77380-5001,US,30.16740227,-95.45326233,2022-11-14 06:21:07
Build-A-Bear,5065 Main St,,Trumbull,CT,06611-4204,US,41.22963715,-73.21967316,2022-11-14 06:21:07
Build-A-Bear,160 Walt Whitman Rd,,Huntington Station,NY,11746,US,40.82292557,-73.41069031,2022-11-14 06:21:07
Build-A-Bear,11200 Lakeline Mall Drive,Space # GO5A,Cedar Park,TX,78613,US,30.47027397,-97.80389404,2022-11-14 06:21:07
Build-A-Bear,50 Holyoke St.,Space #F388,Holyoke,MA,01040,US,42.16952896,-72.63926697,2022-11-14 06:21:07
Build-A-Bear,20131 Highway 59 North,#1358,Humble,TX,77338,US,30.00497437,-95.28026581,2022-11-14 06:21:07
Build-A-Bear,112 Westfarms Mall,Spc H124,Farmington,CT,06032-2632,US,41.72522736,-72.76126862,2022-11-14 06:21:07
Build-A-Bear,2000 Willowbrook Mall,Space 1238,Houston,TX,77070,US,29.95865059,-95.54175568,2022-11-14 06:21:07
Build-A-Bear,540 Smith Haven Mall,Spc D05B,Lake Grove,NY,11755-1206,US,40.85115051,-73.11249542,2022-11-14 06:21:07
Build-A-Bear,3301 Veterans Memorial Blvd,Suite 99,Metairie,LA,70002,US,30.0072937,-90.15827942,2022-11-14 06:21:07
Build-A-Bear,2901 S Capital of Texas Hwy,Space R01,Austin,TX,78746,US,30.25563431,-97.81025696,2022-11-14 06:21:07
Build-A-Bear,194 Buckland Hills Dr,Ste 1086,Manchester,CT,06042-8785,US,41.81000137,-72.54799652,2022-11-14 06:21:07
Build-A-Bear,701 Lynnhaven Pkwy,Spc F06B,Virginia Beach,VA,23452-7299,US,36.82004929,-76.06705475,2022-11-14 06:21:07
Build-A-Bear,303 Memorial City Way,Suite #348,Houston,TX,77024,US,29.77990341,-95.53593445,2022-11-14 06:21:07
Build-A-Bear,4751 Main St,F122,Orange Beach,AL,36561,US,30.29176712,-87.59858704,2022-11-14 06:21:07
Build-A-Bear,5000 Katy Mills Cir,Ste 606A,Katy,TX,77494-4418,US,29.77583122,-95.8093338,2022-11-14 06:21:07
Build-A-Bear,1320 Baybrook Mall,,Friendswood,TX,77546,US,29.54454231,-95.15063477,2022-11-14 06:21:07
Build-A-Bear,4336 Legendary Dr,,Destin,FL,32541,US,30.39228249,-86.42276001,2022-11-14 06:21:07
Build-A-Bear,16535 Southwest Freeway,Suite 350,Sugar Land,TX,77479,US,29.58023071,-95.63529205,2022-11-14 06:21:07
Build-A-Bear,4015 S Interstate 35,Ste 500,San Marcos,TX,78666-5838,US,29.82606506,-97.98445129,2022-11-14 06:21:07
Build-A-Bear,1500 S Willow Street,Space E117,Manchester,NH,03103,US,42.95649338,-71.43573761,2022-11-14 06:21:07
Build-A-Bear,310 Daniel Webster Hwy,Spc W155A,Nashua,NH,03060-5730,US,42.70181274,-71.4373703,2022-11-14 06:21:07
Build-A-Bear,1301 Celebrity Cir,Unit FS3,Myrtle Beach,SC,29577-7454,US,33.71458435,-78.87507629,2022-11-14 06:21:07
Build-A-Bear,4920 Centre Pointe,Dr,North Charleston,SC,29418,US,32.86764145,-80.02114105,2022-11-14 06:21:07
Build-A-Bear,701 Pier Park Drive,Suite 115,Panama City Beach,FL,32413,US,30.2175808,-85.87438965,2022-11-14 06:21:07
Build-A-Bear,99 Rockingham Park Blvd.,Space E-111,Salem,NH,03079,US,42.76748657,-71.22483826,2022-11-14 06:21:07
Build-A-Bear,1245 Worcester Street,Suite 2126,Natick,MA,01760-1553,US,42.29917526,-71.38669586,2022-11-14 06:21:07
Build-A-Bear,75 Middlesex Turnpike,,Burlington,MA,01803,US,42.48073959,-71.21708679,2022-11-14 06:21:07
Build-A-Bear,1414 Fording Island Rd,Spc A133,Bluffton,SC,29910-6553,US,32.23970032,-80.81923676,2022-11-14 06:21:07
Build-A-Bear,15900 La Cantera Pkwy,Ste 8875,San Antonio,TX,78256-2428,US,29.58921051,-98.61962128,2022-11-14 06:21:07
Build-A-Bear,1 Providence Pl,Ste 5240,Providence,RI,02903-1739,US,41.82900238,-71.42571259,2022-11-14 06:21:07
Build-A-Bear,7804 Abercorn Street,Space 82-B,Savannah,GA,31406,US,32.00477982,-81.11768341,2022-11-14 06:21:07
Build-A-Bear,999 S. Washington Street,#E246,North Attleboro,MA,02760-7801,US,41.94488525,-71.34765625,2022-11-14 06:21:07
Build-A-Bear,7400 San Pedro Ave,Ste 404,San Antonio,TX,78216-8333,US,29.51791763,-98.49918365,2022-11-14 06:21:07
Build-A-Bear,210 Andover Street,Space E189,Peabody,MA,01960,US,42.54523849,-70.9444809,2022-11-14 06:21:07
Build-A-Bear,250 Granite Street,Space 2024B,Braintree,MA,02184-2804,US,42.2184906,-71.02559662,2022-11-14 06:21:07
Build-A-Bear,364 Maine Mall Rd,Space W111,S. Portland,ME,04106,US,43.63436508,-70.33773804,2022-11-14 06:21:07
Build-A-Bear,350 N. Milwaukee,Suite #2109,Boise,ID,83704,US,43.60797882,-116.28348541,2022-11-14 06:21:07
Build-A-Bear,14700 East Indiana,Space 1126,Spokane,WA,99216,US,47.67621613,-117.20892334,2022-11-14 06:21:07
Build-A-Bear,2100 12th Ave,Rd,Nampa,ID,83686,US,43.54872131,-116.57061768,2022-11-14 06:21:07
Build-A-Bear,8401 Gateway Blvd West,Space E03B,El Paso,TX,79925,US,31.77304459,-106.37987518,2022-11-14 06:21:07
Build-A-Bear,625 W Telegraph,St,Washington,UT,84780,US,37.12627411,-113.51792145,2022-11-14 06:21:07
Build-A-Bear,10300 Southside Blvd,Ste 158A,Jacksonville,FL,32256,US,30.20993042,-81.55026245,2022-11-14 06:21:07
Build-A-Bear,6419 W Newberry Rd,Spc 5680,Gainesville,FL,32605-4368,US,29.65736008,-82.41139221,2022-11-14 06:21:07
Build-A-Bear,5488 S Padre Island Dr,Suite 2038,Corpus Christi,TX,78411,US,27.71279335,-97.37452698,2022-11-14 06:21:07
Build-A-Bear,1321 N Columbia Center Blvd,Spc 25,Kennewick,WA,99336-2455,US,46.22609711,-119.22717285,2022-11-14 06:21:07
Build-A-Bear,5300 San Dario,Suite 430,Laredo,TX,78041,US,27.54580307,-99.50266266,2022-11-14 06:21:07
Build-A-Bear,7014-2304 E Camelback Rd,Rd,Scottsdale,AZ,85251-1239,US,33.50226212,-111.9303894,2022-11-14 06:21:07
Build-A-Bear,2180 E Williams Field Rd,Bldg 1 Ste 106,Gilbert,AZ,85295-0753,US,33.3275795,-111.75945282,2022-11-14 06:21:07
Build-A-Bear,7700 W Arrowhead Towne Ctr,Ste 1112,Glendale,AZ,85308,US,33.63969803,-112.22753143,2022-11-14 06:21:07
Build-A-Bear,3111 W Chandler Blvd,Ste 2068,Chandler,AZ,85226,US,33.30563354,-111.89810181,2022-11-14 06:21:07
Build-A-Bear,5250 W Indian School Rd,,Phoenix,AZ,85031-2605,US,33.49700928,-112.17264557,2022-11-14 06:21:07
Build-A-Bear,4500 N Oracle Rd,Ste 135,Tucson,AZ,85705-8001,US,32.28831863,-110.97812653,2022-11-14 06:21:07
Build-A-Bear,1300 W. Sunset Road,Space 1621,Henderson,NV,89014,US,36.063797,-115.04000854,2022-11-14 06:21:07
Build-A-Bear,3200 Las Vegas Blvd S,Spc 2755,Las Vegas,NV,89109-2612,US,36.12735367,-115.17163086,2022-11-14 06:21:07
Build-A-Bear,451 E Altamonte Dr,Space 5570,Altamonte Springs,FL,32701,US,28.66560936,-81.37733459,2022-11-14 06:21:07
Build-A-Bear,1980 Festival Plaza Dr,Ste 145,Las Vegas,NV,89135,US,36.14897537,-115.33345795,2022-11-14 06:21:07
Build-A-Bear,28163 Paseo Dr,,Wesley Chapel,FL,33543,US,28.19105911,-82.2950592,2022-11-14 06:21:07
Build-A-Bear,27001 US Highway 19 N,Ste 2063,Clearwater,FL,33761,US,28.01721764,-82.73744965,2022-11-14 06:21:07
Build-A-Bear,8001 S Orange Blossom Trl,Ste 1244,Orlando,FL,32809-7663,US,28.46904945,-81.38932037,2022-11-14 06:21:07
Build-A-Bear,426 Brandon Town Center Mall,,Brandon,FL,33511-4755,US,27.93136597,-82.32579041,2022-11-14 06:21:07
Build-A-Bear,2200 S. 10th Street,Space OH06A,McAllen,TX,78503,US,26.1841507,-98.23335266,2022-11-14 06:21:07
Build-A-Bear,2370 N. Expressway,Suite 1062,Brownsville,TX,78526,US,25.91575432,-97.44291687,2022-11-14 06:21:07
Build-A-Bear,140 University Town Center Dr,Space K113A,Sarasota,FL,34243,US,27.38345909,-82.45305634,2022-11-14 06:21:07
Build-A-Bear,3000 184th Street SW,Suite 518,Lynnwood,WA,98037,US,47.83180237,-122.27348328,2022-11-14 06:21:07
Build-A-Bear,2800 Southcenter Mall,,Tukwila,WA,98188,US,47.45892334,-122.25875092,2022-11-14 06:21:07
Build-A-Bear,4502 S Steele Street,Ste 476,Tacoma,WA,98409,US,47.21784973,-122.46760559,2022-11-14 06:21:07
Build-A-Bear,5530 Meadowood Mall Circle,Space G108,Reno,NV,89502,US,39.47385788,-119.77944183,2022-11-14 06:21:07
Build-A-Bear,12000 S E 82ND Ave,Suite #1109,Portland,OR,97266,US,45.43547821,-122.57909393,2022-11-14 06:21:07
Build-A-Bear,9585 SW Washington Square Rd,Spc A606,Tigard,OR,97223,US,45.45080566,-122.78351593,2022-11-14 06:21:07
Build-A-Bear,23191 Fashion Dr,Ste 101,Estero,FL,33928,US,26.40096855,-81.80722809,2022-11-14 06:21:07
Build-A-Bear,1001 N Arney Rd,Ste 308,Woodburn,OR,97071-8450,US,45.15625,-122.87858582,2022-11-14 06:21:07
Build-A-Bear,3101 PGA Blvd,Ste C117,Palm Beach Gardens,FL,33410-2826,US,26.8397522,-80.08969879,2022-11-14 06:21:07
Build-A-Bear,10300 Forest Hill Blvd,Ste 114,Wellington,FL,33414-3121,US,26.6510067,-80.20762634,2022-11-14 06:21:07
Build-A-Bear,293 Valley River Ctr,Spc K0006,Eugene,OR,97401-2139,US,44.06939697,-123.10733032,2022-11-14 06:21:07
Build-A-Bear,12234 Palmdale Rd,,Victorville,CA,92392-9418,US,34.50815201,-117.39609528,2022-11-14 06:21:07
Build-A-Bear,9581 W Atlantic Blvd,,Coral Springs,FL,33071,US,26.24055672,-80.25536346,2022-11-14 06:21:07
Build-A-Bear,2031 S Mooney Blvd,Spc 1825,Visalia,CA,93277,US,36.31253815,-119.31396484,2022-11-14 06:21:07
Build-A-Bear,6250 Valley Springs Pkwy,,Riverside,CA,92507-0970,US,33.93861389,-117.28618622,2022-11-14 06:21:07
Build-A-Bear,611 E Shaw Ave,Spc D10,Fresno,CA,93710-7703,US,36.80849075,-119.77585602,2022-11-14 06:21:07
Build-A-Bear,1 Mills Cir,Ste 632,Ontario,CA,91764,US,34.0705986,-117.54705811,2022-11-14 06:21:07
Build-A-Bear,1274 Galleria at Tyler,,Riverside,CA,92503,US,33.91262054,-117.45595551,2022-11-14 06:21:07
Build-A-Bear,1151 Galleria Blvd,Ste 1197,Roseville,CA,95678,US,38.77344131,-121.26928711,2022-11-14 06:21:07
Build-A-Bear,11401 Pines Blvd,Ste 428,Pembroke Pines,FL,33026,US,26.00782776,-80.30024719,2022-11-14 06:21:07
Build-A-Bear,1233 W Rancho Vista Blvd,Ste K04,Palmdale,CA,93551-3951,US,34.60184097,-118.15302277,2022-11-14 06:21:07
Build-A-Bear,40820 Winchester Rd,Suite 2285,Temecula,CA,92591,US,33.52641678,-117.15769958,2022-11-14 06:21:07
Build-A-Bear,2701 Ming Ave,Spc 115,Bakersfield,CA,93304,US,35.33938217,-119.03311157,2022-11-14 06:21:07
Build-A-Bear,112 Plaza Dr,Spc 737,West Covina,CA,91790-2805,US,34.07074356,-117.93191528,2022-11-14 06:21:07
Build-A-Bear,2006 Brea Mall,,Brea,CA,92821,US,33.91341782,-117.88633728,2022-11-14 06:21:07
Build-A-Bear,2052 Montebello Town Ctr,Spc AU-14,Montebello,CA,90640-2168,US,34.03921127,-118.09059906,2022-11-14 06:21:07
Build-A-Bear,8888 SW 136th St Ste 180,,Miami,FL,33176,US,25.64574623,-80.3371582,2022-11-14 06:21:07
Build-A-Bear,312 The Shops at Mission Viejo,Mission Viejo,Mission Viejo,CA,92691,US,33.56175995,-117.669487,2022-11-14 06:21:07
Build-A-Bear,3223 E Hammer Ln,,Stockton,CA,95212-2815,US,38.02299118,-121.27346802,2022-11-14 06:21:07
Build-A-Bear,3401 Dale Rd,Ste 124,Modesto,CA,95356,US,37.68813705,-121.04985046,2022-11-14 06:21:07
Build-A-Bear,20 City Blvd W,Spc 1430,Orange,CA,92868-3100,US,33.78281784,-117.89221954,2022-11-14 06:21:07
Build-A-Bear,1106 Kiosk Glendale Galleria,,Glendale,CA,91210,US,34.14464188,-118.25972748,2022-11-14 06:21:07
Build-A-Bear,8039 Beach Blvd,Building 6412,Buena Park,CA,90620,US,33.84400177,-117.9980011,2022-11-14 06:21:07
Build-A-Bear,239 Los Cerritos Center,Spc E06,Cerritos,CA,90703-5422,US,33.86290359,-118.09481049,2022-11-14 06:21:07
Build-A-Bear,9301 Tampa Ave,Unit 82,Northridge,CA,91324-2518,US,34.23910522,-118.55353546,2022-11-14 06:21:07
Build-A-Bear,7007 Friars Rd,Ste 970,San Diego,CA,92108,US,32.7695694,-117.16853333,2022-11-14 06:21:07
Build-A-Bear,3030 Plaza Bonita Rd,Spc 9108,National City,CA,91950,US,32.65645599,-117.06575775,2022-11-14 06:21:07
Build-A-Bear,6000 Sepulveda Blvd,Spc D3,Culver City,CA,90230,US,33.9854393,-118.39512634,2022-11-14 06:21:07
Build-A-Bear,21712 Hawthorne Blvd,Spc 232,Torrance,CA,90503,US,33.82844925,-118.35086823,2022-11-14 06:21:07
Build-A-Bear,550 W Hillcrest Dr,,Thousand Oaks,CA,91360,US,34.18694305,-118.8911438,2022-11-14 06:21:07
Build-A-Bear,1350 Travis Blvd,Ste 1474-B,Fairfield,CA,94533,US,38.25821304,-122.05062103,2022-11-14 06:21:07
Build-A-Bear,1 Sun Valley Mall,Spc K110,Concord,CA,94520-5801,US,37.9675827,-122.06063843,2022-11-14 06:21:07
Build-A-Bear,1048 Stoneridge Mall Rd,,Pleasanton,CA,94588,US,37.69536972,-121.92894745,2022-11-14 06:21:07
Build-A-Bear,925 Blosson Hill Rd,Spc G5,San Jose,CA,95123-1230,US,37.2525177,-121.86299896,2022-11-14 06:21:07
Build-A-Bear,2855 Stevens Creek Blvd,Ste 1280,Santa Clara,CA,95050,US,37.32344437,-121.94302368,2022-11-14 06:21:07
Build-A-Bear,Pier 39,Ste 146,San Francisco,CA,94133-1024,US,37.80867386,-122.40982056,2022-11-14 06:21:07
Build-A-Bear,796 Northridge Mall,Spc 1422,Salinas,CA,93906-2015,US,36.71731186,-121.65810394,2022-11-14 06:21:07
Build-A-Bear,328 Hillsdale Shopping Ctr,,San Mateo,CA,94403,US,37.53733826,-122.30034637,2022-11-14 06:21:07
Build-A-Bear,1485 Portage Ave,Spc 315,Winnipeg,MB,R3G0W4,CA,49.88443756,-97.19885254,2022-11-14 06:21:07
Build-A-Bear,17353 Edison,Ave,Chesterfield,MO,63005,US,38.66305923,-90.60534668,2022-11-14 06:21:07
Build-A-Bear,405 S Broadway,,Saint Louis,MO,63102,US,38.62132263,-90.19412994,2022-11-14 06:21:07
Build-A-Bear,Attention Build-A-Bear,6300 Kings Island Dr,Mason,OH,45034,US,39.34012604,-84.27312469,2022-11-14 06:21:07
Build-A-Bear,1680 Richmond St N,Box 23,London,ON,N6G3Y9,CA,43.02487183,-81.2796402,2022-11-14 06:21:07
Build-A-Bear,Unit 2205 Westfield London Shopping Centre," Ariel Way, White City",London,?,W12 7GF,UK,42.99148941,-81.27980804,2022-11-14 06:21:07
Build-A-Bear, 2101 Hall of Fame Way,Unit T02,Canton,OH,44718,US,40.87701035,-81.47052002,2022-11-14 06:21:07
Build-A-Bear,999 Upper Wentworth St,Unit No. Z202,Hamilton,ON,L9A4X5,CA,43.21598434,-79.8649292,2022-11-14 06:21:07
Build-A-Bear,"100 City Centre Drive, Space 2-805",,Mississauga,ON,L5B 2C9,CA,43.59070969,-79.64111328,2022-11-14 06:21:07
Build-A-Bear,Hwy 400 & Rutherford Road,,Vaughan,ON,L4K5W4,CA,43.79454041,-79.5135498,2022-11-14 06:21:07
Build-A-Bear,300 Borough Dr,Scarborough Town Centre,Scarborough,ON,M1P4P5,CA,43.77629852,-79.25801849,2022-11-14 06:21:07
Build-A-Bear,6700 North Gaylord Rockies,BLVD,Aurora,CO,80019,US,39.817379,-104.74990082,2022-11-14 06:21:07
Build-A-Bear,2800 Opryland Dr,,Nashville,TN,37214,US,36.21142197,-86.69470215,2022-11-14 06:21:07
Build-A-Bear,419 King Street West,#2240,Oshawa,ON,L1J2K5,CA,43.89400482,-78.87909698,2022-11-14 06:21:07
Build-A-Bear,6502 Towne Center,Loop,Southaven,MS,38671,US,34.95838928,-89.99474335,2022-11-14 06:21:07
Build-A-Bear,One Cedar Point Drive,Park Location,Sandusky,OH,44870,US,34.95838928,-89.99474335,2022-11-14 06:21:07
Build-A-Bear,100 Bayshore Shopping Centre,,Ottawa,ON,K2B 8C1,CA,45.34919357,-75.80490875,2022-11-14 06:21:07
Build-A-Bear,1501 Gaylord Trail,Resort,Grapevine,TX,76051,US,32.95491409,-97.06436157,2022-11-14 06:21:07
Build-A-Bear,3809,Grand Ave,Dallas,TX,75210,US,32.77967072,-96.76192474,2022-11-14 06:21:07
Build-A-Bear,201 Waterfront Street,,National Harbor,MD,20745,US,38.78164291,-77.01724243,2022-11-14 06:21:07
Build-A-Bear,4400 Sharon Rd,Concourse,Charlotte,NC,28211,US,35.15222168,-80.83232117,2022-11-14 06:21:07
Build-A-Bear,16000 Theme Park Way,Space,Doswell,VA,23047,US,37.84043884,-77.4466629,2022-11-14 06:21:07
Build-A-Bear,29300 Hempstead Rd,Suite #876B,Cypress,TX,77433,US,29.9969101,-95.7567215,2022-11-14 06:21:07
Build-A-Bear,8882 170th Street,Space #1592,Edmonton,AB,T5T 4M2,CA,53.52588654,-113.61508179,2022-11-14 06:21:07
Build-A-Bear,36 Hub Lane,Building A,Water Sound,FL,32461,US,30.30200005,-86.06510162,2022-11-14 06:21:07
Build-A-Bear,849 East Commerce Street,Suite S12,San Antonio,TX,78205,US,29.4239502,-98.48487854,2022-11-14 06:21:07
Build-A-Bear,7555,N Prima Rd,Scottsdale,AZ,85258,US,33.54515076,-111.88567352,2022-11-14 06:21:07
Build-A-Bear,1650 S.,Pavilion Center Dr.,Las Vegas,NV,89135,US,36.15290833,-115.33042145,2022-11-14 06:21:07
Build-A-Bear,8371 International Drive,Suite 95,Orlando,FL,32819,US,28.44337082,-81.47025299,2022-11-14 06:21:07
Build-A-Bear,673 N.,Alafaya Trail,Orlando,FL,32828,US,28.55540085,-81.20665741,2022-11-14 06:21:07
Build-A-Bear,6000 W Osceola Pkwy,Pkwy,Kissimmee,FL,347464414,US,28.34239578,-81.526474,2022-11-14 06:21:07
Build-A-Bear,216 - 4800 Kingsway,,Burnaby,BC,V5H 4J2,CA,49.22816849,-122.99874878,2022-11-14 06:21:07
Build-A-Bear,21 MicMac Boulevard,,Dartmouth,NS,B3A 4N3,CA,44.68699265,-63.56061172,2022-11-14 06:21:07
Build-A-Bear,401 Biscayne Blvd,S 142,Miami,FL,33132,US,25.77893066,-80.18670654,2022-11-14 06:21:07
Build-A-Bear,26101,Magic Mountain Pkwy,Valencia,CA,91355,US,34.45604324,-118.57133484,2022-11-14 06:21:07
Build-A-Bear,1123,Coleman Ave,San Jose,CA,95110,US,37.35130692,-121.92467499,2022-11-14 06:21:07
