company_name,address_line_1,address_line_2,city,state_alpha,postal_code,country_code,latitude,longitude,when_verified
Caribou,68 Snelling Avenue South,,68 Snelling Avenue South,MN,55105,US,44.9394722,-93.16642761,2022-11-15 08:39:49
Caribou,1817 Randolph Avenue,,1817 Randolph Avenue,MN,55105,US,44.92733002,-93.17687225,2022-11-15 08:39:49
Caribou,1055 Grand Avenue,,1055 Grand Avenue,MN,55105,US,44.94015884,-93.1444397,2022-11-15 08:39:49
Caribou,757 Grand Avenue,,757 Grand Avenue,MN,55105,US,44.94018555,-93.13212585,2022-11-15 08:39:49
Caribou,2134 Ford Parkway,,2134 Ford Parkway,MN,55116,US,44.91741943,-93.19100952,2022-11-15 08:39:49
Caribou,2170 Ford Parkway,,2170 Ford Parkway,MN,55116,US,44.91786194,-93.19216919,2022-11-15 08:39:49
Caribou,2340 West 7th Street,,2340 West 7th Street,MN,55116,US,44.90390778,-93.16492462,2022-11-15 08:39:49
Caribou,444 Cedar Street,,444 Cedar Street,MN,55101,US,44.94807434,-93.09408569,2022-11-15 08:39:49
Caribou,115 East 10th Street,,115 East 10th Street,MN,55101,US,44.95141602,-93.09528351,2022-11-15 08:39:49
Caribou,401 Robert Street,,401 Robert Street,MN,55101,US,44.94865036,-93.09229279,2022-11-15 08:39:49
Caribou,720 Main Street,,720 Main Street,MN,55118,US,44.8845253,-93.12036133,2022-11-15 08:39:49
Caribou,4300 Glumack Drive,,4300 Glumack Drive,MN,55111,US,44.88454437,-93.21065521,2022-11-15 08:39:49
Caribou,917 Washington Avenue SE,,917 Washington Avenue SE,MN,55414,US,44.97412491,-93.22483826,2022-11-15 08:39:49
Caribou,1127 Larpenteur Avenue W,,1127 Larpenteur Avenue W,MN,55113,US,44.99270248,-93.14762115,2022-11-15 08:39:49
Caribou,4300 Glumack Drive,,4300 Glumack Drive,MN,55111,US,44.8833046,-93.2134552,2022-11-15 08:39:49
Caribou,4300 Glumack Drive,,4300 Glumack Drive,MN,55111,US,44.88214111,-93.2121048,2022-11-15 08:39:49
Caribou,4745 Cedar Avenue South,,4745 Cedar Avenue South,MN,55407,US,44.91657257,-93.24692535,2022-11-15 08:39:49
Caribou,1193 South Robert Street,,1193 South Robert Street,MN,55118,US,44.91021347,-93.08123779,2022-11-15 08:39:49
Caribou,604 Washington Ave SE,,604 Washington Ave SE,MN,55414,US,44.97346115,-93.2298584,2022-11-15 08:39:49
Caribou,515 Delaware Street SE,,515 Delaware Street SE,MN,55455,US,44.97299576,-93.23165131,2022-11-15 08:39:49
Caribou,1025 Outer Park Drive,,1025 Outer Park Drive,IL,62704,US,39.77516556,-89.67020416,2022-11-16 20:51:07
Caribou,4830 Broadway Street,,4830 Broadway Street,IL,62305,US,39.93314362,-91.33798981,2022-11-16 20:51:07
Caribou,2710 Commerce Rd,,2710 Commerce Rd,KS,67735,US,39.32593918,-101.72712708,2022-11-15 10:57:28
Caribou,14630 West Colfax Avenue,,14630 West Colfax Avenue,CO,80401,US,39.73210526,-105.16390991,2022-11-16 20:51:00
Caribou,1400 East Hampden Avenue,,1400 East Hampden Avenue,CO,80113,US,39.65292358,-104.97064972,2022-11-16 00:15:31
Caribou,951 16th Street Mall,,951 16th Street Mall,CO,80202,US,39.74698639,-104.9942627,2022-11-16 00:15:31
Caribou,10611 Westminster Boulevard,,10611 Westminster Boulevard,CO,80020,US,39.88901901,-105.06789398,2022-11-16 00:15:31
Caribou,2721 West 120th Avenue,,2721 West 120th Avenue,CO,80234,US,39.9145546,-105.02091217,2022-11-16 00:15:31
Caribou,12501 East Lincoln Avenue,,12501 East Lincoln Avenue,CO,80112,US,39.53706741,-104.84407043,2022-11-16 20:51:00
Caribou,8500 Pena Blvd,,8500 Pena Blvd,CO,80249,US,39.83810043,-104.67069244,2022-11-16 00:15:31
Caribou,8500 Pena Boulevard,,8500 Pena Boulevard,CO,80249,US,39.85414124,-104.67370605,2022-11-16 00:15:31
Caribou,8500 Pena Boulevard,,8500 Pena Boulevard,CO,80249,US,39.86319733,-104.67597198,2022-11-16 00:15:31
Caribou,8500 Pena Boulevard,,8500 Pena Boulevard,CO,80249,US,39.85889816,-104.67365265,2022-11-16 00:15:31
Caribou,2141 S International Parkway,,2141 S International Parkway,TX,75261,US,32.90602112,-97.04453278,2022-11-17 06:35:48
Caribou,6000 North Terminal Parkway,,6000 North Terminal Parkway,GA,30320,US,33.64090729,-84.42564392,2022-11-17 11:20:01
Caribou,6000 North Terminal Parkway,,6000 North Terminal Parkway,GA,30320,US,33.63914871,-84.44243622,2022-11-17 11:20:01
Caribou,231 Peachtree Street,,231 Peachtree Street,GA,30303,US,33.76021576,-84.38693237,2022-11-17 11:20:01
Caribou,303 Peachtree Center Ave NE,,303 Peachtree Center Ave NE,GA,30308,US,33.76261139,-84.38506317,2022-11-17 11:20:01
Caribou,303 Peachtree Street NE,,303 Peachtree Street NE,GA,30308,US,33.76240921,-84.38613892,2022-11-17 11:20:01
Caribou,1000 Piedmont Avenue NE,,1000 Piedmont Avenue NE,GA,30309,US,33.78212357,-84.38064575,2022-11-17 11:20:01
Caribou,3261 Peachtree Road NE,,3261 Peachtree Road NE,GA,30305,US,33.84391403,-84.37012482,2022-11-17 11:20:01
Caribou,5401 Shoreline Drive,,5401 Shoreline Drive,MN,55364,US,44.93610382,-93.66093445,2022-11-15 08:41:09
Caribou,3333 Shoreline Drive,,3333 Shoreline Drive,MN,55391,US,44.933918,-93.60877991,2022-11-15 08:41:09
Caribou,5663 Manitou Road,,5663 Manitou Road,MN,55331,US,44.90120316,-93.58850861,2022-11-15 08:41:09
Caribou,23520 Highway 7,,23520 Highway 7,MN,55331,US,44.89277267,-93.58002472,2022-11-15 08:41:09
Caribou,2073 West Wayzata Boulevard,,2073 West Wayzata Boulevard,MN,55356,US,44.98818588,-93.57871246,2022-11-15 08:41:09
Caribou,920 West 78th Street,,920 West 78th Street,MN,55317,US,44.86368179,-93.54473877,2022-11-15 08:41:09
Caribou,142 Pioneer Trail,,142 Pioneer Trail,MN,55318,US,44.82974625,-93.60012054,2022-11-15 08:41:09
Caribou,800 West 78th Street,,800 West 78th Street,MN,55317,US,44.86356354,-93.54144287,2022-11-15 08:41:09
Caribou,609 East Lake Street,,609 East Lake Street,MN,55391,US,44.96974945,-93.513237,2022-11-15 08:41:09
Caribou,4754 County Road 101,,4754 County Road 101,MN,55345,US,44.91785812,-93.5039444,2022-11-15 09:39:50
Caribou,3434 County Road 101,,3434 County Road 101,MN,55345,US,44.94107056,-93.50279999,2022-11-15 09:39:50
Caribou,77 Highway 5 West,,77 Highway 5 West,MN,55387,US,44.84287262,-93.78720093,2022-11-15 09:58:37
Caribou,1295 Babcock Blvd E,,1295 Babcock Blvd E,MN,55328,US,45.03472137,-93.77143097,2022-11-15 10:14:53
Caribou,1400 Babcock Boulevard,,1400 Babcock Boulevard,MN,55328,US,45.03703308,-93.76848602,2022-11-15 10:14:53
Caribou,1151 East Wayzata Boulevard,,1151 East Wayzata Boulevard,MN,55391,US,44.97224426,-93.50012207,2022-11-15 08:41:09
Caribou,851 Marketplace Drive,,851 Marketplace Drive,MN,55387,US,44.8363533,-93.79997253,2022-11-15 09:58:37
Caribou,1400 County Road 101 N,,1400 County Road 101 N,MN,55447,US,44.99451828,-93.50108337,2022-11-15 09:29:40
Caribou,1004 Gateway Drive,,1004 Gateway Drive,MN,55318,US,44.80376816,-93.57798767,2022-11-15 08:41:09
Caribou,16506 West 78th Street,,16506 West 78th Street,MN,55344,US,44.86347198,-93.48721313,2022-11-15 09:39:50
Caribou,14444 Excelsior Boulevard,,14444 Excelsior Boulevard,MN,55345,US,44.90602493,-93.46365356,2022-11-15 09:39:50
Caribou,1310 University Avenue,,1310 University Avenue,MN,56716,US,47.78497314,-96.60952759,2022-11-15 10:32:09
Caribou,1750 32nd Avenue South,,1750 32nd Avenue South,ND,58201,US,47.89066696,-97.05297852,2022-11-15 10:32:09
Caribou,2400 South Washington Street,,2400 South Washington Street,ND,58201,US,47.89640045,-97.04594421,2022-11-15 10:32:09
Caribou,3131 32nd Ave S,,3131 32nd Ave S,ND,58201,US,47.88888931,-97.07358551,2022-11-15 10:32:09
Caribou,1225 S Columbia Road,,1225 S Columbia Road,ND,58201,US,47.90992737,-97.06599426,2022-11-15 10:32:09
Caribou,306 14th Street NE,,306 14th Street NE,MN,56721,US,47.93941498,-97.01636505,2022-11-15 10:32:09
Caribou,2510 N Broadway Avenue,,2510 N Broadway Avenue,ND,58102,US,46.91039276,-96.78914642,2022-11-15 10:32:09
Caribou,1401 Administration Ave,,1401 Administration Ave,ND,58105,US,46.89301682,-96.80088043,2022-11-15 10:32:09
Caribou,300 W 1st Street,,300 W 1st Street,MN,56542,US,47.57743073,-95.75307465,2022-11-15 10:32:09
Caribou,101 11th St. S,,101 11th St. S,MN,56560,US,46.87350464,-96.76424408,2022-11-15 10:37:16
Caribou,1433 S University Drive,,1433 S University Drive,ND,58103,US,46.85824203,-96.79956055,2022-11-15 10:37:16
Caribou,1450 25th Street SW,,1450 25th Street SW,ND,58103,US,46.8599205,-96.81893921,2022-11-15 10:37:16
Caribou,4101 S 13th Ave S,,4101 S 13th Ave S,ND,58103,US,46.86365128,-96.84911346,2022-11-15 10:32:09
Caribou,1100 13th Avenue East,,1100 13th Avenue East,ND,58078,US,46.86364746,-96.88077545,2022-11-15 10:32:09
Caribou,1625 13th Avenue East,,1625 13th Avenue East,ND,58078,US,46.86132431,-96.87298584,2022-11-15 10:32:09
Caribou,4484 15th Ave,,4484 15th Ave,ND,58103,US,46.85784912,-96.86145782,2022-11-15 10:37:16
Caribou,950 40th Ave. S,,950 40th Ave. S,MN,56560,US,46.83385468,-96.76532745,2022-11-15 10:37:15
Caribou,2050 Sheyenne St.,,2050 Sheyenne St.,ND,58078,US,46.85253143,-96.90791321,2022-11-15 10:32:09
Caribou,3071 25th Street S,,3071 25th Street S,ND,58103,US,46.8341713,-96.82045746,2022-11-15 10:37:15
Caribou,1532 S 32nd Ave S,,1532 S 32nd Ave S,ND,58103,US,46.8314209,-96.80322266,2022-11-15 10:37:15
Caribou,4240 Highway 43,,4240 Highway 43,MO,64804,US,37.00698471,-94.55230713,2022-11-16 20:48:07
Caribou,4327 Park Road,,4327 Park Road,NC,28209,US,35.17318726,-80.84784698,2022-11-17 06:34:58
Caribou,100 North Tryon Street,,100 North Tryon Street,NC,28202,US,35.22676849,-80.84210968,2022-11-17 06:34:58
Caribou,1021 Morehead Medical Drive,,1021 Morehead Medical Drive,NC,28204,US,35.20628357,-80.83821106,2022-11-17 06:34:58
Caribou,7804 Fairview Road,,7804 Fairview Road,NC,28226,US,35.14706802,-80.80900574,2022-11-17 06:34:58
Caribou,2440 Raphine Rd,,2440 Raphine Rd,VA,24472,US,37.93047714,-79.228302,2022-11-17 11:19:35
Caribou,113 6th Avenue SE,,113 6th Avenue SE,ND,58854,US,47.79427338,-103.27994537,2022-11-15 10:42:24
Caribou,1761 3rd Avenue West,,1761 3rd Avenue West,ND,58601,US,46.90185928,-102.79185486,2022-11-15 10:42:24
Caribou,1615 36th Ave SW,,1615 36th Ave SW,ND,58701,US,48.19732666,-101.32405853,2022-11-15 10:39:01
Caribou,1930 South Broadway Street,,1930 South Broadway Street,ND,58701,US,48.21178818,-101.29745483,2022-11-15 10:39:01
Caribou,1700 21st Avenue NW,,1700 21st Avenue NW,ND,58703,US,48.25909805,-101.32126617,2022-11-15 10:39:01
Caribou,2700 Dekalb Avenue,,2700 Dekalb Avenue,IL,60178,US,41.95880127,-88.71876526,2022-11-17 06:35:41
Caribou,4777 S 27th Street,,4777 S 27th Street,WI,53221,US,42.95718002,-87.95215607,2022-11-17 06:35:41
Caribou,11111 W Greenfield Ave,,11111 W Greenfield Ave,WI,53214,US,43.01531601,-88.05140686,2022-11-17 06:35:41
Caribou,5637 Cleveland Avenue,,5637 Cleveland Avenue,MI,49127,US,42.01601028,-86.4933548,2022-11-17 06:35:41
Caribou,1275 Bell Ave,,1275 Bell Ave,WI,53027,US,43.31545639,-88.3583374,2022-11-16 20:47:24
Caribou,314 N Ironwood Drive,,314 N Ironwood Drive,IN,46544,US,41.66007614,-86.2140274,2022-11-17 06:35:41
Caribou,907 South State Street,,907 South State Street,MN,56031,US,43.64516449,-94.44592285,2022-11-15 10:38:21
Caribou,1551 N Humiston Ave,,1551 N Humiston Ave,MN,56187,US,43.63435364,-95.59449005,2022-11-15 10:38:21
Caribou,2105 4th Street SW,,2105 4th Street SW,IA,50401,US,43.1474762,-93.23310852,2022-11-15 10:57:18
Caribou,2708 Bridge Avenue,,2708 Bridge Avenue,MN,56007,US,43.68515396,-93.35935974,2022-11-15 10:57:18
Caribou,820 Happy Trails Lane,,820 Happy Trails Lane,MN,56007,US,43.65703964,-93.31748199,2022-11-15 10:57:18
Caribou,1680 Warren Street,,1680 Warren Street,MN,56001,US,44.145298,-93.99407196,2022-11-15 10:38:21
Caribou,1661 Commerce Dr,,1661 Commerce Dr,MN,56003,US,44.17939758,-94.03282166,2022-11-15 10:38:21
Caribou,1580 Madison Avenue,,1580 Madison Avenue,MN,56001,US,44.16729355,-93.965065,2022-11-15 10:38:21
Caribou,1841 Premier Dr,,1841 Premier Dr,MN,56001,US,44.17889023,-93.94993591,2022-11-15 10:38:21
Caribou,707 N Minnesota St,,707 N Minnesota St,MN,56073,US,44.32025146,-94.46619415,2022-11-15 10:38:21
Caribou,612 South Minnesota Avenue,,612 South Minnesota Avenue,MN,56082,US,44.32190323,-93.96046448,2022-11-15 10:38:21
Caribou,804 North Minnesota Ave,,804 North Minnesota Ave,MN,56082,US,44.3322258,-93.95057678,2022-11-15 10:38:21
Caribou,1001 18th Avenue NW,,1001 18th Avenue NW,MN,55912,US,43.68434906,-92.98529053,2022-11-15 10:57:18
Caribou,2939 Hamilton Boulevard,,2939 Hamilton Boulevard,IA,51104,US,42.52137756,-96.41976166,2022-11-15 10:35:30
Caribou,621 West Bridge Street,,621 West Bridge Street,MN,55060,US,44.08409882,-93.24007416,2022-11-15 10:57:18
Caribou,39375 County Highway 24,,39375 County Highway 24,MN,56270,US,44.53136444,-94.99886322,2022-11-15 10:38:21
Caribou,2021 Broad Avenue,,2021 Broad Avenue,OH,45840,US,41.06433105,-83.66385651,2022-11-16 20:49:30
Caribou,1840 Cleveland Rd,,1840 Cleveland Rd,OH,44691,US,40.82202148,-81.9349823,2022-11-17 11:19:39
Caribou,330 S Main St,,330 S Main St,WI,54868,US,45.4955368,-91.73512268,2022-11-15 10:38:03
Caribou,719 2nd Street,,719 2nd Street,WI,54728,US,45.315979,-91.65205383,2022-11-15 10:38:03
Caribou,10514 S Main St,,10514 S Main St,WI,54843,US,46.01290894,-91.48139954,2022-11-16 00:15:53
Caribou,1050 River Place Mall,,1050 River Place Mall,WI,54001,US,45.29253387,-92.36490631,2022-11-15 10:38:03
Caribou,2321 Highway 25 North,,2321 Highway 25 North,WI,54751,US,44.9118309,-91.93514252,2022-11-15 10:38:03
Caribou,103 Oak Avenue,,103 Oak Avenue,WI,54751,US,44.90326691,-91.93152618,2022-11-15 10:38:03
Caribou,1408 9th Street E,,1408 9th Street E,WI,54751,US,44.86978531,-91.91849518,2022-11-15 10:38:03
Caribou,110 West 4th Street,,110 West 4th Street,WI,54017,US,45.11886597,-92.53896332,2022-11-15 10:36:02
Caribou,112 Chieftain Street,,112 Chieftain Street,WI,54020,US,45.32024384,-92.7040329,2022-11-15 11:01:33
Caribou,180 Paperjack Drive,,180 Paperjack Drive,WI,54017,US,45.1040802,-92.53797913,2022-11-15 10:36:02
Caribou,2615 North Clairemont Avenue,,2615 North Clairemont Avenue,WI,54703,US,44.82592773,-91.54226685,2022-11-15 10:38:03
Caribou,980 Cedar Street,,980 Cedar Street,WI,54002,US,44.95634079,-92.37392426,2022-11-15 10:38:03
Caribou,807 W Clairemont Avenue,,807 W Clairemont Avenue,WI,54701,US,44.79247665,-91.50940704,2022-11-15 10:38:32
Caribou,2114 Hastings Way,,2114 Hastings Way,WI,54701,US,44.79719925,-91.46509552,2022-11-15 10:38:03
Caribou,3007 Mall Drive,,3007 Mall Drive,WI,54701,US,44.78809357,-91.46027374,2022-11-15 10:38:32
Caribou,4732 Golf Road,,4732 Golf Road,WI,54701,US,44.77438736,-91.43800354,2022-11-15 10:38:32
Caribou,5911 St. Croix Trail,,5911 St. Croix Trail,MN,55056,US,45.5105629,-92.98851776,2022-11-15 11:01:33
Caribou,105 Carmichael Road,,105 Carmichael Road,WI,54016,US,44.96576691,-92.72196198,2022-11-15 10:36:02
Caribou,2360 Badger Drive,,2360 Badger Drive,WI,54016,US,44.96131897,-92.72457123,2022-11-15 10:36:02
Caribou,2310 Crest View Dr,,2310 Crest View Dr,WI,54016,US,44.9600296,-92.72544098,2022-11-15 10:36:02
Caribou,1 Richard E Byrd Terminal Drive,,1 Richard E Byrd Terminal Drive,VA,23250,US,37.5077858,-77.33139801,2022-11-17 11:19:35
Caribou,1 Richard E Byrd Terminal Drive,,1 Richard E Byrd Terminal Drive,VA,23250,US,37.50891113,-77.33070374,2022-11-17 11:19:35
Caribou,1 Richard E Byrd Terminal Drive,,1 Richard E Byrd Terminal Drive,VA,23250,US,37.50667191,-77.33111572,2022-11-17 11:19:35
Caribou,925 E Wall Street,,925 E Wall Street,WI,54521,US,45.91567612,-89.23995209,2022-11-16 00:15:53
Caribou,9750 WI 70,,9750 WI 70,WI,54548,US,45.88779831,-89.71923065,2022-11-16 00:15:53
Caribou,2310 Schofield Ave,,2310 Schofield Ave,WI,54476,US,44.90958023,-89.59457397,2022-11-15 23:51:37
Caribou,151 Division St N,,151 Division St N,WI,54481,US,44.53659439,-89.57395935,2022-11-15 10:38:03
Caribou,2820 8th Street South,,2820 8th Street South,WI,54494,US,44.36891174,-89.81773376,2022-11-15 10:38:03
Caribou,600 South Military Ave,,600 South Military Ave,WI,54303,US,44.53623199,-88.05400848,2022-11-15 23:34:16
Caribou,3109 Northline Avenue,,3109 Northline Avenue,NC,27408,US,36.08740997,-79.83097076,2022-11-17 06:34:58
Caribou,923 Johnston Parkway,,923 Johnston Parkway,NC,27542,US,35.58183289,-78.14604187,2022-11-17 11:19:42
Caribou,3300 Duraleigh Road,,3300 Duraleigh Road,NC,27612,US,35.82531357,-78.70870209,2022-11-17 11:19:42
Caribou,109 SW Maynard Road,,109 SW Maynard Road,NC,27511,US,35.77096558,-78.78272247,2022-11-17 11:19:42
Caribou,8201 Brier Creek Parkway,,8201 Brier Creek Parkway,NC,27617,US,35.90896225,-78.78450775,2022-11-17 11:19:42
Caribou,1408 East Franklin Street,,1408 East Franklin Street,NC,27514,US,35.92866516,-79.03398132,2022-11-17 11:19:42
Caribou,2350 43rd Street NW,,2350 43rd Street NW,MN,55060,US,44.13782501,-93.25463104,2022-11-15 10:36:57
Caribou,2280 Grant Street,,2280 Grant Street,MN,55021,US,44.29470825,-93.3021698,2022-11-15 10:25:05
Caribou,1920 Grant Street NW,,1920 Grant Street NW,MN,55021,US,44.29498672,-93.29750824,2022-11-15 10:25:05
Caribou,4662 Maine Avenue SE,,4662 Maine Avenue SE,MN,55904,US,43.95420074,-92.4619751,2022-11-15 10:57:18
Caribou,1930 36th Avenue NW,,1930 36th Avenue NW,MN,55901,US,44.04418945,-92.51702118,2022-11-15 10:57:18
Caribou,1200 12 Street SW,,1200 12 Street SW,MN,55902,US,44.00453186,-92.47988892,2022-11-15 10:57:18
Caribou,1620 Broadway Ave S,,1620 Broadway Ave S,MN,55904,US,43.99855423,-92.46331787,2022-11-15 10:57:18
Caribou,1147 2nd Street SW,,1147 2nd Street SW,MN,55902,US,44.02181625,-92.48090363,2022-11-15 10:57:18
Caribou,451 16th Avenue NW,,451 16th Avenue NW,MN,55901,US,44.02919006,-92.48365021,2022-11-15 10:57:18
Caribou,1315 6th Street NW,,1315 6th Street NW,MN,55901,US,44.02919388,-92.48363495,2022-11-15 10:57:18
Caribou,9 Third Avenue NW,,9 Third Avenue NW,MN,55901,US,44.02386475,-92.4675827,2022-11-15 10:57:18
Caribou,2215 E 2nd Street,,2215 E 2nd Street,WI,54880,US,46.70617294,-92.04638672,2022-11-16 00:15:53
Caribou,307 Canal Park Drive,,307 Canal Park Drive,MN,55802,US,46.78421402,-92.09503174,2022-11-16 00:15:53
Caribou,2100 London Road,,2100 London Road,MN,55812,US,46.80441284,-92.06829071,2022-11-16 00:15:53
Caribou,2 East Central Entrance,,2 East Central Entrance,MN,55811,US,46.80015182,-92.13179779,2022-11-16 00:15:53
Caribou,1515 Kenwood Avenue,,1515 Kenwood Avenue,MN,55811,US,46.82188416,-92.10148621,2022-11-16 00:15:53
Caribou,627 West Central Entrance,,627 West Central Entrance,MN,55811,US,46.80314255,-92.14745331,2022-11-16 00:15:53
Caribou,1600 Miller Trunk Highway,,1600 Miller Trunk Highway,MN,55811,US,46.80389404,-92.15931702,2022-11-16 00:15:53
Caribou,70 Arrowhead Lane,,70 Arrowhead Lane,MN,55767,US,46.4499588,-92.76754761,2022-11-15 11:01:33
Caribou,402 Fire Monument Road,,402 Fire Monument Road,MN,55037,US,46.01075745,-92.93005371,2022-11-15 11:01:33
Caribou,1416 East College Drive,,1416 East College Drive,MN,56258,US,44.44999695,-95.76199341,2022-11-15 10:39:30
Caribou,2319 1st Street South,,2319 1st Street South,MN,56201,US,45.10027695,-95.0419693,2022-11-15 10:38:21
Caribou,620 1st Street S,,620 1st Street S,MN,56201,US,45.11771011,-95.04314423,2022-11-15 10:38:21
Caribou,1320 9th Avenue SE,,1320 9th Avenue SE,SD,57201,US,44.88819504,-97.09365845,2022-11-15 10:39:30
Caribou,933 5th Street SE,,933 5th Street SE,SD,57201,US,44.88938904,-97.11024475,2022-11-15 10:39:30
Caribou,1020 Highway 15 South,,1020 Highway 15 South,MN,55350,US,44.87731171,-94.37917328,2022-11-15 10:38:21
Caribou,1100 MN-15,,1100 MN-15,MN,55350,US,44.87454987,-94.376297,2022-11-15 10:38:21
Caribou,3501 East 10th Street,,3501 East 10th Street,SD,57103,US,43.54611588,-96.68340302,2022-11-15 10:38:21
Caribou,1710 S Highline Ave,,1710 S Highline Ave,SD,57110,US,43.52987289,-96.65515137,2022-11-15 10:38:21
Caribou,1730 East 10th Street,,1730 East 10th Street,SD,57103,US,43.54710007,-96.70465851,2022-11-15 10:39:30
Caribou,2501 W 12th Street,,2501 W 12th Street,SD,57104,US,43.54361725,-96.75865936,2022-11-15 10:39:30
Caribou,1924 South Minnesota Avenue,,1924 South Minnesota Avenue,SD,57105,US,43.52778625,-96.73087311,2022-11-15 10:34:38
Caribou,2300 South Minnesota Avenue,,2300 South Minnesota Avenue,SD,57105,US,43.52373123,-96.73069763,2022-11-15 10:34:38
Caribou,25 E 7th Street,,25 E 7th Street,MN,56267,US,45.58873367,-95.91501617,2022-11-15 10:39:30
Caribou,1231 E 57th Street,,1231 E 57th Street,SD,57108,US,43.49862671,-96.70863342,2022-11-15 10:38:21
Caribou,1830 Empire Place,,1830 Empire Place,SD,57106,US,43.51178741,-96.77584839,2022-11-15 10:34:38
Caribou,4200 S Louise Avenue,,4200 S Louise Avenue,SD,57106,US,43.50712967,-96.77033234,2022-11-15 10:34:38
Caribou,5616 26th Ave S,,5616 26th Ave S,ND,58103,US,46.84003067,-96.8819046,2022-11-15 10:37:16
Caribou,4475 31st Ave S,,4475 31st Ave S,ND,58104,US,46.83488083,-96.86117554,2022-11-15 10:37:16
Caribou,3175 25th Street South,,3175 25th Street South,ND,58103,US,46.83393478,-96.82200623,2022-11-15 10:37:15
Caribou,755 33rd Ave W,,755 33rd Ave W,ND,58078,US,46.83150101,-96.88565063,2022-11-15 10:37:16
Caribou,4151 45th St South,,4151 45th St South,ND,58104,US,46.8174324,-96.86381531,2022-11-15 10:37:15
Caribou,387 11th St. S.,,387 11th St. S.,ND,58075,US,46.2618866,-96.61721039,2022-11-15 10:39:30
Caribou,139 Veterans Memorial Parkway,,139 Veterans Memorial Parkway,MN,56501,US,46.8177948,-95.84323883,2022-11-15 10:33:33
Caribou,2020 South Pokegama Avenue,,2020 South Pokegama Avenue,MN,55744,US,47.21103668,-93.52796936,2022-11-15 10:27:17
Caribou,535 E Hwy 2,,535 E Hwy 2,MN,55744,US,47.23464966,-93.51864624,2022-11-15 10:27:17
Caribou,425 8th Avenue NE,,425 8th Avenue NE,MN,56401,US,46.36315155,-94.17789459,2022-11-15 10:36:50
Caribou,520 W Washington,,520 W Washington,MN,56401,US,46.35731125,-94.21886444,2022-11-15 10:29:28
Caribou,15175 Edgewood Dr,,15175 Edgewood Dr,MN,56425,US,46.37182999,-94.24551392,2022-11-15 10:30:48
Caribou,14199 Edgewood Drive,,14199 Edgewood Drive,MN,56425,US,46.35756683,-94.24542236,2022-11-15 10:30:48
Caribou,4100 9th Avenue West,,4100 9th Avenue West,MN,55746,US,47.39965057,-92.95110321,2022-11-15 10:27:17
Caribou,710 Franklin Lane,,710 Franklin Lane,MN,55051,US,45.86848831,-93.29109192,2022-11-15 11:01:33
Caribou,1101 2nd Avenue Northeast,,1101 2nd Avenue Northeast,MN,56345,US,45.97714996,-94.34494019,2022-11-15 10:36:50
Caribou,1462 South 12th Ave W,,1462 South 12th Ave W,MN,55792,US,47.51211166,-92.55233765,2022-11-15 10:27:17
Caribou,1595 Second Avenue Northeast,,1595 Second Avenue Northeast,MN,55008,US,45.57319641,-93.20516968,2022-11-15 11:01:33
Caribou,1025 E Hickman Road,,1025 E Hickman Road,IA,50263,US,41.61578369,-93.85489655,2022-11-15 10:59:15
Caribou,11985 Hickman Road,,11985 Hickman Road,IA,50323,US,41.6157074,-93.78063965,2022-11-15 10:59:15
Caribou,12655 University Avenue,,12655 University Avenue,IA,50325,US,41.60084915,-93.79202271,2022-11-15 10:59:15
Caribou,909 SE Oralabor Road,,909 SE Oralabor Road,IA,50021,US,41.70236588,-93.58488464,2022-11-15 10:59:15
Caribou,5901 Mills Civic Parkway,,5901 Mills Civic Parkway,IA,50266,US,41.55973816,-93.78684998,2022-11-15 10:59:15
Caribou,3220 Ingersoll Avenue,,3220 Ingersoll Avenue,IA,50312,US,41.58598328,-93.66113281,2022-11-15 10:59:15
Caribou,4605 Fleur Drive,,4605 Fleur Drive,IA,50321,US,41.54211044,-93.64328003,2022-11-15 10:59:15
Caribou,4910 Maple Drive,,4910 Maple Drive,IA,50327,US,41.59843445,-93.5174408,2022-11-15 10:59:15
Caribou,2951 SW Wanamaker Road,,2951 SW Wanamaker Road,KS,66614,US,39.01254654,-95.76403046,2022-11-15 10:37:48
Caribou,8722 Shawnee Mission Parkway,,8722 Shawnee Mission Parkway,KS,66202,US,39.01532745,-94.68760681,2022-11-15 10:37:48
Caribou,8501 West 95th Street,,8501 West 95th Street,KS,66212,US,38.95568466,-94.68399811,2022-11-15 10:37:48
Caribou,9050 W 135th Street,,9050 W 135th Street,KS,66221,US,38.88449478,-94.69076538,2022-11-15 10:37:48
Caribou,6655 Martway Street,,6655 Martway Street,KS,66202,US,39.01900101,-94.66230774,2022-11-15 10:37:48
Caribou,6370 North Lucerne Avenue,,6370 North Lucerne Avenue,MO,64151,US,39.21006775,-94.65322113,2022-11-15 10:37:48
Caribou,8371 North Saint Clair Avenue,,8371 North Saint Clair Avenue,MO,64151,US,39.24613953,-94.64638519,2022-11-15 10:37:48
Caribou,300 N 291 Highway,,300 N 291 Highway,MO,64068,US,39.24768829,-94.44711304,2022-11-15 10:37:48
Caribou,920 NE Langsford Road,,920 NE Langsford Road,MO,64063,US,38.91802979,-94.35810089,2022-11-15 10:29:50
Caribou,625 West Highway 40,,625 West Highway 40,MO,64014,US,39.01082993,-94.27115631,2022-11-15 10:29:50
Caribou,205 North Belt Highway,,205 North Belt Highway,MO,64506,US,39.76802826,-94.80289459,2022-11-15 10:37:48
Caribou,115 Wilmar Avenue,,115 Wilmar Avenue,NE,68803,US,40.91776276,-98.37957764,2022-11-15 10:38:14
Caribou,5204 2nd Avenue,,5204 2nd Avenue,NE,68845,US,40.72503281,-99.0846405,2022-11-15 10:40:35
Caribou,3920 2nd Avenue,,3920 2nd Avenue,NE,68847,US,40.71478653,-99.0847168,2022-11-15 10:40:35
Caribou,6001 Village Drive,,6001 Village Drive,NE,68516,US,40.75233459,-96.66625214,2022-11-15 10:38:14
Caribou,5010 O Street,,5010 O Street,NE,68510,US,40.81450653,-96.65061951,2022-11-15 10:38:14
Caribou,1601 North 84th Street,,1601 North 84th Street,NE,68505,US,40.82935333,-96.60788727,2022-11-15 10:38:14
Caribou,1000 South 178th Street,,1000 South 178th Street,NE,68118,US,41.25014496,-96.19365692,2022-11-15 10:37:48
Caribou,420 University Boulevard,,420 University Boulevard,IN,46202,US,39.77389908,-86.17630768,2022-11-17 06:35:34
Caribou,533 12th Street S,,533 12th Street S,MN,56378,US,45.72306824,-94.95235443,2022-11-15 10:33:33
Caribou,1500 Elm St East,,1500 Elm St East,MN,56374,US,45.56806183,-94.29714203,2022-11-15 10:33:33
Caribou,1725 Pine Cone Road South,,1725 Pine Cone Road South,MN,56377,US,45.59616852,-94.22548676,2022-11-15 10:33:33
Caribou,113 South Waite Avenue,,113 South Waite Avenue,MN,56387,US,45.55080795,-94.21546173,2022-11-15 10:33:33
Caribou,4135 West Division Street,,4135 West Division Street,MN,56301,US,45.5537796,-94.211586,2022-11-15 10:33:33
Caribou,4101 West Division Street,,4101 West Division Street,MN,56301,US,45.55377579,-94.21157837,2022-11-15 10:33:33
Caribou,4911 Highway 29,,4911 Highway 29,MN,56308,US,45.84679031,-95.38735962,2022-11-15 10:37:15
Caribou,880 18th ST NW,,880 18th ST NW,MN,56379,US,45.60955048,-94.18429565,2022-11-15 10:36:50
Caribou,2510 West Division Street,,2510 West Division Street,MN,56301,US,45.55196762,-94.18877411,2022-11-15 10:31:58
Caribou,2423 Division Street West,,2423 Division Street West,MN,56301,US,45.55345917,-94.18766022,2022-11-15 10:31:58
Caribou,307 North Nokomis Square,,307 North Nokomis Square,MN,56308,US,45.89414597,-95.36710358,2022-11-15 10:37:15
Caribou,110 1st St S,,110 1st St S,MN,56379,US,45.58749008,-94.16371155,2022-11-15 10:36:50
Caribou,310 Lincoln Ave,,310 Lincoln Ave,MN,56304,US,45.5641861,-94.14242554,2022-11-15 10:36:50
Caribou,705 County Road 75 NW,,705 County Road 75 NW,MN,55320,US,45.41556168,-94.05238342,2022-11-15 10:31:58
Caribou,100 6th Street,,100 6th Street,MN,55362,US,45.30157471,-93.79779816,2022-11-15 10:31:58
Caribou,701 3rd Avenue NE,,701 3rd Avenue NE,MN,55313,US,45.17939377,-93.87240601,2022-11-15 10:31:58
Caribou,506 E Converse Street,,506 E Converse Street,WY,82721,US,44.26394653,-104.94446564,2022-11-15 10:59:33
Caribou,800 Wacker Drive,,800 Wacker Drive,IA,52002,US,42.49274445,-90.71998596,2022-11-16 20:46:31
Caribou,4107 Mormon Coulee Rd,,4107 Mormon Coulee Rd,WI,54601,US,43.77380371,-91.21772766,2022-11-15 10:38:32
Caribou,3801 East Washington Avenue,,3801 East Washington Avenue,WI,53704,US,43.11788559,-89.31861877,2022-11-16 20:46:31
Caribou,1202 County Road PH,,1202 County Road PH,WI,54650,US,43.86741257,-91.20554352,2022-11-15 10:38:32
Caribou,3025 S Kinney Coulee Rd,,3025 S Kinney Coulee Rd,WI,54650,US,43.8739357,-91.18809509,2022-11-15 10:38:32
Caribou,3235 Oakland Road NE,,3235 Oakland Road NE,IA,52403,US,42.01145172,-91.65979767,2022-11-15 23:42:34
Caribou,202 10th Street SE,,202 10th Street SE,IA,52403,US,41.98347092,-91.65830994,2022-11-15 23:42:34
Caribou,1570 Service Drive,,1570 Service Drive,MN,55987,US,44.0502739,-91.67993927,2022-11-15 10:38:32
Caribou,2870 Edgewood Road SW,,2870 Edgewood Road SW,IA,52404,US,41.94963074,-91.7166748,2022-11-15 23:42:34
Caribou,609 N Spring Street,,609 N Spring Street,WI,53916,US,43.46166611,-88.8347168,2022-11-16 20:46:27
Caribou,3700 University Avenue,,3700 University Avenue,IA,50701,US,42.50502396,-92.39936066,2022-11-15 10:57:18
Caribou,6719 University Avenue,,6719 University Avenue,IA,50613,US,42.51247025,-92.43924713,2022-11-15 10:59:15
Caribou,621 6th Ave SE,,621 6th Ave SE,SD,57401,US,45.45863724,-98.47880554,2022-11-15 10:39:30
Caribou,604 6th Avenue SE,,604 6th Avenue SE,SD,57401,US,45.45861053,-98.47884369,2022-11-15 10:39:30
Caribou,45789 US Highway 12,,45789 US Highway 12,SD,57266,US,45.31126022,-97.04594421,2022-11-15 10:39:30
Caribou,24022 US Hwy 83,,24022 US Hwy 83,SD,57576,US,43.91713333,-100.31500244,2022-11-15 10:08:47
Caribou,1823 Market Boulevard,,1823 Market Boulevard,MN,55033,US,44.73701477,-92.89376068,2022-11-15 10:36:02
Caribou,1005 Eagle Ridge Drive,,1005 Eagle Ridge Drive,WI,54021,US,44.76255035,-92.78936005,2022-11-15 10:36:02
Caribou,7702 80th Street,,7702 80th Street,MN,55016,US,44.8338623,-92.94995117,2022-11-15 10:36:02
Caribou,7145 East Point Douglas Road South,,7145 East Point Douglas Road South,MN,55016,US,44.83304977,-92.96006775,2022-11-15 09:16:05
Caribou,9008 Cahill Avenue,,9008 Cahill Avenue,MN,55076,US,44.81909943,-93.03863525,2022-11-15 09:16:05
Caribou,3868 150th Street West,,3868 150th Street West,MN,55068,US,44.7312088,-93.14358521,2022-11-15 09:36:19
Caribou,610 Opperman Drive,,610 Opperman Drive,MN,55123,US,44.82504654,-93.11321259,2022-11-15 09:16:05
Caribou,15730 Emperor Ave,,15730 Emperor Ave,MN,55124,US,44.72060394,-93.17440033,2022-11-15 10:08:29
Caribou,5763 Blaine Avenue,,5763 Blaine Avenue,MN,55076,US,44.8658371,-93.0561142,2022-11-15 08:45:29
Caribou,2900 Ames Crossing Road,,2900 Ames Crossing Road,MN,55121,US,44.85211945,-93.10807037,2022-11-15 08:45:29
Caribou,8320 City Centre Drive,,8320 City Centre Drive,MN,55125,US,44.92079926,-92.93841553,2022-11-15 10:36:02
Caribou,4682 S Robert Trail,,4682 S Robert Trail,MN,55077,US,44.88181686,-93.08011627,2022-11-15 08:45:29
Caribou,3405 Promenade Avenue,,3405 Promenade Avenue,MN,55121,US,44.83296585,-93.15361786,2022-11-15 08:45:29
Caribou,2864 Highway 55,,2864 Highway 55,MN,55121,US,44.85398483,-93.13114166,2022-11-15 08:45:29
Caribou,845 Vikings Pkwy,,845 Vikings Pkwy,MN,55121,US,44.85742569,-93.12716675,2022-11-15 08:45:29
Caribou,17605 Glasgow Ave,,17605 Glasgow Ave,MN,55044,US,44.69420242,-93.21511078,2022-11-15 10:23:00
Caribou,1380 Duckwood Drive,,1380 Duckwood Drive,MN,55123,US,44.82687759,-93.16573334,2022-11-15 08:45:29
Caribou,1299 Promenade Place,,1299 Promenade Place,MN,55121,US,44.83613968,-93.15833282,2022-11-15 08:45:29
Caribou,14638 Cedar Avenue,,14638 Cedar Avenue,MN,55124,US,44.73643112,-93.21703339,2022-11-15 10:08:29
Caribou,7050 Valley Creek Plaza,,7050 Valley Creek Plaza,MN,55125,US,44.9263649,-92.9634552,2022-11-15 08:45:29
Caribou,520 Jefferson Blvd NW,,520 Jefferson Blvd NW,MN,55309,US,45.33223343,-93.74169922,2022-11-15 10:36:50
Caribou,726 Martin Avenue,,726 Martin Avenue,MN,55309,US,45.33425522,-93.734375,2022-11-15 10:36:50
Caribou,1523 7th Street East,,1523 7th Street East,MN,55362,US,45.29299164,-93.77142334,2022-11-15 10:31:58
Caribou,12495 5th Ave N,,12495 5th Ave N,MN,55398,US,45.44720078,-93.5870285,2022-11-15 11:01:33
Caribou,703 Northland Drive,,703 Northland Drive,MN,55371,US,45.55685043,-93.5840683,2022-11-15 11:01:33
Caribou,19260 Freeport Street NW,,19260 Freeport Street NW,MN,55330,US,45.31932068,-93.56383514,2022-11-15 11:01:33
Caribou,19425 Evans St NW,,19425 Evans St NW,MN,55330,US,45.323452,-93.55941772,2022-11-15 11:01:33
Caribou,324 Lowell Ave NW,,324 Lowell Ave NW,MN,55330,US,45.30437851,-93.57010651,2022-11-15 11:01:33
Caribou,11008 61st Street Northeast,,11008 61st Street Northeast,MN,55301,US,45.23972321,-93.6638031,2022-11-15 10:14:53
Caribou,5698 La Centre Ave NE,,5698 La Centre Ave NE,MN,55301,US,45.23405838,-93.66090393,2022-11-15 10:14:53
Caribou,18157 Carson Court,,18157 Carson Court,MN,55330,US,45.30036545,-93.55480194,2022-11-15 11:01:33
Caribou,15700 88th St NE,,15700 88th St NE,MN,55330,US,45.27969742,-93.5663147,2022-11-15 09:55:30
Caribou,630 Ryans Way,,630 Ryans Way,MN,55313,US,45.17680359,-93.86417389,2022-11-15 10:31:58
Caribou,800 Hwy 55 E,,800 Hwy 55 E,MN,55313,US,45.17308426,-93.86407471,2022-11-15 10:31:58
Caribou,2219 Paul Bunyan Drive NW,,2219 Paul Bunyan Drive NW,MN,56601,US,47.49700546,-94.91270447,2022-11-15 10:07:01
Caribou,1171 Paul Bunyan Dr NW,,1171 Paul Bunyan Dr NW,MN,56601,US,47.49326706,-94.8968277,2022-11-15 10:07:01
Caribou,100 Paul Bunyan Dr NW,,100 Paul Bunyan Dr NW,MN,56601,US,47.49055862,-94.88018799,2022-11-15 10:07:01
Caribou,609 Washington Ave S,,609 Washington Ave S,MN,56601,US,47.45536423,-94.86563873,2022-11-15 10:07:01
Caribou,101 East 4th Street,,101 East 4th Street,MN,56470,US,46.91919327,-95.05789185,2022-11-15 10:29:32
Caribou,215 Pennington Avenue,,215 Pennington Avenue,MN,56701,US,48.11467361,-96.1770401,2022-11-15 10:32:09
Caribou,108 Main Street,,108 Main Street,MN,56623,US,48.71257401,-94.60076141,2022-11-15 10:27:17
Caribou,310 Main Avenue NE,,310 Main Avenue NE,MN,56763,US,48.90940094,-95.3182373,2022-11-15 10:27:17
Caribou,1385 Appleton Rd,,1385 Appleton Rd,WI,54952,US,44.22661209,-88.42404175,2022-11-16 20:45:02
Caribou,555 Calumet St.,,555 Calumet St.,WI,54915,US,44.24300385,-88.4119873,2022-11-16 20:45:02
Caribou,1200 West Northland Ave,,1200 West Northland Ave,WI,54914,US,44.28886032,-88.42365265,2022-11-16 20:45:02
Caribou,47051 Highway 50,,47051 Highway 50,SD,57010,US,42.78544998,-96.79669189,2022-11-15 10:35:30
Caribou,1001 S Western Avenue,,1001 S Western Avenue,SD,57033,US,43.61211777,-96.95128632,2022-11-15 10:39:30
Caribou,2445 2nd Street,,2445 2nd Street,IA,52241,US,41.68548203,-91.60209656,2022-11-15 23:42:34
Caribou,1110 Kepler Dr,,1110 Kepler Dr,WI,54311,US,44.48135757,-87.93788147,2022-11-15 23:34:16
Caribou,2304 College Way,,2304 College Way,MN,56537,US,46.2900238,-96.11354828,2022-11-15 10:37:15
Caribou,209 6th Avenue Northeast,,209 6th Avenue Northeast,MN,55040,US,45.49137115,-93.23612213,2022-11-15 11:01:33
Caribou,260 5th Ave NE,,260 5th Ave NE,MN,55040,US,45.49092102,-93.2385788,2022-11-15 11:01:33
Caribou,15561 Hornsby St NE,,15561 Hornsby St NE,MN,55025,US,45.24961853,-93.02191925,2022-11-15 11:01:33
Caribou,2190 Wheelock Dr NE,,2190 Wheelock Dr NE,MN,55906,US,44.04632568,-92.43185425,2022-11-15 10:57:18
Caribou,1021 15th Ave SE,,1021 15th Ave SE,MN,55904,US,44.00946426,-92.44459534,2022-11-15 10:57:18
Caribou,1593 North Broadway Avenue,,1593 North Broadway Avenue,MN,55906,US,44.03936386,-92.46274567,2022-11-15 10:57:18
Caribou,726 Main Street,,726 Main Street,MN,55066,US,44.56459808,-92.53946686,2022-11-15 10:36:02
Caribou,101 First Avenue Southwest,,101 First Avenue Southwest,MN,55902,US,44.02219772,-92.4648819,2022-11-15 10:57:18
Caribou,157 East Main St,,157 East Main St,WI,54011,US,44.73091125,-92.47658539,2022-11-15 10:36:02
Caribou,470 Student Union,,470 Student Union,OK,74078,US,36.12130737,-97.06842804,2022-11-16 20:49:12
Caribou,1620 South Burr Street,,1620 South Burr Street,SD,57301,US,43.69393921,-98.01219177,2022-11-15 10:39:30
Caribou,1305 West Havens Avenue,,1305 West Havens Avenue,SD,57301,US,43.70112228,-98.04268646,2022-11-15 10:39:30
Caribou,3938 Marketplace Drive NW,,3938 Marketplace Drive NW,MN,55901,US,44.06387711,-92.50099945,2022-11-15 10:57:18
Caribou,3038 N Service Dr.,,3038 N Service Dr.,MN,55066,US,44.56741333,-92.58119202,2022-11-15 10:36:02
Caribou,405 East Nifong Bouelvard,,405 East Nifong Bouelvard,MO,65201,US,38.91173553,-92.33363342,2022-11-16 00:10:22
Caribou,25 Conley Road,,25 Conley Road,MO,65201,US,38.94979858,-92.29602814,2022-11-16 00:10:22
Caribou,2211 11th St E,,2211 11th St E,MN,55336,US,44.77150345,-94.1325531,2022-11-15 10:38:21
Caribou,120 W Sioux Ave,,120 W Sioux Ave,SD,57501,US,44.36764526,-100.35480499,2022-11-15 10:08:47
Caribou,900 43rd AVE NE,,900 43rd AVE NE,ND,58503,US,46.85326767,-100.77724457,2022-11-15 10:39:01
Caribou,3209 Weiss Ave.,,3209 Weiss Ave.,ND,58503,US,46.8421936,-100.77497101,2022-11-15 10:39:01
Caribou,3101 North 11th Street,,3101 North 11th Street,ND,58503,US,46.83991241,-100.77455902,2022-11-15 10:39:01
Caribou,601 South 3rd Street,,601 South 3rd Street,ND,58504,US,46.79981232,-100.78730774,2022-11-15 10:39:01
Caribou,706 Kirkwood Mall,,706 Kirkwood Mall,ND,58504,US,46.79797745,-100.78599548,2022-11-15 10:39:01
Caribou,3122 Yorktown Drive,,3122 Yorktown Drive,ND,58503,US,46.84001923,-100.7301178,2022-11-15 10:39:01
Caribou,620 Mitchell Avenue N,,620 Mitchell Avenue N,ND,58482,US,46.86163712,-99.91638184,2022-11-15 10:39:01
Caribou,400 West 5th Street,,400 West 5th Street,MN,55057,US,44.45540237,-93.16545105,2022-11-15 10:23:00
Caribou,310 1st Avenue S,,310 1st Avenue S,ND,58401,US,46.90578842,-98.70903778,2022-11-15 10:39:01
Caribou,16731 Highway 13,,16731 Highway 13,MN,55372,US,44.70641327,-93.42866516,2022-11-15 10:23:00
Caribou,7745 Egan Drive,,7745 Egan Drive,MN,55378,US,44.74512482,-93.37901306,2022-11-15 10:08:29
Caribou,18444 Kenrick Avenue,,18444 Kenrick Avenue,MN,55044,US,44.68175888,-93.28812408,2022-11-15 10:23:00
Caribou,2400 Mystic Lake Boulevard,,2400 Mystic Lake Boulevard,MN,55372,US,44.73058701,-93.47434998,2022-11-15 10:08:55
Caribou,17880 Kenwood Trail,,17880 Kenwood Trail,MN,55044,US,44.68990326,-93.28116608,2022-11-15 10:23:00
Caribou,2351 County Road 42,,2351 County Road 42,MN,55306,US,44.74594498,-93.30870056,2022-11-15 10:08:29
Caribou,8360 Hansen Avenue,,8360 Hansen Avenue,MN,55379,US,44.77661133,-93.41214752,2022-11-15 09:35:42
Caribou,401 E County Road 42,,401 E County Road 42,MN,55306,US,44.73859406,-93.27022552,2022-11-15 10:08:29
Caribou,4905 Hwy 13 W,,4905 Hwy 13 W,MN,55378,US,44.77863693,-93.34231567,2022-11-15 10:08:29
Caribou,1100 East County Road 42,,1100 East County Road 42,MN,55337,US,44.73799896,-93.25862122,2022-11-15 10:08:29
Caribou,1539 17th Avenue East,,1539 17th Avenue East,MN,55379,US,44.77417755,-93.50400543,2022-11-15 09:03:13
Caribou,1 Valleyfair Drive,,1 Valleyfair Drive,MN,55379,US,44.79863358,-93.45409393,2022-11-15 09:03:13
Caribou,12601 Nicollet Avenue,,12601 Nicollet Avenue,MN,55337,US,44.7734375,-93.27711487,2022-11-15 10:08:29
Caribou,1361 Heather Street,,1361 Heather Street,MN,55379,US,44.78253555,-93.50682068,2022-11-15 09:03:13
Caribou,3835 West Old Shakopee Road,,3835 West Old Shakopee Road,MN,55431,US,44.81028366,-93.32913208,2022-11-15 10:08:29
Caribou,5159 West 98th Street,,5159 West 98th Street,MN,55437,US,44.8238678,-93.34920502,2022-11-15 10:08:29
Caribou,2001 Cliff Road East,,2001 Cliff Road East,MN,55337,US,44.78965759,-93.2454071,2022-11-15 10:08:29
Caribou,7107 Otter Lake Road Suite 150,,7107 Otter Lake Road Suite 150,MN,55038,US,45.16495132,-93.02509308,2022-11-15 11:01:33
Caribou,730 Apollo Drive,,730 Apollo Drive,MN,55014,US,45.18236542,-93.1078949,2022-11-15 11:01:33
Caribou,4345 Pheasant Ridge Drive,,4345 Pheasant Ridge Drive,MN,55449,US,45.16359711,-93.15991211,2022-11-15 09:55:12
Caribou,12417 Ulysses Street,,12417 Ulysses Street,MN,55434,US,45.19649506,-93.23568726,2022-11-15 11:01:33
Caribou,4733 Highway 61,,4733 Highway 61,MN,55110,US,45.08517838,-93.01086426,2022-11-15 10:17:41
Caribou,3445 Lake Drive,,3445 Lake Drive,MN,55014,US,45.13027954,-93.18191528,2022-11-15 09:12:11
Caribou,4630 Centerville Road,,4630 Centerville Road,MN,55110,US,45.08139038,-93.05542755,2022-11-15 09:07:20
Caribou,1080 Highway 96,,1080 Highway 96,MN,55127,US,45.07862473,-93.05463409,2022-11-15 09:07:20
Caribou,10400 Baltimore Street,,10400 Baltimore Street,MN,55449,US,45.15924454,-93.2342453,2022-11-15 09:12:11
Caribou,113 Village Center Drive,,113 Village Center Drive,MN,55127,US,45.08013916,-93.11472321,2022-11-15 09:07:20
Caribou,8200 Coral Sea Street NE,,8200 Coral Sea Street NE,MN,55112,US,45.11867523,-93.1992569,2022-11-15 09:12:11
Caribou,2751 County Road E,,2751 County Road E,MN,55110,US,45.05065918,-92.98569489,2022-11-15 10:17:41
Caribou,2585 County Road 10,,2585 County Road 10,MN,55112,US,45.10774612,-93.2122879,2022-11-15 09:07:20
Caribou,2404 Mounds View Blvd,,2404 Mounds View Blvd,MN,55112,US,45.10136414,-93.20354462,2022-11-15 09:07:20
Caribou,1966 Bunker Lake Boulevard NW,,1966 Bunker Lake Boulevard NW,MN,55304,US,45.21905136,-93.31587219,2022-11-15 11:01:33
Caribou,8097 Highway 65,,8097 Highway 65,MN,55432,US,45.11482239,-93.24111176,2022-11-15 09:07:20
Caribou,3100 White Bear Avenue North,,3100 White Bear Avenue North,MN,55109,US,45.03533936,-93.01705933,2022-11-15 09:07:20
Caribou,155 E 12th Street,,155 E 12th Street,ND,58237,US,48.41305923,-97.40873718,2022-11-15 10:32:09
Caribou,1830 Market Drive,,1830 Market Drive,MN,55082,US,45.03898239,-92.84210205,2022-11-15 10:36:02
Caribou,303 S Main Street,,303 S Main Street,WI,54022,US,44.85665131,-92.62748718,2022-11-15 10:36:02
Caribou,6014 Highway 36,,6014 Highway 36,MN,55128,US,45.02075577,-92.98436737,2022-11-15 09:12:07
Caribou,3507 Round Lake Boulevard NW,,3507 Round Lake Boulevard NW,MN,55303,US,45.21760559,-93.35823822,2022-11-15 11:01:33
Caribou,1835 Gateway Drive,,1835 Gateway Drive,MN,55433,US,45.18533325,-93.31321716,2022-11-15 10:18:21
Caribou,3536 Main Street,,3536 Main Street,MN,55448,US,45.19697952,-93.35549164,2022-11-15 10:18:21
Caribou,14050 St Francis Boulevard,,14050 St Francis Boulevard,MN,55303,US,45.22546768,-93.39810181,2022-11-15 10:18:21
Caribou,1560 Coon Rapids Blvd.,,1560 Coon Rapids Blvd.,MN,55433,US,45.15513992,-93.30706024,2022-11-15 10:18:21
Caribou,2149 Cliff Road,,2149 Cliff Road,MN,55122,US,44.79111481,-93.21724701,2022-11-15 10:08:29
Caribou,16393 County Road 30,,16393 County Road 30,MN,55311,US,45.12542725,-93.48877716,2022-11-15 10:18:21
Caribou,9805 Maple Grove Parkway,,9805 Maple Grove Parkway,MN,55369,US,45.13244629,-93.47797394,2022-11-15 10:18:21
Caribou,13250 Grove Drive,,13250 Grove Drive,MN,55369,US,45.10424042,-93.44854736,2022-11-15 10:18:21
Caribou,12880 Elm Creek Boulevard,,12880 Elm Creek Boulevard,MN,55369,US,45.0965004,-93.44425964,2022-11-15 10:18:21
Caribou,12850 Bass Lake Road,,12850 Bass Lake Road,MN,55369,US,45.06606674,-93.44256592,2022-11-15 10:18:21
Caribou,8881 Jefferson Highway,,8881 Jefferson Highway,MN,55369,US,45.11491013,-93.40296936,2022-11-15 10:18:21
Caribou,325 Clydesdale Trail,,325 Clydesdale Trail,MN,55340,US,45.04470444,-93.53128052,2022-11-15 09:29:40
Caribou,7635 Jolly Lane,,7635 Jolly Lane,MN,55445,US,45.09412003,-93.38310242,2022-11-15 10:18:21
Caribou,8479 West Broadway,,8479 West Broadway,MN,55445,US,45.10855865,-93.3782959,2022-11-15 10:18:21
Caribou,3455 Vicksburg Lane,,3455 Vicksburg Lane,MN,55447,US,45.02002335,-93.48493958,2022-11-15 09:29:40
Caribou,16725 County Road 24,,16725 County Road 24,MN,55447,US,45.01950073,-93.49291992,2022-11-15 09:29:40
Caribou,11468 Jefferson Court,,11468 Jefferson Court,MN,55316,US,45.16085434,-93.3924942,2022-11-15 10:18:21
Caribou,4345 Nathan Lane North,,4345 Nathan Lane North,MN,55442,US,45.03374481,-93.40901184,2022-11-15 09:29:40
Caribou,9638 Colorado Lane North,,9638 Colorado Lane North,MN,55445,US,45.13189697,-93.35713959,2022-11-15 10:18:21
Caribou,2720 Annapolis Circle,,2720 Annapolis Circle,MN,55441,US,45.00930405,-93.45059204,2022-11-15 09:29:40
Caribou,9420 36th Avenue North,,9420 36th Avenue North,MN,55427,US,45.02265549,-93.39958954,2022-11-15 09:29:40
Caribou,4210 Winnetka Avenue,,4210 Winnetka Avenue,MN,55428,US,45.03374481,-93.37995148,2022-11-15 09:29:40
Caribou,13635 Northdale Boulevard,,13635 Northdale Boulevard,MN,55374,US,45.2019043,-93.55516815,2022-11-15 09:55:30
Caribou,101 West Main Street,,101 West Main Street,MN,55303,US,45.19953918,-93.39286041,2022-11-15 10:18:21
Caribou,8000 Norman Center Drive,,8000 Norman Center Drive,MN,55437,US,44.85241699,-93.35160065,2022-11-15 09:35:42
Caribou,7950 Penn Avenue South,,7950 Penn Avenue South,MN,55431,US,44.85928345,-93.30948639,2022-11-15 10:08:29
Caribou,200 Alton Avenue SE,,200 Alton Avenue SE,MN,56071,US,44.54196548,-93.55412292,2022-11-15 10:23:00
Caribou,7988 Sunwood Drive NW,,7988 Sunwood Drive NW,MN,55303,US,45.23519135,-93.46945953,2022-11-15 10:18:21
Caribou,6001 Shady Oak Road,,6001 Shady Oak Road,MN,55343,US,44.89470291,-93.41971588,2022-11-15 09:39:50
Caribou,11000 Optum Circle,,11000 Optum Circle,MN,55344,US,44.89020157,-93.41531372,2022-11-15 09:39:50
Caribou,9900 Bren Road East,,9900 Bren Road East,MN,55343,US,44.89735413,-93.40338898,2022-11-15 09:39:50
Caribou,5816 Lincoln Drive,,5816 Lincoln Drive,MN,55436,US,44.89849472,-93.40010071,2022-11-15 09:39:50
Caribou,11400 Highway 7,,11400 Highway 7,MN,55343,US,44.93394852,-93.42588043,2022-11-15 09:39:50
Caribou,1601 Highway 7,,1601 Highway 7,MN,55305,US,44.93369675,-93.42017365,2022-11-15 09:39:50
Caribou,970 Prairie Center Drive,,970 Prairie Center Drive,MN,55344,US,44.86526871,-93.44273376,2022-11-15 09:39:50
Caribou,11611 Leona Road,,11611 Leona Road,MN,55344,US,44.85902405,-93.42486572,2022-11-15 09:39:50
Caribou,8208 Highway 7,,8208 Highway 7,MN,55426,US,44.9368782,-93.38369751,2022-11-15 09:39:50
Caribou,8251 Flying Cloud Drive,,8251 Flying Cloud Drive,MN,55344,US,44.85430908,-93.42449188,2022-11-15 09:39:50
Caribou,5000 Vernon Avenue,,5000 Vernon Avenue,MN,55436,US,44.91222,-93.35460663,2022-11-15 09:39:50
Caribou,1700 Plymouth Road,,1700 Plymouth Road,MN,55305,US,44.96712112,-93.44329071,2022-11-15 09:39:50
Caribou,5125 Edina Industrial Boulevard,,5125 Edina Industrial Boulevard,MN,55439,US,44.86348724,-93.3538208,2022-11-15 09:39:50
Caribou,12569 Wayzata Boulevard,,12569 Wayzata Boulevard,MN,55305,US,44.96800232,-93.43715668,2022-11-15 09:39:50
Caribou,13081 Ridgedale Drive,,13081 Ridgedale Drive,MN,55305,US,44.96827316,-93.445755,2022-11-15 09:39:50
Caribou,3777 Park Center Boulevard,,3777 Park Center Boulevard,MN,55416,US,44.93492889,-93.34660339,2022-11-15 09:39:50
Caribou,60 East Broadway N-224,,60 East Broadway N-224,MN,55425,US,44.85440063,-93.24187469,2022-11-15 10:08:29
Caribou,60 East Broadway S-380,,60 East Broadway S-380,MN,55425,US,44.85440063,-93.24187469,2022-11-15 10:08:29
Caribou,60 East Broadway S-226,,60 East Broadway S-226,MN,55425,US,44.85477448,-93.24202728,2022-11-15 10:08:29
Caribou,80 East Broadway,,80 East Broadway,MN,55425,US,44.854496,-93.24011993,2022-11-15 10:08:29
Caribou,60 East Broadway N-194,,60 East Broadway N-194,MN,55425,US,44.85533524,-93.24325562,2022-11-15 10:08:29
Caribou,5102 Center Court - Nickelodeon Universe,,5102 Center Court - Nickelodeon Universe,MN,55425,US,44.85577393,-93.24217224,2022-11-15 10:08:29
Caribou,225 Triangle Lane N,,225 Triangle Lane N,MN,55352,US,44.6710701,-93.63687897,2022-11-15 10:08:55
Caribou,8559 Edinburgh Centre Drive North,,8559 Edinburgh Centre Drive North,MN,55443,US,45.11068344,-93.30548859,2022-11-15 10:18:21
Caribou,8094 University Ave NE,,8094 University Ave NE,MN,55432,US,45.11490631,-93.26456451,2022-11-15 10:18:21
Caribou,9955 Hudson Place,,9955 Hudson Place,MN,55125,US,44.94397736,-92.90470886,2022-11-15 10:36:02
Caribou,365 Radio Drive,,365 Radio Drive,MN,55125,US,44.94239807,-92.93206787,2022-11-15 10:36:02
