company_name,address_line_1,address_line_2,city,state_alpha,postal_code,country_code,latitude,longitude,when_verified
Culvers,3699 Hwy 95 #700,,Bullhead City,AZ,86442,US,35.05419159,-114.58908081,2022-12-18 06:25:17
Culvers,1737 Airway Ave,,Kingman,AZ,86409,US,35.22539902,-114.03479767,2022-12-18 06:25:16
Culvers,4591 Power Center Ln,,Orlando,FL,32839,US,28.49462318,-81.42198181,2022-12-18 06:25:09
Culvers,3148 N Orange Blossom Trl,,Kissimmee,FL,34744,US,28.34140015,-81.40419006,2022-12-18 06:25:09
Culvers,13649 W Colonial Dr,,Winter Garden,FL,34787,US,28.5514679,-81.58550262,2022-12-18 06:25:09
Culvers,9070 W Irlo Bronson Memorial Hwy,,Kissimmee,FL,34747,US,28.34641075,-81.65097046,2022-12-18 06:25:09
Culvers,11978 Narcoossee Rd,,Orlando,FL,32832,US,28.39069939,-81.24479675,2022-12-18 06:25:09
Culvers,1616 E Semoran Blvd,,Apopka,FL,32703,US,28.67219925,-81.48020172,2022-12-18 06:25:09
Culvers,1431 Johns Lake Rd,,Clermont,FL,34711,US,28.52676773,-81.73112488,2022-12-18 06:25:09
Culvers,3920 US Hwy 17-92,,Casselberry,FL,32707,US,28.67552757,-81.33745575,2022-12-18 06:25:09
Culvers,1107 Posner Blvd,,Davenport,FL,33837,US,28.22450066,-81.64420319,2022-12-18 06:25:09
Culvers,1050 E Irlo Bronson Hwy,,St. Cloud,FL,34769,US,28.24539948,-81.25689697,2022-12-18 06:25:09
Culvers,889 W Mitchell Hammock Rd,,Oviedo,FL,32765,US,28.65609932,-81.22260284,2022-12-18 06:25:09
Culvers,37061 N US Hwy 27,,Haines City,FL,33844,US,28.13909531,-81.63687134,2022-12-18 06:25:09
Culvers,5100 State Hwy 121,,Lewisville,TX,75056,US,33.06948471,-96.8783493,2022-12-18 06:25:11
Culvers,4200 W Eldorado Pkwy,,McKinney,TX,75070,US,33.16971588,-96.67214203,2022-12-18 06:25:13
Culvers,2709 Flower Mound Rd,,Flower Mound,TX,75022,US,33.01329041,-97.07262421,2022-12-18 06:25:11
Culvers,6677 Flewellen Way,,Fulshear,TX,77441,US,29.69510078,-95.84899902,2022-12-18 06:25:17
Culvers,2901 Dale Earnhardt Blvd,,Kannapolis,NC,28083,US,35.46900177,-80.59020233,2022-12-18 06:25:13
Culvers,7031 University City Blvd,,Charlotte,NC,28262,US,35.29042053,-80.76475525,2022-12-18 06:25:12
Culvers,388 Talbert Rd,,Mooresville,NC,28117,US,35.58300018,-80.85209656,2022-12-18 06:25:13
Culvers,730 Jake Alexander Blvd S,,Salisbury,NC,28147,US,35.64490128,-80.48519897,2022-12-18 06:25:15
Culvers,874 Hawley Ave,,Belmont,NC,28012,US,35.25486755,-81.02890778,2022-12-18 06:25:12
Culvers,2409 Laurens Rd,,Greenville,SC,29607,US,34.83129883,-82.34790039,2022-12-18 07:39:41
Culvers,2021 Woodruff Rd,,Greenville,SC,29607,US,34.82040024,-82.26026154,2022-12-18 07:39:41
Culvers,240 Harrison Bridge Rd,,Simpsonville,SC,29680,US,34.70589828,-82.24710083,2022-12-18 07:39:41
Culvers,1040 W Wade Hampton Blvd,,Greer,SC,29651,US,34.94448853,-82.25341034,2022-12-18 07:39:41
Culvers,1700 E. Main Street,,Duncan,SC,29334,US,34.90209961,-82.09680176,2022-12-18 07:39:41
Culvers,331 Northpark Dr,,Kingwood,TX,77339,US,30.06954956,-95.24241638,2022-12-18 06:25:16
Culvers,1426 N Loop 336 W,,Conroe,TX,77304,US,30.33289528,-95.48236847,2022-12-18 06:25:16
Culvers,5420 E Atascocita Rd,,Atascocita,TX,77346,US,29.98808289,-95.19277954,2022-12-18 06:25:16
Culvers,2460 Kennesaw Due West Rd,,Kennesaw,GA,30152,US,34.0141449,-84.6151123,2022-12-18 06:25:14
Culvers,1275 Hwy 92,,Acworth,GA,30102,US,34.08480072,-84.65540314,2022-12-18 06:25:14
Culvers,11799 Hwy 92,,Woodstock,GA,30188,US,34.08850098,-84.49120331,2022-12-18 06:25:13
Culvers,6778 Hickory Flat Hwy,,Canton,GA,30115,US,34.17031097,-84.4148407,2022-12-18 06:25:13
Culvers,3135 Peachtree Pkwy,,Suwanee,GA,30024,US,34.08657837,-84.16339874,2022-12-18 06:25:09
Culvers,5512 Bethelview Rd,,Cumming,GA,30040,US,34.17213058,-84.18685913,2022-12-18 06:25:09
Culvers,20835 N Cave Creek Rd,,Phoenix,AZ,85024,US,33.67639542,-112.03044128,2022-12-18 06:25:11
Culvers,1825 W Deer Valley Dr,,Phoenix,AZ,85027,US,33.68341446,-112.09798431,2022-12-18 06:25:11
Culvers,8668 E Shea Blvd,,Scottsdale,AZ,85260,US,33.58274078,-111.89365387,2022-12-18 07:39:41
Culvers,10225 N 28th Dr,,Phoenix,AZ,85051,US,33.57984161,-112.1214447,2022-12-18 06:25:11
Culvers,825 E Camelback Rd,,Phoenix,AZ,85014,US,33.50898361,-112.06308746,2022-12-18 07:39:41
Culvers,8271 W Ludlow Dr,,Peoria,AZ,85381,US,33.61163712,-112.23681641,2022-12-18 06:25:11
Culvers,8330 W Deer Valley Rd,,Peoria,AZ,85382,US,33.68203354,-112.23916626,2022-12-18 06:25:11
Culvers,630 E Southern Ave,,Tempe,AZ,85282,US,33.39342117,-111.92979431,2022-12-18 07:39:41
Culvers,5127 N 99th Ave,,Glendale,AZ,85305,US,33.50947189,-112.27198792,2022-12-18 06:25:11
Culvers,1909 S Country Club Dr,,Mesa,AZ,85210,US,33.37996674,-111.83955383,2022-12-18 07:39:41
Culvers,1025 N Avondale Blvd,,Avondale,AZ,85323,US,33.45730972,-112.3058548,2022-12-18 06:25:11
Culvers,3155 W Ray Rd,,Chandler,AZ,85226,US,33.31972885,-111.89663696,2022-12-18 07:39:41
Culvers,1841 S Greenfield Rd,,Mesa,AZ,85206,US,33.38134766,-111.73899841,2022-12-18 07:39:41
Culvers,16145 W Bell Rd,,Surprise,AZ,85374,US,33.63848877,-112.40679932,2022-12-18 06:25:11
Culvers,1904 N Main St,,Summerville,SC,29486,US,33.04385376,-80.12258911,2022-12-18 06:25:16
Culvers,4821 Tanger Outlet Blvd,,North Charleston,SC,29418,US,32.87580109,-80.01679993,2022-12-18 06:25:16
Culvers,3848 Ladson Rd,,Ladson,SC,29456,US,32.97558594,-80.13658142,2022-12-18 06:25:16
Culvers,818 N 12th St,,Murray,KY,42071,US,36.62705231,-88.31317902,2022-12-18 06:25:20
Culvers,2713 Cloverdale Road,,Florence,AL,35633,US,34.84260178,-87.68910217,2022-12-18 06:25:15
Culvers,5450 Old Hwy 60 W,,Paducah,KY,42001,US,37.07098389,-88.70391846,2022-12-18 06:25:16
Culvers,1003 S Walton Blvd,,Bentonville,AR,72712,US,36.36109924,-94.21640015,2022-12-18 06:25:18
Culvers,4204 W New Hope Rd,,Rogers,AR,72758,US,36.31336212,-94.17755127,2022-12-18 06:25:18
Culvers,3424 W William Cannon Dr,,Austin,TX,78745,US,30.21372795,-97.82935333,2022-12-18 06:25:09
Culvers,888 Cypress Gardens Blvd,,Winter Haven,FL,33880,US,28.00359917,-81.71520233,2022-12-18 06:25:09
Culvers,2411 Medical Center Pkwy,,Murfreesboro,TN,37129,US,35.85799026,-86.43997192,2022-12-18 06:25:09
Culvers,2993 S Rutherford Blvd,,Murfreesboro,TN,37130,US,35.83421326,-86.35144043,2022-12-18 06:25:09
Culvers,35 Old Pleasant Grove Rd,,Mt. Juliet,TN,37122,US,36.17525482,-86.51476288,2022-12-18 06:25:09
Culvers,3400 Mallory Ln,,Franklin,TN,37067,US,35.94028473,-86.82086945,2022-12-18 06:25:09
Culvers,5742 Tylersville Rd,,Mason,OH,45040,US,39.35235596,-84.32345581,2022-12-18 06:25:14
Culvers,11530 Princeton Pike,,Springdale,OH,45246,US,39.2867012,-84.46649933,2022-12-18 06:25:14
Culvers,3111 Princeton Rd,,Hamilton,OH,45011,US,39.39053726,-84.51147461,2022-12-18 06:25:14
Culvers,1301 State Hwy 63,,Monroe,OH,45050,US,39.43912125,-84.32981873,2022-12-18 06:25:14
Culvers,2475 Ridge Rd,,Rockwall,TX,75087,US,32.90032196,-96.46711731,2022-12-18 06:25:19
Culvers,8554 Hwy 42,,Florence,KY,41042,US,38.9733963,-84.66278076,2022-12-18 06:25:14
Culvers,2080 E University Dr,,Auburn,AL,36830,US,32.62659836,-85.44920349,2022-12-18 06:25:16
Culvers,34820 Vine St.,,Eastlake,OH,44095,US,41.64210129,-81.43920135,2022-12-18 06:25:15
Culvers,90 Hwy 81 W,,McDonough,GA,30253,US,33.42759323,-84.18519592,2022-12-18 06:25:18
Culvers,548 E Brandon Blvd,,Brandon,FL,33511,US,27.93810081,-82.2779007,2022-12-18 07:39:41
Culvers,2470 S Falkenburg Rd,,Tampa,FL,33619,US,27.92402077,-82.33811951,2022-12-18 07:39:41
Culvers,11620 Boyette Rd.,,Riverview,FL,33569,US,27.85409927,-82.30460358,2022-12-18 06:25:09
Culvers,10721 Big Bend Rd,,Riverview,FL,33579,US,27.7918396,-82.33113098,2022-12-18 06:25:09
Culvers,2103 N Park Rd,,Plant City,FL,33563,US,28.03370094,-82.10559845,2022-12-18 07:39:41
Culvers,15003 N Nebraska Ave,,Tampa,FL,33613,US,28.08856773,-82.45091248,2022-12-18 07:39:41
Culvers,10902 N Dale Mabry Hwy,,Tampa,FL,33618,US,28.04780006,-82.50509644,2022-12-18 07:39:41
Culvers,8106 W Hillsborough Ave,,Tampa,FL,33615,US,27.99622917,-82.57228851,2022-12-18 06:25:09
Culvers,28831 State Rd 56,,Wesley Chapel,FL,33543,US,28.19169998,-82.34030151,2022-12-18 07:39:41
Culvers,8410 Citrus Park Dr,,Tampa,FL,33625,US,28.06550026,-82.57749939,2022-12-18 06:25:09
Culvers,2303 Sun Vista Dr,,Lutz,FL,33559,US,28.19113159,-82.39484406,2022-12-18 07:39:41
Culvers,9046 4th St N,,St. Petersburg,FL,33702,US,27.85504341,-82.63908386,2022-12-18 06:25:09
Culvers,5246 US Hwy 98 N,,Lakeland,FL,33809,US,28.11070061,-81.97419739,2022-12-18 07:39:41
Culvers,6386 Gall Blvd,,Zephyrhills,FL,33542,US,28.25051498,-82.18787384,2022-12-18 07:39:41
Culvers,1819 W Montrose Ave,,Chicago,IL,60613,US,41.9612999,-87.67539978,2022-12-18 07:39:41
Culvers,6012 N Albany Ave,,Chicago,IL,60659,US,41.99079895,-87.70709991,2022-12-18 07:39:41
Culvers,4939 W Irving Park Rd,,Chicago,IL,60641,US,41.95317459,-87.7517395,2022-12-18 07:39:41
Culvers,3355 S Martin Luther King Dr,,Chicago,IL,60616,US,41.83338165,-87.61665344,2022-12-18 06:25:11
Culvers,7542 W Grand Ave,,Elmwood Park,IL,60707,US,41.92573547,-87.81587982,2022-12-18 07:39:41
Culvers,4538 N Harlem Ave,,Harwood Heights,IL,60706,US,41.96298599,-87.80757904,2022-12-18 07:39:41
Culvers,6943 W Roosevelt Rd,,Berwyn,IL,60402,US,41.86486435,-87.79837036,2022-12-18 07:39:41
Culvers,9455 N Skokie Blvd,,Skokie,IL,60077,US,42.05290604,-87.7437439,2022-12-18 07:39:41
Culvers,2751 Rose St,,Franklin Park,IL,60131,US,41.92869568,-87.86442566,2022-12-18 07:39:41
Culvers,6541 S Cicero Ave,,Chicago,IL,60638,US,41.77360153,-87.7417984,2022-12-18 07:39:41
Culvers,7310 W Dempster St,,Morton Grove,IL,60053,US,42.04109192,-87.80960083,2022-12-18 07:39:41
Culvers,8211 Ogden Ave,,Lyons,IL,60534,US,41.81589127,-87.82643127,2022-12-18 07:39:41
Culvers,7050 Mannheim Rd,,Rosemont,IL,60018,US,42.00790405,-87.88572693,2022-12-18 07:39:41
Culvers,1727 Waukegan Rd,,Glenview,IL,60025,US,42.08639908,-87.79759979,2022-12-18 07:39:41
Culvers,9515 S Kedzie Ave,,Evergreen Park,IL,60805,US,41.71987534,-87.70140076,2022-12-18 07:39:41
Culvers,436 N York St,,Elmhurst,IL,60126,US,41.91130066,-87.94020081,2022-12-18 07:39:41
Culvers,9229 S Harlem Ave,,Bridgeview,IL,60455,US,41.72407913,-87.79814148,2022-12-18 07:39:41
Culvers,11050 S. Doty Avenue W,,Chicago,IL,60628,US,41.69319916,-87.60140228,2022-12-18 07:39:41
Culvers,10745 S Cicero Ave,,Oak Lawn,IL,60453,US,41.69671249,-87.73937988,2022-12-18 07:39:41
Culvers,1501 Dempster St,,Mt. Prospect,IL,60056,US,42.03648758,-87.95865631,2022-12-18 07:39:41
Culvers,2060 Northwest Hwy,,Arlington Heights,IL,60004,US,42.07285309,-87.95682526,2022-12-18 07:39:41
Culvers,4105 Dundee Rd,,Northbrook,IL,60062,US,42.13809967,-87.88189697,2022-12-18 07:39:41
Culvers,1347 W Lake St,,Addison,IL,60101,US,41.94442749,-88.02150726,2022-12-18 07:39:41
Culvers,13300 Cicero Ave,,Crestwood,IL,60418,US,41.65074921,-87.73822021,2022-12-18 07:39:41
Culvers,1155 S Main St,,Lombard,IL,60148,US,41.86130524,-88.01694489,2022-12-18 07:39:41
Culvers,541 Plainfield Rd,,Darien,IL,60561,US,41.75442123,-87.95960236,2022-12-18 07:39:41
Culvers,2500 Ogden Ave,,Downers Grove,IL,60515,US,41.80560303,-88.04639435,2022-12-18 07:39:41
Culvers,1410 E Algonquin Rd,,Schaumburg,IL,60173,US,42.06858444,-88.04279327,2022-12-18 07:39:41
Culvers,450 McHenry Rd,,Buffalo Grove,IL,60089,US,42.16120529,-87.96218872,2022-12-18 07:39:41
Culvers,908 E Roosevelt Rd,,Wheaton,IL,60187,US,41.85850143,-88.09329987,2022-12-18 07:39:41
Culvers,290 Schmale Rd,,Carol Stream,IL,60188,US,41.89631271,-88.10292053,2022-12-18 07:39:41
Culvers,17010 Torrence Ave,,Lansing,IL,60438,US,41.58616638,-87.55997467,2022-12-18 07:39:41
Culvers,405 Milwaukee Ave,,Lincolnshire,IL,60069,US,42.20005417,-87.93238831,2022-12-18 07:39:41
Culvers,9130 159th St,,Orland Park,IL,60462,US,41.60187912,-87.84200287,2022-12-18 07:39:41
Culvers,455 W Schick Rd,,Bloomingdale,IL,60108,US,41.95352173,-88.12261963,2022-12-18 07:39:41
Culvers,1765 N Rand Rd,,Palatine,IL,60074,US,42.14271545,-88.02452087,2022-12-18 07:39:41
Culvers,12712 W 143rd St,,Homer Glen,IL,60491,US,41.62950134,-87.92939758,2022-12-18 07:39:41
Culvers,2240 W Braker Ln,,Austin,TX,78758,US,30.39139366,-97.71392822,2022-12-18 06:25:09
Culvers,2320 E Palm Valley Blvd,,Round Rock,TX,78665,US,30.51930618,-97.64907837,2022-12-18 06:25:09
Culvers,5122 Old Charlotte Hwy,,Indian Trail,NC,28079,US,35.04679871,-80.64369965,2022-12-18 06:25:12
Culvers,3521 Foothills Way,,Fort Mill,SC,29708,US,35.09349442,-80.93618774,2022-12-18 06:25:12
Culvers,230 Peachtree Industrial Blvd,,Sugar Hill,GA,30518,US,34.08043289,-84.05809784,2022-12-18 06:25:09
Culvers,2924 Buford Dr,,Buford,GA,30519,US,34.0532074,-83.99520111,2022-12-18 06:25:09
Culvers,1133 Scenic Hwy S,,Lawrenceville,GA,30045,US,33.90653229,-84.00389099,2022-12-18 06:25:09
Culvers,2660 Old Winder Hwy,,Braselton,GA,30517,US,34.11971283,-83.8263855,2022-12-18 07:39:41
Culvers,252 S 400 Center Ln,,Dawsonville,GA,30534,US,34.36093903,-84.04151154,2022-12-18 06:25:13
Culvers,1260 Dawsonville Hwy NE,,Gainesville,GA,30501,US,34.3045578,-83.85998535,2022-12-18 07:39:41
Culvers,463731 State Road 200,,Yulee,FL,32097,US,30.62859917,-81.55480194,2022-12-18 06:25:13
Culvers,101 Monument Rd,,Jacksonville,FL,32225,US,30.32349968,-81.5463028,2022-12-18 06:25:13
Culvers,7818 Gate Pkwy,,Jacksonville,FL,32256,US,30.23600006,-81.51889801,2022-12-18 06:25:09
Culvers,7923 Parramore Rd,,Jacksonville,FL,32244,US,30.2038002,-81.75749969,2022-12-18 06:25:09
Culvers,5836 De Zavala Rd,,San Antonio,TX,78249,US,29.56261444,-98.59877014,2022-12-18 06:25:18
Culvers,1780 Pecan Lane,,Kernersville,NC,27284,US,36.07820129,-80.10890198,2022-12-18 07:39:41
Culvers,2973 Fairlawn Dr,,Winston-Salem,NC,27106,US,36.14199829,-80.29309845,2022-12-18 07:39:41
Culvers,4020 Gateway Blvd,,Grovetown,GA,30813,US,33.47959137,-82.19655609,2022-12-18 06:25:18
Culvers,290 Indian Lake Blvd,,Hendersonville,TN,37075,US,36.32849503,-86.59319305,2022-12-18 06:25:09
Culvers,3016 Belshire Village Dr,,Spring Hill,TN,37174,US,35.77050018,-86.91814423,2022-12-18 06:25:15
Culvers,1815 E Primrose St,,Springfield,MO,65804,US,37.14995956,-93.26315308,2022-12-18 06:25:09
Culvers,1400 E Sunshine St,,Springfield,MO,65804,US,37.18155289,-93.27111816,2022-12-18 06:25:09
Culvers,5565 N 21st St,,Ozark,MO,65721,US,37.07160187,-93.23100281,2022-12-18 06:25:09
Culvers,2520 N Glenstone Ave,,Springfield,MO,65803,US,37.24191666,-93.26050568,2022-12-18 06:25:09
Culvers,1481 E US-60,,Republic,MO,65738,US,37.13370132,-93.4571991,2022-12-18 06:25:09
Culvers,140 S Hampton Pl,,Clarksville,TN,37040,US,36.59114838,-87.29512787,2022-12-18 06:25:17
Culvers,1444 Rentra Dr,,Columbus,OH,43228,US,39.98142624,-83.14632416,2022-12-18 06:25:12
Culvers,4137 W Powell Rd,,Powell,OH,43065,US,40.15806961,-83.0966568,2022-12-18 06:25:12
Culvers,1912 OH Rte 256,,Reynoldsburg,OH,43068,US,39.94465637,-82.79490662,2022-12-18 06:25:12
Culvers,16421 Square Dr,,Marysville,OH,43040,US,40.24002838,-83.34328461,2022-12-18 06:25:12
Culvers,4567 Wall Triana Hwy,,Madison,AL,35758,US,34.70709991,-86.75039673,2022-12-18 06:25:15
Culvers,8382 US Hwy 72 W,,Madison,AL,35758,US,34.75000763,-86.76482391,2022-12-18 06:25:15
Culvers,2009 6th Ave SE,,Decatur,AL,35601,US,34.57400131,-86.97460175,2022-12-18 06:25:15
Culvers,955 Noah Dr,,Jasper,GA,30143,US,34.47280121,-84.4618988,2022-12-18 06:25:15
Culvers,270 Hamilton Crossing Dr,,Alcoa,TN,37701,US,35.76620102,-83.98480225,2022-12-18 06:25:17
Culvers,9113 Kingston Pike,,Knoxville,TN,37923,US,35.91252518,-84.08507538,2022-12-18 06:25:17
Culvers,14800 Racho Rd,,Taylor,MI,48180,US,42.1990509,-83.24909973,2022-12-18 07:39:41
Culvers,15655 Southfield Rd,,Allen Park,MI,48101,US,42.25932312,-83.20922089,2022-12-18 07:39:41
Culvers,6500 Newburgh Rd,,Westland,MI,48185,US,42.33257675,-83.40827179,2022-12-18 07:39:41
Culvers,11001 Belleville Rd,,Belleville,MI,48111,US,42.22206879,-83.48412323,2022-12-18 07:39:41
Culvers,13030 Middlebelt Rd,,Livonia,MI,48150,US,42.38012314,-83.33138275,2022-12-18 07:39:41
Culvers,45275 Ford Rd,,Canton,MI,48187,US,42.3207016,-83.48600006,2022-12-18 07:39:41
Culvers,1899 N Telegraph Rd,,Monroe,MI,48162,US,41.94810104,-83.4016037,2022-12-18 07:39:41
Culvers,700 W Twelve Mile Rd,,Madison Heights,MI,48071,US,42.50514221,-83.1135025,2022-12-18 07:39:41
Culvers,485 Haggerty Rd,,Commerce Charter Twp,MI,48390,US,42.53350067,-83.43859863,2022-12-18 07:39:41
Culvers,49169 Alpha Dr,,Wixom,MI,48393,US,42.50111771,-83.53551483,2022-12-18 07:39:41
Culvers,22700 Pontiac Trail,,South Lyon,MI,48178,US,42.44869995,-83.64980316,2022-12-18 07:39:41
Culvers,3609 Raleigh Rd Pkwy W,,Wilson,NC,27896,US,35.7458992,-77.96720123,2022-12-18 06:25:18
Culvers,45 Fountains Way,,St. Johns,FL,32259,US,30.06739998,-81.49459839,2022-12-18 06:25:09
Culvers,371 Airport Rd,,Arden,NC,28704,US,35.44670105,-82.53218079,2022-12-18 06:25:14
Culvers,850 W 183rd St,,Homewood,IL,60430,US,41.55800629,-87.63817596,2022-12-18 07:39:41
Culvers,7905 Cabela Drive,,Hammond,IN,46324,US,41.56959915,-87.47869873,2022-12-18 07:39:41
Culvers,18248 Sayre Ave,,Tinley Park,IL,60477,US,41.55916977,-87.78878021,2022-12-18 07:39:41
Culvers,130 N Estrella Pkwy,,Goodyear,AZ,85338,US,33.44760132,-112.3934021,2022-12-18 06:25:11
Culvers,1540 N Verrado Way,,Buckeye,AZ,85396,US,33.46475983,-112.50476074,2022-12-18 06:25:11
Culvers,12538 State Rd 54,,Odessa,FL,33556,US,28.190979,-82.61077118,2022-12-18 06:25:09
Culvers,7760 Land O' Lakes Blvd,,Land O' Lakes,FL,34638,US,28.27059937,-82.47969818,2022-12-18 07:39:41
Culvers,2008 Gulf to Bay Blvd,,Clearwater,FL,33765,US,27.96100044,-82.7542038,2022-12-18 06:25:09
Culvers,3500 E Bay Dr,,Largo,FL,33771,US,27.91680145,-82.75052643,2022-12-18 06:25:09
Culvers,4702 Park Blvd N,,Pinellas Park,FL,33781,US,27.83882523,-82.69831848,2022-12-18 06:25:09
Culvers,8425 US Hwy 19,,Port Richey,FL,34668,US,28.28015709,-82.71838379,2022-12-18 06:25:09
Culvers,1451 34th St N,,St. Petersburg,FL,33713,US,27.78559685,-82.67897034,2022-12-18 06:25:09
Culvers,4903 Scottsville Rd,,Bowling Green,KY,42104,US,36.92838287,-86.4128418,2022-12-18 06:25:18
Culvers,1736 S. Buckley Road,,Aurora,CO,80017,US,39.68439865,-104.79049683,2022-12-18 06:25:12
Culvers,10440 E Arapahoe Rd,,Centennial,CO,80112,US,39.59450912,-104.86745453,2022-12-18 06:25:12
Culvers,7440 S Broadway,,Littleton,CO,80122,US,39.58227921,-104.98809052,2022-12-18 06:25:12
Culvers,18561 E Mainstreet,,Parker,CO,80134,US,39.51855469,-104.7742691,2022-12-18 06:25:12
Culvers,2035 S Webster St,,Lakewood,CO,80232,US,39.68000031,-105.0809021,2022-12-18 06:25:12
Culvers,9790 Washington St,,Thornton,CO,80229,US,39.87493134,-104.97709656,2022-12-18 06:25:12
Culvers,5330 W 72nd Ave,,Westminster,CO,80003,US,39.8269577,-105.05496979,2022-12-18 06:25:12
Culvers,654 Genoa Way,,Castle Rock,CO,80109,US,39.41041946,-104.86920929,2022-12-18 06:25:12
Culvers,1767 Blanding Blvd,,Middleburg,FL,32068,US,30.10540009,-81.82589722,2022-12-18 06:25:09
Culvers,3930 Airport Blvd,,Mobile,AL,36608,US,30.67650032,-88.14559937,2022-12-18 06:25:12
Culvers,1734 Hirschland Rd,,Evansville,IN,47715,US,37.99272537,-87.47325897,2022-12-18 06:25:14
Culvers,4850 W Lloyd Expy,,Evansville,IN,47712,US,37.97635651,-87.63446045,2022-12-18 06:25:14
Culvers,3197 25th St S,,Fargo,ND,58103,US,46.83294678,-96.82064056,2022-12-18 06:25:09
Culvers,4615 13th Ave SW,,Fargo,ND,58103,US,46.86223984,-96.8638916,2022-12-18 06:25:09
Culvers,4220 S Little Blue Pkwy,,Independence,MO,64057,US,39.03610229,-94.34355927,2022-12-18 07:39:41
Culvers,1301 SW State Hwy 7,,Blue Springs,MO,64015,US,39.00415421,-94.2734375,2022-12-18 07:39:41
Culvers,1701 NE Douglas St,,Lee's Summit,MO,64086,US,38.9422226,-94.37747955,2022-12-18 07:39:41
Culvers,1275 SE Oldham Pkwy,,Lee's Summit,MO,64081,US,38.90069962,-94.3423996,2022-12-18 07:39:41
Culvers,7953 State Line Rd,,Kansas City,MO,64114,US,38.9835968,-94.60785675,2022-12-18 07:39:41
Culvers,1905 W Kansas St,,Liberty,MO,64068,US,39.24394989,-94.4502182,2022-12-18 07:39:41
Culvers,6005 Metcalf Ave,,Mission,KS,66202,US,39.0201683,-94.66721344,2022-12-18 07:39:41
Culvers,1621 W Foxwood Dr,,Raymore,MO,64083,US,38.81193161,-94.48436737,2022-12-18 07:39:41
Culvers,5901 NW 64th St,,Kansas City,MO,64151,US,39.21001816,-94.64891052,2022-12-18 07:39:41
Culvers,8600 W 135th St,,Overland Park,KS,66223,US,38.88447952,-94.68487549,2022-12-18 07:39:41
Culvers,15911 W 87th St Pkwy,,Lenexa,KS,66219,US,38.97050095,-94.77089691,2022-12-18 07:39:41
Culvers,1925 Prairie Crossing,,Kansas City,KS,66111,US,39.12805176,-94.82060242,2022-12-18 07:39:41
Culvers,18685 W 151st St,,Olathe,KS,66062,US,38.85427856,-94.80334473,2022-12-18 07:39:41
Culvers,1218 S Hover Rd,,Longmont,CO,80501,US,40.14848328,-105.13014221,2022-12-18 07:39:41
Culvers,1606 W. Eisenhower Blvd,,Loveland,CO,80537,US,40.40673065,-105.10070038,2022-12-18 07:39:41
Culvers,4890 Thompson Pkwy,,Johnstown,CO,80534,US,40.40658951,-104.98078156,2022-12-18 07:39:41
Culvers,3502 W 29th St,,Greeley,CO,80634,US,40.38744354,-104.73571777,2022-12-18 07:39:41
Culvers,121 The Loop,,Elizabethtown,KY,42701,US,37.71435165,-85.83118439,2022-12-18 06:25:15
Culvers,1541 N Dixie Ave,,Elizabethtown,KY,42701,US,37.72700119,-85.88289642,2022-12-18 06:25:15
Culvers,1439 Center Rd,,Avon,OH,44011,US,41.46877289,-82.01921082,2022-12-18 06:25:11
Culvers,8464 Pearl Rd,,Strongsville,OH,44136,US,41.34690094,-81.82420349,2022-12-18 06:25:11
Culvers,2828 Medina Road,,Medina,OH,44256,US,41.13570023,-81.78910065,2022-12-18 06:25:11
Culvers,1401 Kelly Rd,,Apex,NC,27502,US,35.73680115,-78.89530182,2022-12-18 06:25:11
Culvers,5510 W Copans Rd,,Margate,FL,33063,US,26.25396919,-80.20011139,2022-12-18 06:25:19
Culvers,806 Trenton Ave,,Findlay,OH,45840,US,41.05913162,-83.66587067,2022-12-18 07:39:41
Culvers,125 W Gypsy Lane Rd,,Bowling Green,OH,43402,US,41.35641479,-83.65223694,2022-12-18 07:39:41
Culvers,5115 Shear Avenue,,Indianapolis,IN,46203,US,39.69789886,-86.08180237,2022-12-18 07:39:41
Culvers,1142 N Emerson Ave,,Greenwood,IN,46143,US,39.63320541,-86.08311462,2022-12-18 07:39:41
Culvers,320 State Rd 135,,Greenwood,IN,46142,US,39.61000443,-86.15927124,2022-12-18 07:39:41
Culvers,4701 Kentucky Ave,,Indianapolis,IN,46221,US,39.69981766,-86.26293945,2022-12-18 07:39:41
Culvers,7010 E 21st St,,Indianapolis,IN,46219,US,39.79669952,-86.0447998,2022-12-18 07:39:41
Culvers,8232 Country Village Dr,,Indianapolis,IN,46214,US,39.76361847,-86.30635834,2022-12-18 07:39:41
Culvers,11315 E Washington St,,Cumberland,IN,46229,US,39.77560043,-85.96430206,2022-12-18 07:39:41
Culvers,170 S Perry Rd,,Plainfield,IN,46168,US,39.71620941,-86.35753632,2022-12-18 07:39:41
Culvers,6111 N Keystone Ave,,Indianapolis,IN,46220,US,39.86610031,-86.12139893,2022-12-18 07:39:41
Culvers,5525 N Post Rd,,Lawrence,IN,46216,US,39.85321045,-86.01033783,2022-12-18 07:39:41
Culvers,191 Granville Dr,,Franklin,IN,46131,US,39.4836998,-86.01599884,2022-12-18 06:25:14
Culvers,7649 East US HWY 36,,Avon,IN,46123,US,39.76229858,-86.38749695,2022-12-18 07:39:41
Culvers,5020 W 71st St,,Indianapolis,IN,46268,US,39.88253403,-86.24539948,2022-12-18 07:39:41
Culvers,7105 E 96th St,,Indianapolis,IN,46250,US,39.92653275,-86.04331207,2022-12-18 07:39:41
Culvers,1225 N Green St,,Brownsburg,IN,46112,US,39.86019897,-86.3914032,2022-12-18 07:39:41
Culvers,1930 N Morristown Rd,,Shelbyville,IN,46176,US,39.55390167,-85.7743988,2022-12-18 06:25:11
Culvers,1846 N State St,,Greenfield,IN,46140,US,39.81165695,-85.77028656,2022-12-18 06:25:09
Culvers,6292 Mills Dr,,Whitestown,IN,46075,US,39.95050049,-86.34880066,2022-12-18 07:39:41
Culvers,14667 Gray Rd,,Westfield,IN,46062,US,40.00149918,-86.09030151,2022-12-18 07:39:41
Culvers,13691 Olio Rd,,Fishers,IN,46037,US,39.98749542,-85.91841888,2022-12-18 06:25:09
Culvers,1101 Jordan Creek Pkwy,,West Des Moines,IA,50266,US,41.58603668,-93.80806732,2022-12-18 06:25:12
Culvers,1820 22nd St,,West Des Moines,IA,50266,US,41.59937668,-93.73677063,2022-12-18 06:25:12
Culvers,455 E Hickman Rd,,Waukee,IA,50263,US,41.61560059,-93.86299896,2022-12-18 06:25:12
Culvers,8660 Plum Dr,,Urbandale,IA,50322,US,41.64818192,-93.73851776,2022-12-18 06:25:12
Culvers,1601 E 1st St,,Grimes,IA,50111,US,41.68909836,-93.77729797,2022-12-18 06:25:12
Culvers,5941 SE 14th St,,Des Moines,IA,50320,US,41.53177261,-93.5960083,2022-12-18 06:25:12
Culvers,2305 SE Delaware Ave,,Ankeny,IA,50021,US,41.70767593,-93.58060455,2022-12-18 06:25:12
Culvers,2535 Adventureland Dr,,Altoona,IA,50009,US,41.65979385,-93.49285126,2022-12-18 06:25:12
Culvers,110 Grove Creek Point,,Commerce,GA,30529,US,34.26039886,-83.46520233,2022-12-18 07:39:41
Culvers,1510 S Arizona Ave,,Chandler,AZ,85286,US,33.28356552,-111.84196472,2022-12-18 07:39:41
Culvers,3610 S Val Vista Dr,,Gilbert,AZ,85297,US,33.28480148,-111.75589752,2022-12-18 07:39:41
Culvers,1263 S Crismon Rd,,Mesa,AZ,85209,US,33.39122009,-111.61499786,2022-12-18 07:39:41
Culvers,140 W Ocotillo Rd,,Queen Creek,AZ,85140,US,33.24940109,-111.56609344,2022-12-18 07:39:41
Culvers,20430 N John Wayne Pkwy,,Maricopa,AZ,85139,US,33.06501389,-112.04810333,2022-12-18 07:39:41
Culvers,3710 Northside Dr,,Macon,GA,31210,US,32.89630127,-83.69090271,2022-12-18 06:25:17
Culvers,4750 Golf Rd,,Eau Claire,WI,54701,US,44.77515411,-91.43793488,2022-12-18 06:25:11
Culvers,2021 Brackett Ave,,Eau Claire,WI,54701,US,44.79964066,-91.47205353,2022-12-18 06:25:11
Culvers,2520 Folsom St,,Eau Claire,WI,54703,US,44.8290062,-91.54603577,2022-12-18 06:25:11
Culvers,2573 Commercial Blvd,,Chippewa Falls,WI,54729,US,44.8832016,-91.41810608,2022-12-18 06:25:11
Culvers,1330 Stout Rd,,Menomonie,WI,54751,US,44.87877655,-91.91336823,2022-12-18 06:25:15
Culvers,1800 Wise Rd,,Schaumburg,IL,60193,US,42.00405121,-88.12436676,2022-12-18 07:39:41
Culvers,1515 N Naper Blvd,,Naperville,IL,60563,US,41.79729843,-88.12030029,2022-12-18 07:39:41
Culvers,250 N Bolingbrook Dr,,Bolingbrook,IL,60440,US,41.70301056,-88.06783295,2022-12-18 07:39:41
Culvers,1430 S Illinois Route 59,,Bartlett,IL,60103,US,41.95339966,-88.20600128,2022-12-18 07:39:41
Culvers,3S525 Illinois Rte 59,,Warrenville,IL,60555,US,41.81740189,-88.20400238,2022-12-18 07:39:41
Culvers,4635 Hoffman Blvd,,Hoffman Estates,IL,60192,US,42.06908798,-88.19335938,2022-12-18 07:39:41
Culvers,2750 Muegge Rd,,St. Charles,MO,63303,US,38.78922653,-90.56525421,2022-12-18 07:39:41
Culvers,8500 Mexico Rd,,O'Fallon,MO,63366,US,38.79257202,-90.69459534,2022-12-18 07:39:41
Culvers,4351 Hwy K,,O'Fallon,MO,63368,US,38.72311401,-90.69992828,2022-12-18 07:39:41
Culvers,17349 Chesterfield Airport Rd,,Chesterfield,MO,63005,US,38.66882706,-90.60396576,2022-12-18 07:39:41
Culvers,1898 Wentzville Pkwy,,Wentzville,MO,63385,US,38.81745148,-90.87659454,2022-12-18 07:39:41
Culvers,15978 Manchester Rd,,Ellisville,MO,63011,US,38.59130096,-90.59059906,2022-12-18 07:39:41
Culvers,14444 Manchester Rd,,Manchester,MO,63011,US,38.59297943,-90.51914978,2022-12-18 07:39:41
Culvers,975 N Hwy 67,,Florissant,MO,63031,US,38.79969788,-90.32849884,2022-12-18 07:39:41
Culvers,10200 Big Bend Blvd,,St. Louis,MO,63122,US,38.56751633,-90.39517212,2022-12-18 07:39:41
Culvers,400 Meramec Blvd,,Eureka,MO,63025,US,38.50667572,-90.63375854,2022-12-18 07:39:41
Culvers,1024 Bowles Ave,,Fenton,MO,63026,US,38.5245018,-90.47181702,2022-12-18 07:39:41
Culvers,4140 Rusty Rd,,St. Louis,MO,63128,US,38.51047134,-90.33966064,2022-12-18 07:39:41
Culvers,4896 Everhard Rd NW,,Canton,OH,44718,US,40.85189819,-81.43890381,2022-12-18 06:25:16
Culvers,11959 US Hwy 70 Bus W,,Clayton,NC,27520,US,35.65710068,-78.48059845,2022-12-18 06:25:11
Culvers,1860 Cinema Dr,,Fuquay-Varina,NC,27526,US,35.60139847,-78.75360107,2022-12-18 06:25:11
Culvers,2819 Rogers Rd,,Wake Forest,NC,27587,US,35.95305252,-78.52455902,2022-12-18 06:25:18
Culvers,3241 S McKenzie St,,Foley,AL,36535,US,30.36568069,-87.68258667,2022-12-18 06:25:17
Culvers,17651 Sun Park Dr,,Westfield,IN,46074,US,40.04312897,-86.13976288,2022-12-18 07:39:41
Culvers,557 Westfield Rd,,Noblesville,IN,46060,US,40.0464592,-86.02597809,2022-12-18 06:25:09
Culvers,2454 N Lebanon St,,Lebanon,IN,46052,US,40.0719986,-86.47460175,2022-12-18 07:39:41
Culvers,3075 Sachem Ct S,,West Lafayette,IN,47906,US,40.4618988,-86.93520355,2022-12-18 06:25:18
Culvers,340 N Creasy Ln,,Lafayette,IN,47905,US,40.42099762,-86.8401413,2022-12-18 06:25:13
Culvers,1015 Eglin St,,Rapid City,SD,57701,US,44.10175705,-103.19212341,2022-12-18 06:25:15
Culvers,2121 W Main St,,Rapid City,SD,57702,US,44.08110428,-103.25469971,2022-12-18 06:25:15
Culvers,2501 Mt. Rushmore Rd,,Rapid City,SD,57701,US,44.06138229,-103.23282623,2022-12-18 06:25:15
Culvers,220 Oak Creek Plz,,Mundelein,IL,60060,US,42.24018478,-87.98773956,2022-12-18 07:39:41
Culvers,3494 E Tecate Ln,,Meridian,ID,83646,US,43.63362503,-116.35110474,2022-12-18 06:25:14
Culvers,10425 Park Blvd,,Seminole,FL,33772,US,27.83986092,-82.78382111,2022-12-18 06:25:09
Culvers,1579 E 79th Ave,,Merrillville,IN,46410,US,41.47345352,-87.31755829,2022-12-18 07:39:41
Culvers,1800 E Summit St,,Crown Point,IN,46307,US,41.42797089,-87.33731079,2022-12-18 07:39:41
Culvers,3950 Ridge Rd,,Highland,IN,46322,US,41.55130005,-87.4330368,2022-12-18 07:39:41
Culvers,980 W Lincoln Hwy,,Schererville,IN,46375,US,41.49124527,-87.47505188,2022-12-18 07:39:41
Culvers,9845 Wicker Ave,,St. John,IN,46373,US,41.43999863,-87.46929932,2022-12-18 07:39:41
Culvers,6139 US Hwy 6,,Portage,IN,46368,US,41.54992676,-87.17744446,2022-12-18 07:39:41
Culvers,23180 Volbrecht Rd,,Crete,IL,60417,US,41.46871948,-87.57589722,2022-12-18 07:39:41
Culvers,2101 Laporte Ave,,Valparaiso,IN,46383,US,41.46757507,-87.03555298,2022-12-18 07:39:41
Culvers,3000 Matson St,,Chesterton,IN,46304,US,41.57695007,-87.04483032,2022-12-18 07:39:41
Culvers,20716 Cicero Ave,,Matteson,IL,60443,US,41.51238251,-87.73319244,2022-12-18 07:39:41
Culvers,5871 W Monee Manhattan Rd,,Monee,IL,60449,US,41.42665863,-87.753685,2022-12-18 07:39:41
Culvers,1005 N Center Point Rd,,Hiawatha,IA,52233,US,42.04821777,-91.68312073,2022-12-18 06:25:16
Culvers,2405 Edgewood Rd SW,,Cedar Rapids,IA,52404,US,41.95463181,-91.71552277,2022-12-18 06:25:16
Culvers,1375 Red Fox Way,,Marion,IA,52302,US,42.0384903,-91.5510788,2022-12-18 06:25:16
Culvers,2591 Heartland Pl,,Coralville,IA,52241,US,41.70014572,-91.60919189,2022-12-18 06:25:16
Culvers,1856 Madison Ave,,Mankato,MN,56001,US,44.16734695,-93.95342255,2022-12-18 06:25:19
Culvers,1680 Commerce Dr,,North Mankato,MN,56003,US,44.17975998,-94.03368378,2022-12-18 06:25:19
Culvers,918 S Lemay Ave,,Fort Collins,CO,80524,US,40.57530975,-105.05749512,2022-12-18 07:39:41
Culvers,4810 N 1st Ave,,Tucson,AZ,85718,US,32.29442215,-110.96052551,2022-12-18 06:25:13
Culvers,3070 S Campbell Ave,,Tucson,AZ,85713,US,32.18600845,-110.94395447,2022-12-18 06:25:13
Culvers,40 S Broadway Pl,,Tucson,AZ,85710,US,32.22053146,-110.83197021,2022-12-18 06:25:13
Culvers,6905 N Thornydale Rd,,Tucson,AZ,85741,US,32.33218384,-111.04676056,2022-12-18 06:25:13
Culvers,1955 W Valencia Rd,,Tucson,AZ,85746,US,32.13330078,-111.00800323,2022-12-18 06:25:12
Culvers,18810 S Nogales Hwy,,Green Valley,AZ,85614,US,31.90839958,-110.98280334,2022-12-18 06:25:12
Culvers,311 Newnan Crossing Byp,,Newnan,GA,30265,US,33.39011002,-84.76190186,2022-12-18 06:25:11
Culvers,3471 O'Neill Dr,,Jackson,MI,49202,US,42.2663765,-84.4549942,2022-12-18 06:25:11
Culvers,1610 S Main St,,Chelsea,MI,48118,US,42.29840088,-84.02559662,2022-12-18 06:25:11
Culvers,1505 Nations Dr,,Gurnee,IL,60031,US,42.38109589,-87.94093323,2022-12-18 07:39:41
Culvers,850 S Waukegan Rd,,Waukegan,IL,60085,US,42.34410095,-87.89579773,2022-12-18 07:39:41
Culvers,1239 N IL Rte 83,,Grayslake,IL,60030,US,42.36603165,-88.04178619,2022-12-18 07:39:41
Culvers,803 E Park Ave,,Libertyville,IL,60048,US,42.28143692,-87.93952179,2022-12-18 07:39:41
Culvers,3335 Sheridan Rd,,Zion,IL,60099,US,42.43375778,-87.82510376,2022-12-18 07:39:41
Culvers,451 E IL Rte 173,,Antioch,IL,60002,US,42.46682358,-88.0657196,2022-12-18 07:39:41
Culvers,10484 Corporate Dr,,Pleasant Prairie,WI,53158,US,42.52318192,-87.94591522,2022-12-18 07:39:41
Culvers,100 S US Hwy 12,,Fox Lake,IL,60020,US,42.38985443,-88.18112946,2022-12-18 07:39:41
Culvers,8124 Sheridan Rd,,Kenosha,WI,53143,US,42.55635834,-87.825737,2022-12-18 07:39:41
Culvers,645 N Rand Rd,,Lake Zurich,IL,60047,US,42.20725632,-88.11241913,2022-12-18 07:39:41
Culvers,203 E State Rd,,Island Lake,IL,60042,US,42.27145386,-88.19638062,2022-12-18 07:39:41
Culvers,5220 Green Bay Rd,,Kenosha,WI,53144,US,42.58836746,-87.88295746,2022-12-18 07:39:41
Culvers,1101 Adams Dr,,McHenry,IL,60051,US,42.34303284,-88.24970245,2022-12-18 07:39:41
Culvers,11811 29th St,,Kenosha,WI,53144,US,42.61349869,-87.95010376,2022-12-18 07:39:41
Culvers,514 Northwest Hwy,,Fox River Grove,IL,60021,US,42.18799973,-88.1957016,2022-12-18 07:39:41
Culvers,400 Pingree Rd,,Crystal Lake,IL,60014,US,42.22951126,-88.29670715,2022-12-18 07:39:41
Culvers,5801 21st St,,Racine,WI,53406,US,42.70475769,-87.84991455,2022-12-18 07:39:41
Culvers,251 N Randall Rd,,Lake in the Hills,IL,60156,US,42.17879868,-88.33470154,2022-12-18 07:39:41
Culvers,722 S Sylvania Ave,,Sturtevant,WI,53177,US,42.72585678,-87.95706177,2022-12-18 07:39:41
Culvers,1620 W Lake Shore Dr,,Woodstock,IL,60098,US,42.29072952,-88.41625977,2022-12-18 07:39:41
Culvers,4036 SW 30th Pl,,Gainesville,FL,32608,US,29.62573433,-82.38436127,2022-12-18 06:25:16
Culvers,711 S Hwy 27,,Somerset,KY,42501,US,37.0840416,-84.6177597,2022-12-18 06:25:19
Culvers,2012 Lantern Ridge Dr,,Richmond,KY,40475,US,37.73694992,-84.33069611,2022-12-18 06:25:09
Culvers,961 N Main St,,Nicholasville,KY,40356,US,37.89646912,-84.56694031,2022-12-18 06:25:09
Culvers,2161 Paul Jones Way,,Lexington,KY,40509,US,38.02072144,-84.42153931,2022-12-18 06:25:09
Culvers,360 Meijer Way,,Lexington,KY,40503,US,37.99435806,-84.53152466,2022-12-18 06:25:09
Culvers,4637 Milan Rd,,Sandusky,OH,44870,US,41.41189957,-82.66870117,2022-12-18 06:25:18
Culvers,2915 Brittany Ct,,Elkhart,IN,46514,US,41.72304153,-85.98071289,2022-12-18 06:25:09
Culvers,13145 S State Rd 23,,Granger,IN,46530,US,41.75260162,-86.11289978,2022-12-18 06:25:09
Culvers,2024 Elkhart Rd,,Goshen,IN,46526,US,41.59870148,-85.86340332,2022-12-18 06:25:09
Culvers,5520 N Main St,,Mishawaka,IN,46545,US,41.71087265,-86.17906189,2022-12-18 06:25:09
Culvers,52733 SR 933,,South Bend,IN,46637,US,41.72639847,-86.25109863,2022-12-18 06:25:09
Culvers,2019 Lincoln Way E,,Goshen,IN,46526,US,41.55999756,-85.79566956,2022-12-18 06:25:09
Culvers,1420 S 11th St,,Niles,MI,49120,US,41.81150055,-86.248703,2022-12-18 06:25:11
Culvers,4402 S Michigan St,,South Bend,IN,46614,US,41.62978745,-86.25062561,2022-12-18 06:25:09
Culvers,610 S US 131,,Three Rivers,MI,49093,US,41.93659973,-85.65229797,2022-12-18 06:25:09
Culvers,4400 Wabash Ave,,Springfield,IL,62711,US,39.75579834,-89.73254395,2022-12-18 06:25:16
Culvers,2540 N Dirksen Pkwy,,Springfield,IL,62702,US,39.83810806,-89.60372925,2022-12-18 06:25:15
Culvers,2453 E Florence Blvd,,Casa Grande,AZ,85194,US,32.87911606,-111.68152618,2022-12-18 06:25:19
Culvers,121 Tanger Outlet Blvd,,Pooler,GA,31322,US,32.13654709,-81.24660492,2022-12-18 06:25:12
Culvers,333 W Montgomery Crossroad,,Savannah,GA,31406,US,32.00131607,-81.13594818,2022-12-18 06:25:12
Culvers,2439 N. Monroe Street,,Tallahassee,FL,32303,US,30.47360039,-84.29229736,2022-12-18 07:39:41
Culvers,1555 Veterans Pkwy,,Jeffersonville,IN,47130,US,38.32957458,-85.74510193,2022-12-18 07:39:41
Culvers,4630 S Hurstbourne Pkwy,,Louisville,KY,40299,US,38.1837883,-85.60756683,2022-12-18 07:39:41
Culvers,240 Federal Dr,,Corydon,IN,47112,US,38.2334938,-86.13259125,2022-12-18 06:25:15
Culvers,11801 Interchange Dr,,Louisville,KY,40229,US,38.09576416,-85.67210388,2022-12-18 07:39:41
Culvers,2880 Rice St,,Little Canada,MN,55113,US,45.02765656,-93.10567474,2022-12-18 07:39:41
Culvers,4004 Silver Lake Rd,,St. Anthony,MN,55421,US,45.04148483,-93.21896362,2022-12-18 07:39:41
Culvers,1491 University Ave W,,St. Paul,MN,55104,US,44.95605087,-93.163414,2022-12-18 07:39:41
Culvers,4485 Centerville Rd,,Vadnais Heights,MN,55127,US,45.07679749,-93.05674744,2022-12-18 07:39:41
Culvers,3202 White Bear Ave,,White Bear Lake,MN,55110,US,45.03840256,-93.01706696,2022-12-18 07:39:41
Culvers,2065 Old Hudson Rd,,St. Paul,MN,55119,US,44.95207977,-93.01317596,2022-12-18 07:39:41
Culvers,125 Marie Ave E,,West St. Paul,MN,55118,US,44.89117432,-93.07933044,2022-12-18 07:39:41
Culvers,6900 Brooklyn Blvd,,Brooklyn Center,MN,55429,US,45.08065796,-93.3367157,2022-12-18 07:39:41
Culvers,10550 Baltimore St NE,,Blaine,MN,55449,US,45.16197205,-93.23401642,2022-12-18 07:39:41
Culvers,611 Coon Rapids Blvd,,Coon Rapids,MN,55433,US,45.14580154,-93.28224945,2022-12-18 07:39:41
Culvers,8845 7th Ave N,,Golden Valley,MN,55427,US,44.98544693,-93.39222717,2022-12-18 07:39:41
Culvers,7801 Nicollet Ave,,Bloomington,MN,55420,US,44.86053085,-93.27787781,2022-12-18 07:39:41
Culvers,3445 O'Leary Ln,,Eagan,MN,55123,US,44.83229065,-93.15111542,2022-12-18 07:39:41
Culvers,520 Woodbury Dr,,Woodbury,MN,55125,US,44.94110107,-92.90531158,2022-12-18 07:39:41
Culvers,6175 Quinwood Ln,,Plymouth,MN,55442,US,45.06527328,-93.44017792,2022-12-18 07:39:41
Culvers,11218 Commerce Dr N,,Champlin,MN,55316,US,45.15870285,-93.39266968,2022-12-18 07:39:41
Culvers,1725 Market Dr,,Stillwater,MN,55082,US,45.04047775,-92.83999634,2022-12-18 07:39:41
Culvers,7998 Hardwood Ave S,,Cottage Grove,MN,55016,US,44.8339119,-92.96173859,2022-12-18 07:39:41
Culvers,4335 Peony Ln,,Plymouth,MN,55446,US,45.03456497,-93.50949097,2022-12-18 07:39:41
Culvers,920 Prairie Center Drive,,Eden Prairie,MN,55344,US,44.85946655,-93.44412994,2022-12-18 07:39:41
Culvers,16380 96th Ave N,,Maple Grove,MN,55311,US,45.12951279,-93.48856354,2022-12-18 07:39:41
Culvers,800 W Main St,,Anoka,MN,55303,US,45.20834351,-93.40777588,2022-12-18 07:39:41
Culvers,17555 Hwy 7,,Minnetonka,MN,55345,US,44.91329956,-93.50250244,2022-12-18 07:39:41
Culvers,4725 Hwy 13 W,,Savage,MN,55378,US,44.77862167,-93.33885193,2022-12-18 07:39:41
Culvers,14755 S Robert Trl,,Rosemount,MN,55068,US,44.73524475,-93.12650299,2022-12-18 07:39:41
Culvers,15225 Galaxie Ave,,Apple Valley,MN,55124,US,44.7284317,-93.20818329,2022-12-18 07:39:41
Culvers,1007 W Broadway Ave,,Forest Lake,MN,55025,US,45.27965164,-92.99658203,2022-12-18 07:39:41
Culvers,450 Pond Promenade,,Chanhassen,MN,55317,US,44.85767365,-93.53239441,2022-12-18 07:39:41
Culvers,151 Carmichael Rd,,Hudson,WI,54016,US,44.96792603,-92.72168732,2022-12-18 07:39:41
Culvers,4058 12th Ave E,,Shakopee,MN,55379,US,44.78467941,-93.46906281,2022-12-18 07:39:41
Culvers,3340 Shoreline Dr,,Wayzata,MN,55391,US,44.93470764,-93.60721588,2022-12-18 07:39:41
Culvers,1713 Market Blvd,,Hastings,MN,55033,US,44.7370224,-92.89076233,2022-12-18 07:39:41
Culvers,17800 Kenwood Trl,,Lakeville,MN,55044,US,44.69071579,-93.28106689,2022-12-18 07:39:41
Culvers,13605 Northdale Blvd,,Rogers,MN,55374,US,45.20117569,-93.55471039,2022-12-18 07:39:41
Culvers,5019 W Holiday Dr,,Peoria,IL,61615,US,40.77518845,-89.67236328,2022-12-18 07:39:41
Culvers,4612 N University St,,Peoria,IL,61614,US,40.74398422,-89.61190796,2022-12-18 07:39:41
Culvers,901 Camp St,,East Peoria,IL,61611,US,40.68054581,-89.58817291,2022-12-18 07:39:41
Culvers,121 E Courtland St,,Morton,IL,61550,US,40.62905121,-89.46376801,2022-12-18 07:39:41
Culvers,3500 Court St,,Pekin,IL,61554,US,40.54274368,-89.59851837,2022-12-18 07:39:41
Culvers,475 S Madison St,,Webb City,MO,64870,US,37.14071655,-94.47402954,2022-12-18 06:25:20
Culvers,6425 Miller Ln,,Vandalia,OH,45414,US,39.84120178,-84.19300079,2022-12-18 06:25:09
Culvers,2100 W Main St,,Troy,OH,45373,US,40.05757523,-84.2456665,2022-12-18 06:25:09
Culvers,6527 W Jefferson Blvd,,Fort Wayne,IN,46804,US,41.0541954,-85.22647858,2022-12-18 07:39:41
Culvers,1425 W Washington Center Rd,,Fort Wayne,IN,46825,US,41.13188934,-85.15826416,2022-12-18 07:39:41
Culvers,6026 Stellhorn Rd,,Fort Wayne,IN,46815,US,41.11992645,-85.06430054,2022-12-18 07:39:41
Culvers,3510 E Dupont Rd,,Fort Wayne,IN,46825,US,41.17837524,-85.10035706,2022-12-18 07:39:41
Culvers,1001 W Connexion Way,,Columbia City,IN,46725,US,41.17029953,-85.51010132,2022-12-18 06:25:15
Culvers,121 Touring Dr,,Auburn,IN,46706,US,41.36600113,-85.07980347,2022-12-18 07:39:41
Culvers,1109 N Main St,,River Falls,WI,54022,US,44.87110138,-92.62239838,2022-12-18 07:39:41
Culvers,124 Grant Way,,New Richmond,WI,54017,US,45.10157013,-92.53839111,2022-12-18 07:39:41
Culvers,4011 38th Ave,,Moline,IL,61265,US,41.47255325,-90.47740936,2022-12-18 07:39:41
Culvers,608 22nd Ave,,Silvis,IL,61282,US,41.48794174,-90.42036438,2022-12-18 07:39:41
Culvers,2312 Spruce Hills Dr,,Bettendorf,IA,52722,US,41.54972076,-90.50160217,2022-12-18 07:39:41
Culvers,5320 Jersey Ridge Rd,,Davenport,IA,52807,US,41.57559967,-90.54244232,2022-12-18 07:39:41
Culvers,3400 W Kimberly Rd,,Davenport,IA,52806,US,41.56085968,-90.62643433,2022-12-18 07:39:41
Culvers,1275 S Oakwood Ave,,Geneseo,IL,61254,US,41.43492508,-90.15856934,2022-12-18 07:39:41
Culvers,1807 W Market St,,Bloomington,IL,61701,US,40.48439026,-89.02133942,2022-12-18 06:25:11
Culvers,901 Hershey Rd,,Bloomington,IL,61704,US,40.48643112,-88.94284821,2022-12-18 06:25:11
Culvers,123 Richardson Crossing,,Arnold,MO,63010,US,38.4131546,-90.38382721,2022-12-18 07:39:41
Culvers,3910 N Belt Hwy,,St. Joseph,MO,64506,US,39.8047905,-94.81599426,2022-12-18 06:25:11
Culvers,260 N Congress Ave,,Lake Park,FL,33403,US,26.79974556,-80.08440399,2022-12-18 06:25:12
Culvers,1108 Military Trl,,Jupiter,FL,33458,US,26.92070389,-80.1027832,2022-12-18 06:25:12
Culvers,1450 Cherry Blossom Way,,Georgetown,KY,40324,US,38.2214241,-84.53993225,2022-12-18 06:25:09
Culvers,710 Hwy 1 W,,Iowa City,IA,52246,US,41.64810944,-91.54937744,2022-12-18 06:25:16
Culvers,219 S Larkin Ave,,Joliet,IL,60436,US,41.51781845,-88.12500763,2022-12-18 07:39:41
Culvers,1500 IL Rte 59,,Joliet,IL,60431,US,41.54878616,-88.19895172,2022-12-18 07:39:41
Culvers,15940 S Farrell Rd,,Lockport,IL,60441,US,41.59677505,-88.02676392,2022-12-18 07:39:41
Culvers,485 N Weber Rd,,Romeoville,IL,60446,US,41.64249039,-88.12267303,2022-12-18 07:39:41
Culvers,13449 IL Rte 59,,Plainfield,IL,60585,US,41.63767624,-88.20226288,2022-12-18 07:39:41
Culvers,421 E Lincoln Hwy,,New Lenox,IL,60451,US,41.5127449,-87.95587158,2022-12-18 07:39:41
Culvers,2063 Ridge Rd,,Minooka,IL,60447,US,41.4217186,-88.27076721,2022-12-18 07:39:41
Culvers,2781 US Hwy 34,,Oswego,IL,60543,US,41.70086288,-88.31513977,2022-12-18 07:39:41
Culvers,20592 S La Grange Rd,,Frankfort,IL,60423,US,41.51717377,-87.85054779,2022-12-18 07:39:41
Culvers,509 S. Rt 59,,Aurora,IL,60504,US,41.74834824,-88.2066803,2022-12-18 07:39:41
Culvers,1745 Marketview Dr,,Yorkville,IL,60560,US,41.66327667,-88.44149017,2022-12-18 07:39:41
Culvers,1919 N Division St,,Morris,IL,60450,US,41.38227081,-88.42137909,2022-12-18 07:39:41
Culvers,411 S Lincolnway St,,North Aurora,IL,60542,US,41.79038239,-88.32146454,2022-12-18 07:39:41
Culvers,412 N Sugar Grove Pkwy,,Sugar Grove,IL,60554,US,41.77299881,-88.44332123,2022-12-18 07:39:41
Culvers,470 N Randall Rd,,Batavia,IL,60510,US,41.85800171,-88.33979797,2022-12-18 07:39:41
Culvers,1415 N Rte 291,,Harrisonville,MO,64701,US,38.66431046,-94.36632538,2022-12-18 06:25:09
Culvers,3967 Frontage Rd N,,Michigan City,IN,46360,US,41.66490173,-86.89331818,2022-12-18 07:39:41
Culvers,233 Pine Lake Ave,,La Porte,IN,46350,US,41.61798859,-86.73410797,2022-12-18 07:39:41
Culvers,7660 N Academy Blvd,,Colorado Springs,CO,80920,US,38.94284821,-104.80059814,2022-12-18 06:25:17
Culvers,2925 New Center Pt,,Colorado Springs,CO,80922,US,38.87305069,-104.71572876,2022-12-18 06:25:13
Culvers,1140 Lake Plaza Dr,,Colorado Springs,CO,80906,US,38.79513931,-104.80828094,2022-12-18 06:25:13
Culvers,7220 N Meridian Rd,,Falcon,CO,80831,US,38.93792343,-104.6115036,2022-12-18 06:25:17
Culvers,8065 Fountain Mesa Rd,,Fountain,CO,80817,US,38.71540833,-104.70104218,2022-12-18 06:25:13
Culvers,4255 Clubhouse Rd,,Highland City,FL,33812,US,27.96719933,-81.87819672,2022-12-18 06:25:09
Culvers,6222 Tattersall Blvd,,Hoover,AL,35242,US,33.42150116,-86.66989899,2022-12-18 07:39:41
Culvers,1037 Amber Dr,,Hoover,AL,35244,US,33.35440063,-86.84799957,2022-12-18 07:39:41
Culvers,8143 Golden Link Blvd,,Macedonia,OH,44067,US,41.31178284,-81.52271271,2022-12-18 06:25:11
Culvers,1199 Buck Creek Rd,,Simpsonville,KY,40067,US,38.20445251,-85.34899139,2022-12-18 07:39:41
Culvers,90 Johnson Blvd,,Columbus,IN,47201,US,39.19943619,-85.95152283,2022-12-18 06:25:13
Culvers,203 N Sandy Creek Dr,,Seymour,IN,47274,US,38.95920181,-85.84809875,2022-12-18 06:25:13
Culvers,2301 E Wabash St,,Frankfort,IN,46041,US,40.2784996,-86.48390198,2022-12-18 06:25:13
Culvers,4068 E Main St,,St. Charles,IL,60174,US,41.92203903,-88.25540161,2022-12-18 07:39:41
Culvers,111 S Randall Rd,,St. Charles,IL,60174,US,41.91074753,-88.34079742,2022-12-18 07:39:41
Culvers,280 Randall Rd,,South Elgin,IL,60177,US,41.98922729,-88.34282684,2022-12-18 07:39:41
Culvers,1175 N McLean Blvd,,Elgin,IL,60123,US,42.06219864,-88.31500244,2022-12-18 07:39:41
Culvers,1309 State Hwy 248,,Branson,MO,65616,US,36.66337585,-93.23817444,2022-12-18 06:25:09
Culvers,11501 Panama City Beach Pkwy,,Panama City Beach,FL,32407,US,30.19681931,-85.81484222,2022-12-18 07:39:41
Culvers,12540 Hwy 98 W,,Destin,FL,32550,US,30.38562012,-86.38130188,2022-12-18 06:25:16
Culvers,206 Green Acres Rd,,Fort Walton Beach,FL,32547,US,30.45639992,-86.63899994,2022-12-18 06:25:16
Culvers,3650 Market Place Dr,,Phenix City,AL,36867,US,32.49610138,-85.04340363,2022-12-18 06:25:11
Culvers,6386 S Scatterfield Rd,,Anderson,IN,46013,US,40.05086517,-85.6523056,2022-12-18 06:25:09
Culvers,401 Commerce Rd,,Richmond,IN,47374,US,39.83340073,-84.82309723,2022-12-18 06:25:16
Culvers,1021 E Pickard St,,Mt. Pleasant,MI,48858,US,43.61237335,-84.76489258,2022-12-18 06:25:12
Culvers,10401 S Clare Avenue,,Clare,MI,48617,US,43.83769989,-84.76750183,2022-12-18 06:25:12
Culvers,8000 Miller Rd,,Carpentersville,IL,60110,US,42.12189865,-88.33705902,2022-12-18 07:39:41
Culvers,12950 S IL Rte 47,,Huntley,IL,60142,US,42.14448929,-88.43213654,2022-12-18 07:39:41
Culvers,2010 Bernadette Dr,,Columbia,MO,65203,US,38.96469879,-92.37069702,2022-12-18 06:25:13
Culvers,2520 Broadway Bluffs Dr,,Columbia,MO,65201,US,38.94736099,-92.30050659,2022-12-18 06:25:13
Culvers,340 E Gentile St,,Layton,UT,84041,US,41.05960083,-111.9598999,2022-12-18 06:25:09
Culvers,281 N 2000 W,,West Point,UT,84015,US,41.11793137,-112.06474304,2022-12-18 06:25:09
Culvers,620 N 500 W,,Bountiful,UT,84010,US,40.89595032,-111.89188385,2022-12-18 06:25:09
Culvers,4355 Norfolk Pkwy,,West Melbourne,FL,32904,US,28.0361042,-80.6602478,2022-12-18 06:25:15
Culvers,6451 Lake Andrew Dr,,Viera,FL,32940,US,28.24628639,-80.72940063,2022-12-18 06:25:15
Culvers,Flat Rock Rd & JR Allen Parkway,,Columbus,GA,31820,US,32.54370117,-84.87560272,2022-12-18 06:25:11
Culvers,3020 Highland Pointe Dr,,Owensboro,KY,42303,US,37.75533676,-87.06817627,2022-12-18 06:25:11
Culvers,3035 W Shore Dr,,Holland,MI,49424,US,42.82365036,-86.09213257,2022-12-18 06:25:09
Culvers,3915 32nd Ave,,Hudsonville,MI,49426,US,42.83789825,-85.86239624,2022-12-18 07:39:41
Culvers,5128 Lake Michigan Dr NW,,Allendale,MI,49401,US,42.97180176,-85.91280365,2022-12-18 07:39:41
Culvers,520 A Way,,Grand Haven,MI,49417,US,43.06694412,-86.22129059,2022-12-18 06:25:09
Culvers,7393 Cottonwood Dr,,Jenison,MI,49428,US,42.90328217,-85.79338074,2022-12-18 07:39:41
Culvers,330 Wilson Ave,,Walker,MI,49534,US,42.97029877,-85.77590179,2022-12-18 07:39:41
Culvers,1776 Independence Drive,,Muskegon,MI,49444,US,43.15819931,-86.20179749,2022-12-18 06:25:09
Culvers,500 84th Street SW,,Byron Center,MI,49315,US,42.81150055,-85.67649841,2022-12-18 07:39:41
Culvers,245 54th St,,Wyoming,MI,49548,US,42.86674881,-85.66976166,2022-12-18 07:39:41
Culvers,3245 S 24th St,,Council Bluffs,IA,51501,US,41.22963715,-95.8786087,2022-12-18 06:25:11
Culvers,3602 Raynor Pkwy,,Bellevue,NE,68123,US,41.14787674,-95.96799469,2022-12-18 06:25:11
Culvers,9848 Giles Rd,,La Vista,NE,68128,US,41.176651,-96.06636047,2022-12-18 06:25:11
Culvers,11920 Miami St,,Omaha,NE,68164,US,41.28259277,-96.10016632,2022-12-18 06:25:11
Culvers,15255 Weir Plz,,Omaha,NE,68137,US,41.20578384,-96.15261078,2022-12-18 06:25:11
Culvers,3451 32nd Ave S,,Grand Forks,ND,58201,US,47.88871002,-97.07831573,2022-12-18 06:25:18
Culvers,394 NW Commons Loop,,Lake City,FL,32055,US,30.17956924,-82.66442108,2022-12-18 06:25:16
Culvers,5102 Tamiami Trl E,,Naples,FL,34113,US,26.10539436,-81.74729919,2022-12-18 06:25:13
Culvers,8940 Sage Ave,,Naples,FL,34120,US,26.27418518,-81.68416595,2022-12-18 06:25:13
Culvers,5775 Airport Pulling Rd N,,Naples,FL,34109,US,26.21644211,-81.76894379,2022-12-18 06:25:13
Culvers,525 Gilchrist St,,Ames,IA,50010,US,42.0238266,-93.61873627,2022-12-18 06:25:13
Culvers,180 Pioneer Trl,,Chaska,MN,55318,US,44.83028412,-93.60180664,2022-12-18 07:39:41
Culvers,10710 10th St,,Waconia,MN,55387,US,44.8392868,-93.79631805,2022-12-18 07:39:41
Culvers,1262 W Lincoln Hwy,,DeKalb,IL,60115,US,41.93045425,-88.77747345,2022-12-18 07:39:41
Culvers,1200 DeKalb Ave,,Sycamore,IL,60178,US,41.98146439,-88.70431519,2022-12-18 07:39:41
Culvers,1060 S Dement Rd,,Rochelle,IL,61068,US,41.93173218,-89.03492737,2022-12-18 06:25:09
Culvers,236 N Phelps Ave,,Rockford,IL,61108,US,42.26739883,-89.00549316,2022-12-18 07:39:41
Culvers,5610 Wansford Way,,Rockford,IL,61109,US,42.23787689,-89.00737762,2022-12-18 07:39:41
Culvers,6727 E Riverside Blvd,,Rockford,IL,61114,US,42.31811905,-88.9851532,2022-12-18 07:39:41
Culvers,1224 Benington Rd,,Rockford,IL,61103,US,42.31781387,-89.07891083,2022-12-18 07:39:41
Culvers,1635 Big Thunder Blvd,,Belvidere,IL,61008,US,42.27240753,-88.8580246,2022-12-18 07:39:41
Culvers,9779 N 2nd St,,Roscoe,IL,61073,US,42.40195465,-89.0103302,2022-12-18 07:39:41
Culvers,807 Cannell Puri Dr,,Winnebago,IL,61088,US,42.27900314,-89.24237061,2022-12-18 07:39:41
Culvers,2676 Cranston Rd,,Beloit,WI,53511,US,42.52489471,-88.98799896,2022-12-18 07:39:41
Culvers,1060 S Division St,,Harvard,IL,60033,US,42.40540314,-88.61306763,2022-12-18 07:39:41
Culvers,2302 S Neil St,,Champaign,IL,61820,US,40.08545303,-88.24613953,2022-12-18 06:25:17
Culvers,201 W University Ave,,Urbana,IL,61801,US,40.11619949,-88.20950317,2022-12-18 06:25:17
Culvers,903 W Marketview Dr,,Champaign,IL,61822,US,40.13780212,-88.25967407,2022-12-18 06:25:17
Culvers,2111 W 33rd St,,Lawrence,KS,66046,US,38.92393112,-95.26133728,2022-12-18 06:25:14
Culvers,1035 SW Wanamaker Rd,,Topeka,KS,66604,US,39.04850006,-95.7621994,2022-12-18 06:25:19
Culvers,960 Hwy 3 S,,Northfield,MN,55057,US,44.45014191,-93.1708374,2022-12-18 06:25:15
Culvers,3433 US Hwy 1,,St. Augustine,FL,32086,US,29.83119965,-81.32309723,2022-12-18 06:25:15
Culvers,1560 Outlet Blvd,,Daytona Beach,FL,32117,US,29.21986771,-81.09622955,2022-12-18 06:25:16
Culvers,1744 Dunlawton Ave,,Port Orange,FL,32127,US,29.11118126,-81.02487946,2022-12-18 06:25:16
Culvers,5055 E Hwy 100,,Palm Coast,FL,32164,US,29.47610092,-81.21469879,2022-12-18 06:25:15
Culvers,4400 Bayou Blvd,,Pensacola,FL,32503,US,30.46784973,-87.20510101,2022-12-18 06:25:12
Culvers,6032 Mobile Hwy,,Pensacola,FL,32526,US,30.46260071,-87.3010025,2022-12-18 06:25:12
Culvers,8792 Navarre Pkwy,,Navarre,FL,32566,US,30.40357208,-86.85509491,2022-12-18 06:25:12
Culvers,2455 Jalynn St,,Warsaw,IN,46582,US,41.26971817,-85.85355377,2022-12-18 06:25:09
Culvers,852 N Parker St,,Warsaw,IN,46582,US,41.24687576,-85.82214355,2022-12-18 06:25:09
Culvers,1918 W 3rd St,,Bloomington,IN,47404,US,39.16450882,-86.56030273,2022-12-18 06:25:17
Culvers,6830 Whitmore Lake Rd,,Brighton,MI,48116,US,42.50336075,-83.75933838,2022-12-18 06:25:12
Culvers,7313 Highland Rd,,Waterford,MI,48327,US,42.66024017,-83.43139648,2022-12-18 06:25:09
Culvers,5910 Jackson Rd,,Ann Arbor,MI,48103,US,42.29034805,-83.84661102,2022-12-18 06:25:11
Culvers,36480 Van Dyke Ave,,Sterling Heights,MI,48312,US,42.56180954,-83.02787018,2022-12-18 06:25:09
Culvers,92 E Auburn Rd,,Rochester Hills,MI,48307,US,42.63585281,-83.13011932,2022-12-18 06:25:09
Culvers,6300 28th St SE,,Grand Rapids,MI,49546,US,42.91259384,-85.51186371,2022-12-18 07:39:41
Culvers,6697 Broadmoor Ave,,Caledonia,MI,49316,US,42.84209824,-85.53320312,2022-12-18 07:39:41
Culvers,2510 E Beltline SE,,Grand Rapids,MI,49546,US,42.91830063,-85.58329773,2022-12-18 07:39:41
Culvers,1245 W Main St SE,,Lowell,MI,49331,US,42.93190002,-85.35369873,2022-12-18 07:39:41
Culvers,4280 Alpine Ave,,Comstock Park,MI,49321,US,43.04144669,-85.68914032,2022-12-18 07:39:41
Culvers,2993 10 Mile Road NE,,Rockford,MI,49341,US,43.11759949,-85.59619904,2022-12-18 07:39:41
Culvers,1600 W Green St,,Hastings,MI,49058,US,42.64609909,-85.31719971,2022-12-18 07:39:41
Culvers,13960 White Creek Ave,,Cedar Springs,MI,49319,US,43.21881485,-85.57083893,2022-12-18 06:25:12
Culvers,1829 W Washington St,,Greenville,MI,48838,US,43.17661667,-85.28344727,2022-12-18 06:25:12
Culvers,2598 S State Rd,,Ionia,MI,48846,US,42.95069885,-85.07520294,2022-12-18 06:25:12
Culvers,163 Pole Line Rd,,Twin Falls,ID,83301,US,42.59225082,-114.4778595,2022-12-18 06:25:16
Culvers,1347 E Twin Rocks Cove,,Washington,UT,84780,US,37.14493942,-113.48838806,2022-12-18 06:25:15
Culvers,1586 S 270 E,,St. George,UT,84790,US,37.08108521,-113.57832336,2022-12-18 06:25:15
Culvers,2100 N Michigan St,,Plymouth,IN,46563,US,41.35950089,-86.31079865,2022-12-18 06:25:11
Culvers,10855 Highland Rd,,Hartland,MI,48353,US,42.63525772,-83.74028015,2022-12-18 07:39:41
Culvers,4034 Miller Rd,,Flint,MI,48507,US,42.98339844,-83.75389862,2022-12-18 07:39:41
Culvers,9090 Holly Rd,,Grand Blanc,MI,48439,US,42.89914703,-83.63180542,2022-12-18 07:39:41
Culvers,7500 E Court St,,Davison,MI,48423,US,43.01900101,-83.55699921,2022-12-18 07:39:41
Culvers,3202 Owen Rd,,Fenton,MI,48430,US,42.79028702,-83.73373413,2022-12-18 07:39:41
Culvers,8551 Main St,,Birch Run,MI,48415,US,43.25051498,-83.78321838,2022-12-18 07:39:41
Culvers,840 West St,,Lapeer,MI,48446,US,43.0401001,-83.3227005,2022-12-18 07:39:41
Culvers,2355 E Main St,,Owosso,MI,48867,US,42.99874878,-84.12084961,2022-12-18 07:39:41
Culvers,6910 Sashabaw Rd,,Clarkston,MI,48348,US,42.73978043,-83.3789444,2022-12-18 07:39:41
Culvers,525 North Lapeer Rd,,Oxford,MI,48371,US,42.8321991,-83.27100372,2022-12-18 07:39:41
Culvers,8488 W Saginaw Hwy,,Lansing,MI,48917,US,42.74166107,-84.6776886,2022-12-18 07:39:41
Culvers,6280 S Pennsylvania Ave,,Lansing,MI,48911,US,42.66654205,-84.53866577,2022-12-18 07:39:41
Culvers,3115 Towne Centre Blvd,,Lansing,MI,48912,US,42.76488495,-84.51826477,2022-12-18 07:39:41
Culvers,1030 W Herbison Rd,,Dewitt,MI,48820,US,42.82789993,-84.54450226,2022-12-18 07:39:41
Culvers,3440 Okemos Rd,,Okemos,MI,48864,US,42.68041611,-84.43225098,2022-12-18 07:39:41
Culvers,5140 Times Square Dr,,Okemos,MI,48864,US,42.73057556,-84.41017151,2022-12-18 07:39:41
Culvers,524 Lansing St,,Charlotte,MI,48813,US,42.57089996,-84.82420349,2022-12-18 07:39:41
Culvers,4542 Douglas Ave,,Racine,WI,53402,US,42.7784996,-87.80699921,2022-12-18 06:25:11
Culvers,4220 W Oakwood Park Ct,,Franklin,WI,53132,US,42.87202072,-87.97013855,2022-12-18 07:39:41
Culvers,7841 S Howell Ave,,Oak Creek,WI,53154,US,42.90163422,-87.91262054,2022-12-18 07:39:41
Culvers,575 W Layton Ave,,Milwaukee,WI,53207,US,42.95858383,-87.91893768,2022-12-18 07:39:41
Culvers,6101 S 108th St,,Hales Corners,WI,53130,US,42.93419647,-88.04946899,2022-12-18 07:39:41
Culvers,6031 W Layton Ave,,Greenfield,WI,53220,US,42.9589386,-87.98956299,2022-12-18 07:39:41
Culvers,W187S7959 Racine Ave,,Muskego,WI,53150,US,42.90005875,-88.14868927,2022-12-18 07:39:41
Culvers,1641 Miller Pkwy,,West Milwaukee,WI,53214,US,43.01308441,-87.96820068,2022-12-18 07:39:41
Culvers,1073 Milwaukee Ave,,Burlington,WI,53105,US,42.692173,-88.26635742,2022-12-18 07:39:41
Culvers,14855 W National Ave,,New Berlin,WI,53151,US,42.98250961,-88.09871674,2022-12-18 07:39:41
Culvers,1672 S 108th St,,West Allis,WI,53214,US,43.01183701,-88.04576874,2022-12-18 07:39:41
Culvers,15280 W Bluemound Rd,,Elm Grove,WI,53122,US,43.03653336,-88.10372162,2022-12-18 07:39:41
Culvers,1325 E Capitol Dr,,Shorewood,WI,53211,US,43.08860779,-87.89392853,2022-12-18 07:39:41
Culvers,1301 Mall Dr,,Duluth,MN,55811,US,46.80215454,-92.15607452,2022-12-18 06:25:17
Culvers,2110 E 2nd St,,Superior,WI,54880,US,46.70701218,-92.04810333,2022-12-18 06:25:17
Culvers,1101 2nd St S,,Waite Park,MN,56387,US,45.55033875,-94.23068237,2022-12-18 06:25:15
Culvers,901 Hwy 10 S,,St. Cloud,MN,56304,US,45.55784225,-94.13036346,2022-12-18 06:25:15
Culvers,2605 Blue Heron Dr,,Marion,IL,62959,US,37.74526596,-88.96094513,2022-12-18 06:25:16
Culvers,2401 Reed Station Pkwy,,Carbondale,IL,62901,US,37.74362564,-89.16047668,2022-12-18 06:25:16
Culvers,2285 W Pueblo Blvd,,Pueblo,CO,81004,US,38.21900177,-104.63749695,2022-12-18 06:25:13
Culvers,1716 E Route 66,,Flagstaff,AZ,86004,US,35.1958046,-111.62753296,2022-12-18 07:39:41
Culvers,9340 Six Mile Cypress Pkwy,,Fort Myers,FL,33966,US,26.60741997,-81.81195831,2022-12-18 06:25:12
Culvers,2511 Lee Blvd,,Lehigh Acres,FL,33971,US,26.6143322,-81.66426086,2022-12-18 06:25:12
Culvers,12651 S Cleveland Ave,,Fort Myers,FL,33907,US,26.55834007,-81.8711319,2022-12-18 06:25:12
Culvers,10050 University Plaza Dr,,Fort Myers,FL,33913,US,26.49145508,-81.78421021,2022-12-18 06:25:12
Culvers,1607 Cape Coral Pkwy E,,Cape Coral,FL,33904,US,26.56303215,-81.94345856,2022-12-18 06:25:12
Culvers,309 SW Pine Island Rd,,Cape Coral,FL,33991,US,26.65084839,-81.9788208,2022-12-18 07:39:41
Culvers,2526 Skyline Blvd,,Cape Coral,FL,33914,US,26.60499954,-81.99120331,2022-12-18 06:25:11
Culvers,10301 Corkscrew Rd,,Estero,FL,33928,US,26.43182373,-81.78544617,2022-12-18 06:25:12
Culvers,26440 Jones Loop Rd,,Punta Gorda,FL,33950,US,26.89525986,-82.01039886,2022-12-18 07:39:41
Culvers,11905 Bonita Beach Rd SE,,Bonita Springs,FL,34135,US,26.33082199,-81.75643158,2022-12-18 06:25:13
Culvers,10380 Fremont Pike,,Perrysburg,OH,43551,US,41.54660034,-83.5931015,2022-12-18 07:39:41
Culvers,6600 Centers Dr,,Holland,OH,43528,US,41.61360168,-83.69819641,2022-12-18 07:39:41
Culvers,2866 Navarre Ave,,Oregon,OH,43616,US,41.63639832,-83.479599,2022-12-18 07:39:41
Culvers,1325 Northport Dr,,Madison,WI,53704,US,43.13417435,-89.37311554,2022-12-18 07:39:41
Culvers,4301 East Towne Blvd,,Madison,WI,53704,US,43.12535858,-89.30866241,2022-12-18 07:39:41
Culvers,4401 Cottage Grove Rd,,Madison,WI,53716,US,43.08374405,-89.30799103,2022-12-18 07:39:41
Culvers,550 Oxford Place,,Sun Prairie,WI,53590,US,43.186306,-89.26789093,2022-12-18 07:39:41
Culvers,900 E Main St,,Waunakee,WI,53597,US,43.19129944,-89.43656158,2022-12-18 07:39:41
Culvers,1501 W Main St,,Sun Prairie,WI,53590,US,43.17817688,-89.23894501,2022-12-18 07:39:41
Culvers,2102 W Beltline Hwy,,Madison,WI,53713,US,43.03601837,-89.4152832,2022-12-18 07:39:41
Culvers,1599 Landmark Dr,,Cottage Grove,WI,53527,US,43.10448074,-89.19848633,2022-12-18 07:39:41
Culvers,4910 Cnty Rd V,,DeForest,WI,53532,US,43.25087357,-89.37452698,2022-12-18 07:39:41
Culvers,2906 Parmenter St,,Middleton,WI,53562,US,43.10613632,-89.51140594,2022-12-18 07:39:41
Culvers,4700 Farwell St,,McFarland,WI,53558,US,43.01375198,-89.30239868,2022-12-18 07:39:41
Culvers,7206 Mineral Point Rd,,Madison,WI,53717,US,43.06105042,-89.50675964,2022-12-18 07:39:41
Culvers,430 E Verona Ave,,Verona,WI,53593,US,42.992836,-89.52790833,2022-12-18 07:39:41
Culvers,2523 Main St,,Cross Plains,WI,53528,US,43.11125183,-89.64430237,2022-12-18 07:39:41
Culvers,1075 Park St,,Oregon,WI,53575,US,42.91711426,-89.36961365,2022-12-18 07:39:41
Culvers,916 Nygaard St,,Stoughton,WI,53589,US,42.92650986,-89.24980927,2022-12-18 07:39:41
Culvers,1700 Springdale St,,Mt. Horeb,WI,53572,US,43.01062012,-89.71780396,2022-12-18 07:39:41
Culvers,716 Phillips Blvd,,Sauk City,WI,53583,US,43.2706871,-89.72986603,2022-12-18 07:39:41
Culvers,201 Dix St,,Columbus,WI,53925,US,43.3434639,-89.02854156,2022-12-18 06:25:09
Culvers,190 Tyranena Park Rd,,Lake Mills,WI,53551,US,43.08987427,-88.91086578,2022-12-18 06:25:09
Culvers,3631 E Calumet St,,Appleton,WI,54915,US,44.24314117,-88.35250854,2022-12-18 06:25:09
Culvers,2121 Freedom Rd,,Little Chute,WI,54140,US,44.29560089,-88.31349182,2022-12-18 06:25:09
Culvers,850 W Evergreen Dr,,Appleton,WI,54913,US,44.3022995,-88.41819763,2022-12-18 06:25:09
Culvers,599 N Westhill Blvd,,Appleton,WI,54914,US,44.26774979,-88.46147919,2022-12-18 06:25:09
Culvers,1161 Westowne Dr,,Neenah,WI,54956,US,44.17441559,-88.49282837,2022-12-18 06:25:09
Culvers,1499 Lawrence Dr,,De Pere,WI,54115,US,44.43386459,-88.10536194,2022-12-18 06:25:13
Culvers,2270 Westowne Ave,,Oshkosh,WI,54904,US,44.03087997,-88.59008026,2022-12-18 06:25:09
Culvers,1580 S Koeller St,,Oshkosh,WI,54902,US,44.00333023,-88.58126831,2022-12-18 06:25:09
Culvers,909 Hansen Rd,,Green Bay,WI,54304,US,44.47610474,-88.07613373,2022-12-18 06:25:13
Culvers,1219 W Mason St,,Green Bay,WI,54303,US,44.51800156,-88.04911804,2022-12-18 06:25:13
Culvers,1702 W Hwy 50,,O'Fallon,IL,62269,US,38.59300613,-89.95753479,2022-12-18 06:25:11
Culvers,100 United Dr,,Collinsville,IL,62234,US,38.68870544,-90.00940704,2022-12-18 06:25:11
Culvers,6724 Old Troy Rd,,Edwardsville,IL,62025,US,38.78076553,-89.94807434,2022-12-18 06:25:11
Culvers,2421 W Court St,,Janesville,WI,53548,US,42.67890167,-89.05020142,2022-12-18 07:39:41
Culvers,645 Midland Rd,,Janesville,WI,53546,US,42.67242432,-88.97785187,2022-12-18 07:39:41
Culvers,2633 Milton Ave,,Janesville,WI,53545,US,42.71492386,-89.00099945,2022-12-18 07:39:41
Culvers,571 E Richardson Springs Rd,,Edgerton,WI,53534,US,42.83259583,-89.0255127,2022-12-18 06:25:09
Culvers,1920 Jefferson St,,Jefferson City,MO,65109,US,38.55258179,-92.20010376,2022-12-18 06:25:15
Culvers,7165 S Bingham Junction Blvd,,Midvale,UT,84047,US,40.62121964,-111.91176605,2022-12-18 07:39:41
Culvers,3372 W South Jordan Pkwy,,South Jordan,UT,84095,US,40.562397,-111.97171783,2022-12-18 07:39:41
Culvers,7697 S 5600 W,,West Jordan,UT,84081,US,40.61109924,-112.02400208,2022-12-18 07:39:41
Culvers,3407 S 5600 W,,West Valley City,UT,84120,US,40.6981926,-112.0242691,2022-12-18 07:39:41
Culvers,1374 E Main St,,Lehi,UT,84043,US,40.38808441,-111.82846069,2022-12-18 07:39:41
Culvers,1211 W 800 N,,Orem,UT,84057,US,40.31129456,-111.72405243,2022-12-18 07:39:41
Culvers,605 S Memorial Dr,,New Castle,IN,47362,US,39.92594147,-85.38267517,2022-12-18 06:25:09
Culvers,595 Brown Road,,Orion Township,MI,48359,US,42.70809937,-83.29450226,2022-12-18 06:25:09
Culvers,4963 Interpark Dr N,,Lake Orion,MI,48359,US,42.70954514,-83.24165344,2022-12-18 06:25:09
Culvers,15029 23 Mile Rd,,Shelby Township,MI,48315,US,42.67188263,-82.97724152,2022-12-18 06:25:09
Culvers,66227 Van Dyke,,Washington Twp,MI,48095,US,42.78120041,-83.01370239,2022-12-18 06:25:09
Culvers,45160 Marketplace Blvd,,Chesterfield,MI,48051,US,42.63169098,-82.85385895,2022-12-18 06:25:09
Culvers,30820 Little Mack Ave,,Roseville,MI,48066,US,42.52296448,-82.90830994,2022-12-18 06:25:09
Culvers,151 N Wells St,,Lake Geneva,WI,53147,US,42.59033966,-88.42876434,2022-12-18 07:39:41
Culvers,2945 Voyager Dr,,Green Bay,WI,54311,US,44.48665619,-87.93544006,2022-12-18 06:25:16
Culvers,11820 Velp Ave,,Suamico,WI,54313,US,44.59202576,-88.07724762,2022-12-18 06:25:16
Culvers,11025 61st St NE,,Albertville,MN,55301,US,45.23841095,-93.6641922,2022-12-18 07:39:41
Culvers,19475 Evans St NW,,Elk River,MN,55330,US,45.32535934,-93.56018066,2022-12-18 07:39:41
Culvers,9395 State Hwy 25 NE,,Monticello,MN,55362,US,45.28735733,-93.80594635,2022-12-18 07:39:41
Culvers,500 Hwy 55 E,,Buffalo,MN,55313,US,45.17678833,-93.86724091,2022-12-18 07:39:41
Culvers,3380 55th St NW,,Rochester,MN,55901,US,44.07903671,-92.51205444,2022-12-18 06:25:15
Culvers,36 28th St SE,,Rochester,MN,55904,US,43.98042297,-92.46115112,2022-12-18 06:25:15
Culvers,770 W Empire Mall,,Sioux Falls,SD,57106,US,43.51232147,-96.77662659,2022-12-18 06:25:16
Culvers,2509 S Louise Ave,,Sioux Falls,SD,57106,US,43.5232048,-96.77346802,2022-12-18 06:25:16
Culvers,6301 S Louise Ave,,Sioux Falls,SD,57108,US,43.48807144,-96.76787567,2022-12-18 06:25:16
Culvers,2800 S Minnesota Ave,,Sioux Falls,SD,57105,US,43.51984787,-96.73056793,2022-12-18 06:25:16
Culvers,5601 E Arrowhead Pkwy,,Sioux Falls,SD,57110,US,43.54336166,-96.65826416,2022-12-18 06:25:16
Culvers,3102 Singing Hills Blvd,,Sioux City,IA,51106,US,42.43523026,-96.36745453,2022-12-18 06:25:14
Culvers,2420 Hamilton Blvd,,Sioux City,IA,51104,US,42.51595306,-96.4164505,2022-12-18 06:25:14
Culvers,1414 W Main St,,Whitewater,WI,53190,US,42.83528137,-88.76052094,2022-12-18 06:25:09
Culvers,1551 Madison Ave,,Fort Atkinson,WI,53538,US,42.94069672,-88.86106873,2022-12-18 06:25:09
Culvers,1931 E Geneva St,,Delavan,WI,53115,US,42.62849045,-88.61006165,2022-12-18 07:39:41
Culvers,1105 S 42nd St,,Mount Vernon,IL,62864,US,38.30187988,-88.94260406,2022-12-18 06:25:14
Culvers,2185 N Diers Ave,,Grand Island,NE,68803,US,40.94179916,-98.38430023,2022-12-18 06:25:16
Culvers,5131 Gateway Blvd,,Denison,TX,75020,US,33.70849991,-96.59279633,2022-12-18 06:25:16
Culvers,632 S Hwy 92,,Sierra Vista,AZ,85635,US,31.54932213,-110.25804901,2022-12-18 06:25:13
Culvers,2605 University Pkwy,,Sarasota,FL,34243,US,27.3896122,-82.51803589,2022-12-18 06:25:09
Culvers,5750 Ranch Lake Blvd,,Bradenton,FL,34202,US,27.43944931,-82.45764923,2022-12-18 06:25:09
Culvers,3515 Cortez Rd W,,Bradenton,FL,34210,US,27.46207237,-82.59742737,2022-12-18 06:25:09
Culvers,90 Cattlemen Rd,,Sarasota,FL,34232,US,27.33616066,-82.45012665,2022-12-18 06:25:09
Culvers,4714 E State Rd 64,,Bradenton,FL,34208,US,27.49791336,-82.50421143,2022-12-18 06:25:09
Culvers,13020 SR 64 East,,Bradenton,FL,34211,US,27.48349953,-82.41249847,2022-12-18 06:25:09
Culvers,7250 S Tamiami Trl,,Sarasota,FL,34231,US,27.24957275,-82.51403046,2022-12-18 06:25:09
Culvers,19355 Times Cir,,Venice,FL,34292,US,27.10506058,-82.38371277,2022-12-18 07:39:41
Culvers,1735 Tamiami Trail,,Venice,FL,34293,US,27.07229996,-82.42240143,2022-12-18 07:39:41
Culvers,3900 E Grand River Ave,,Howell,MI,48843,US,42.58678436,-83.87561035,2022-12-18 06:25:12
Culvers,5501 W Fond du Lac Ave,,Milwaukee,WI,53216,US,43.09434509,-87.98262024,2022-12-18 07:39:41
Culvers,3705 N 124th St,,Brookfield,WI,53005,US,43.08540726,-88.06702423,2022-12-18 07:39:41
Culvers,300 West Bayside Drive,,Glendale,WI,53217,US,43.12450027,-87.91290283,2022-12-18 07:39:41
Culvers,1650 E Main St,,Waukesha,WI,53186,US,43.02275085,-88.2016983,2022-12-18 07:39:41
Culvers,840 W Sunset Dr,,Waukesha,WI,53189,US,42.98860931,-88.24684143,2022-12-18 07:39:41
Culvers,7515 W Good Hope Rd,,Milwaukee,WI,53223,US,43.14828873,-88.00426483,2022-12-18 07:39:41
Culvers,21300 W Capitol Dr,,Pewaukee,WI,53072,US,43.08415985,-88.17749023,2022-12-18 07:39:41
Culvers,2600 N Grandview Blvd,,Waukesha,WI,53188,US,43.03982925,-88.25642395,2022-12-18 07:39:41
Culvers,4327 W Schroeder Dr,,Brown Deer,WI,53223,US,43.18611145,-87.96513367,2022-12-18 07:39:41
Culvers,1090 N Rochester St,,Mukwonago,WI,53149,US,42.87863159,-88.33944702,2022-12-18 07:39:41
Culvers,11150 N Port Washington Rd,,Mequon,WI,53092,US,43.22075272,-87.92343903,2022-12-18 06:25:09
Culvers,W186N9581 Bancroft Dr,,Menomonee Falls,WI,53051,US,43.19165421,-88.14076233,2022-12-18 07:39:41
Culvers,W249N6620 Hwy 164,,Sussex,WI,53089,US,43.1379509,-88.24332428,2022-12-18 07:39:41
Culvers,943 N 700 E,,Spanish Fork,UT,84660,US,40.12204361,-111.64315033,2022-12-18 07:39:41
Culvers,101 Pipeline Way,,Kokomo,IN,46902,US,40.43555069,-86.12780762,2022-12-18 06:25:13
Culvers,2307 S Western Ave,,Marion,IN,46953,US,40.53984451,-85.6732254,2022-12-18 06:25:11
Culvers,3923 E. Market St.,,Logansport,IN,46947,US,40.75711441,-86.31340027,2022-12-18 06:25:09
Culvers,5530 E New Margaret Dr,,Terre Haute,IN,47803,US,39.44279861,-87.33229828,2022-12-18 06:25:17
Culvers,876 Munson Ave,,Traverse City,MI,49686,US,44.74975204,-85.56160736,2022-12-18 06:25:12
Culvers,101 US Hwy 31 S,,Traverse City,MI,49685,US,44.68504715,-85.65522003,2022-12-18 06:25:12
Culvers,401 Viking Plaza Dr,,Cedar Falls,IA,50613,US,42.48355865,-92.44212341,2022-12-18 06:25:18
Culvers,209 E Tower Park Dr,,Waterloo,IA,50701,US,42.45667648,-92.35264587,2022-12-18 06:25:18
Culvers,3000 S Broadway,,Minot,ND,58701,US,48.20320129,-101.29699707,2022-12-18 06:25:18
Culvers,983 Convent St,,Bourbonnais,IL,60914,US,41.16970444,-87.8757782,2022-12-18 07:39:41
Culvers,1330 N Henderson St,,Galesburg,IL,61401,US,40.96390152,-90.38379669,2022-12-18 06:25:13
Culvers,5010 2nd Ave,,Kearney,NE,68847,US,40.7240181,-99.08446503,2022-12-18 06:25:14
Culvers,1300 Junction Hwy,,Kerrville,TX,78028,US,30.06243896,-99.17007446,2022-12-18 07:39:41
Culvers,2501 S Kanner Hwy,,Stuart,FL,34994,US,27.17448807,-80.25232697,2022-12-18 07:39:41
Culvers,4836 SW College Road,,Ocala,FL,34471,US,29.13439941,-82.20010376,2022-12-18 07:39:41
Culvers,3390 Wedgewood Ln,,The Villages,FL,32162,US,28.92782211,-82.01194763,2022-12-18 07:39:41
Culvers,5327 Sundance Trail,,Wildwood,FL,34785,US,28.86595917,-82.01486206,2022-12-18 07:39:41
Culvers,1781 W. Main Street,,Inverness,FL,34450,US,28.83550072,-82.35160065,2022-12-18 07:39:41
Culvers,1712 North Lecanto Highway,,Lecanto,FL,34461,US,28.88850021,-82.48699951,2022-12-18 07:39:41
Culvers,12337 Cortez Blvd,,Brooksville,FL,34613,US,28.53412247,-82.52029419,2022-12-18 06:25:16
Culvers,1312 W McGalliard Rd,,Muncie,IN,47303,US,40.21928024,-85.40126801,2022-12-18 06:25:09
Culvers,5143 S 9th St,,Kalamazoo,MI,49009,US,42.24330139,-85.67693329,2022-12-18 06:25:09
Culvers,7262 S Westnedge Ave,,Portage,MI,49002,US,42.21164322,-85.5901413,2022-12-18 06:25:09
Culvers,6097 Gull Rd,,Kalamazoo,MI,49048,US,42.32928085,-85.51058197,2022-12-18 06:25:15
Culvers,1369 Allegan St,,Otsego,MI,49078,US,42.45047379,-85.67803955,2022-12-18 07:39:41
Culvers,5074 Beckley Rd,,Battle Creek,MI,49015,US,42.26058197,-85.19707489,2022-12-18 06:25:15
Culvers,701 Industrial Ct,,Hartland,WI,53029,US,43.09284973,-88.36058044,2022-12-18 07:39:41
Culvers,400 E Summit Ave,,Wales,WI,53183,US,43.01515961,-88.37387848,2022-12-18 07:39:41
Culvers,2001 Wisconsin Ave,,Grafton,WI,53024,US,43.3049736,-87.96100616,2022-12-18 06:25:09
Culvers,W227N16880 Tillie Lake Ct,,Jackson,WI,53037,US,43.32551956,-88.18882751,2022-12-18 06:25:09
Culvers,1177 Summit Ave,,Oconomowoc,WI,53066,US,43.09289169,-88.47896576,2022-12-18 07:39:41
Culvers,1285 E Sumner St,,Hartford,WI,53027,US,43.31726456,-88.35797119,2022-12-18 06:25:09
Culvers,1407 W Grand Ave,,Port Washington,WI,53074,US,43.38614273,-87.89720154,2022-12-18 06:25:09
Culvers,219 Central Bridge St,,Wausau,WI,54401,US,44.96899033,-89.6333847,2022-12-18 06:25:09
Culvers,225577 Lilac Ave,,Rib Mountain,WI,54401,US,44.91469955,-89.64679718,2022-12-18 06:25:09
Culvers,10202 Park Plaza,,Rothschild,WI,54474,US,44.86547852,-89.63930511,2022-12-18 06:25:09
Culvers,3349 E Main St,,Merrill,WI,54452,US,45.17744827,-89.65271759,2022-12-18 06:25:09
Culvers,3210 N Vermilion St,,Danville,IL,61832,US,40.17576218,-87.6305542,2022-12-18 06:25:09
Culvers,2575 Michigan St,,Sidney,OH,45365,US,40.28722,-84.19477081,2022-12-18 06:25:15
Culvers,1405 State Rd 69,,New Glarus,WI,53574,US,42.80581665,-89.63228607,2022-12-18 07:39:41
Culvers,105 Opportunity Blvd N,,Cambridge,MN,55008,US,45.57312775,-93.2046051,2022-12-18 06:25:09
Culvers,2200 Paul Bunyan Dr NW,,Bemidji,MN,56601,US,47.49521255,-94.91162109,2022-12-18 06:25:17
Culvers,2994 N Water St,,Decatur,IL,62526,US,39.87638855,-88.95456696,2022-12-18 07:39:41
Culvers,4850 E Aldi Dr,,Decatur,IL,62521,US,39.81774521,-88.88021088,2022-12-18 07:39:41
Culvers,295 N Kingshighway,,Cape Girardeau,MO,63701,US,37.31042099,-89.55270386,2022-12-18 06:25:18
Culvers,525 W Karsch Blvd,,Farmington,MO,63640,US,37.78914261,-90.42810059,2022-12-18 06:25:15
Culvers,2544 N Stoneridge Dr,,Prescott Valley,AZ,86314,US,34.57986832,-112.36107635,2022-12-18 06:25:16
Culvers,3125 Willow Creek Rd,,Prescott,AZ,86301,US,34.59540176,-112.46510315,2022-12-18 06:25:16
Culvers,2910 E Wilder Rd,,Bay City,MI,48706,US,43.62350082,-83.93520355,2022-12-18 06:25:09
Culvers,5369 Bay Rd,,Saginaw,MI,48604,US,43.4852066,-83.97554779,2022-12-18 06:25:09
Culvers,8100 Gratiot Rd,,Saginaw,MI,48609,US,43.41639328,-84.07330322,2022-12-18 06:25:09
Culvers,7320 Eastman Ave,,Midland,MI,48642,US,43.66366959,-84.24568939,2022-12-18 06:25:09
Culvers,3604 University Dr,,Muscatine,IA,52761,US,41.45988464,-91.01880646,2022-12-18 06:25:14
Culvers,2510 Washington Ave,,Sheboygan,WI,53081,US,43.71986389,-87.73948669,2022-12-18 06:25:16
Culvers,641 S Taylor Dr,,Sheboygan,WI,53081,US,43.74936295,-87.74558258,2022-12-18 07:39:41
Culvers,4225 State Hwy 42,,Sheboygan,WI,53083,US,43.79079056,-87.75958252,2022-12-18 07:39:41
Culvers,2318 Eastern Ave,,Plymouth,WI,53073,US,43.74773026,-87.95317078,2022-12-18 06:25:16
Culvers,969 E Johnson St,,Fond du Lac,WI,54935,US,43.78403473,-88.40920258,2022-12-18 06:25:09
Culvers,81 W Pioneer Rd,,Fond du Lac,WI,54935,US,43.75416565,-88.45214844,2022-12-18 06:25:09
Culvers,W6606 State Rd 23,,Fond du Lac,WI,54937,US,43.78379822,-88.48728943,2022-12-18 06:25:09
Culvers,900 Kelly Ave,,Waupun,WI,53963,US,43.63518906,-88.71772003,2022-12-18 06:25:14
Culvers,1086 W Fond du Lac St,,Ripon,WI,54971,US,43.85359573,-88.85876465,2022-12-18 06:25:09
Culvers,2442 Broadway St,,Quincy,IL,62301,US,39.93505478,-91.37593842,2022-12-18 06:25:15
Culvers,1510 W Fayette Ave,,Effingham,IL,62401,US,39.12127686,-88.56279755,2022-12-18 06:25:20
Culvers,114 Town Center Blvd,,St. Robert,MO,65584,US,37.8142662,-92.14348602,2022-12-18 06:25:16
Culvers,1239 Dell Range Blvd,,Cheyenne,WY,82009,US,41.15884399,-104.80977631,2022-12-18 06:25:12
Culvers,2231 E Lincolnway,,Cheyenne,WY,82001,US,41.13809967,-104.79000092,2022-12-18 06:25:12
Culvers,4151 NW Federal Hwy,,Jensen Beach,FL,34957,US,27.25630951,-80.27870178,2022-12-18 07:39:41
Culvers,525 Village Walk Ln,,Johnson Creek,WI,53038,US,43.0832634,-88.76392365,2022-12-18 06:25:15
Culvers,1722 S Church St,,Watertown,WI,53094,US,43.17193604,-88.73293304,2022-12-18 06:25:15
Culvers,640 Baldwin Plaza Dr,,Baldwin,WI,54002,US,44.93955612,-92.37218475,2022-12-18 06:25:11
Culvers,1650 Prairie View Rd,,Platte City,MO,64079,US,39.35709381,-94.76699829,2022-12-18 07:39:41
Culvers,600 Eisenhower Rd,,Leavenworth,KS,66048,US,39.26739883,-94.91459656,2022-12-18 07:39:41
Culvers,5648 Tuscola Blvd,,North Port,FL,34287,US,27.04063034,-82.22638702,2022-12-18 07:39:41
Culvers,10770 SW Tradition Pkwy,,Port St. Lucie,FL,34987,US,27.26402092,-80.43441772,2022-12-18 07:39:41
Culvers,1360 S Main St,,Adrian,MI,49221,US,41.87900925,-84.04374695,2022-12-18 06:25:16
Culvers,04287 Cecilia Drive,,South Haven,MI,49090,US,42.40330124,-86.24729919,2022-12-18 06:25:18
Culvers,3033 US Hwy 41 W,,Marquette,MI,49855,US,46.54880524,-87.45400238,2022-12-18 06:25:14
Culvers,1650 W 19th St S,,Newton,IA,50208,US,41.68488312,-93.07866669,2022-12-18 06:25:15
Culvers,2625 Lincoln Way,,Clinton,IA,52732,US,41.81477356,-90.24895477,2022-12-18 07:39:41
Culvers,4101 Mormon Coulee Rd,,La Crosse,WI,54601,US,43.77351761,-91.21920013,2022-12-18 06:25:17
Culvers,9422 State Rd 16,,Onalaska,WI,54650,US,43.87478256,-91.1914978,2022-12-18 06:25:12
Culvers,835 Oak Ave S,,Onalaska,WI,54650,US,43.87434387,-91.22940063,2022-12-18 06:25:12
Culvers,911 W Wisconsin St,,Sparta,WI,54656,US,43.9387207,-90.82341766,2022-12-18 06:25:09
Culvers,1002 N Main St,,Viroqua,WI,54665,US,43.56784439,-90.88959503,2022-12-18 06:25:18
Culvers,1065 S Main St,,Cedar City,UT,84720,US,37.65857315,-113.07299805,2022-12-18 06:25:17
Culvers,1615 Countryshire Ave,,Lake Havasu City,AZ,86403,US,34.4914093,-114.34998322,2022-12-18 06:25:20
Culvers,385 Kings Hwy,,Port Charlotte,FL,33983,US,27.02290916,-82.04707336,2022-12-18 07:39:41
Culvers,1140 El Jobean Rd,,Port Charlotte,FL,33948,US,27.01099968,-82.15094757,2022-12-18 07:39:41
Culvers,1065 S Broad St,,Brooksville,FL,34601,US,28.54381752,-82.40099335,2022-12-18 07:39:41
Culvers,551 S Monroe Ave,,Mason City,IA,50401,US,43.14682007,-93.20830536,2022-12-18 07:39:41
Culvers,1204 N 25th St,,Clear Lake,IA,50428,US,43.14733124,-93.35868073,2022-12-18 07:39:41
Culvers,2350 W Washington St,,West Bend,WI,53095,US,43.42807388,-88.21224976,2022-12-18 06:25:09
Culvers,1140 W Frontage Rd,,Owatonna,MN,55060,US,44.09579849,-93.24885559,2022-12-18 06:25:18
Culvers,4424 Skyline Crossing,,Bismarck,ND,58503,US,46.854599,-100.77120209,2022-12-18 06:25:15
Culvers,1704 E Main St,,Mandan,ND,58554,US,46.8298912,-100.8659668,2022-12-18 06:25:15
Culvers,906 N Simpson Dr,,Warrensburg,MO,64093,US,38.77600098,-93.73459625,2022-12-18 06:25:12
Culvers,5785 Osage Beach Pkwy,,Osage Beach,MO,65065,US,38.12071228,-92.67942047,2022-12-18 06:25:16
Culvers,4121 Pioneer Woods Dr,,Lincoln,NE,68506,US,40.7718544,-96.62467194,2022-12-18 06:25:12
Culvers,1500 Old Cheney Rd,,Lincoln,NE,68512,US,40.75602341,-96.70029449,2022-12-18 06:25:12
Culvers,4940 N 27th St,,Lincoln,NE,68521,US,40.86035156,-96.68106079,2022-12-18 06:25:12
Culvers,582 24 1/2 Rd,,Grand Junction,CO,81505,US,39.08879852,-108.59829712,2022-12-18 06:25:15
Culvers,3701 S 25th East,,Ammon,ID,83406,US,43.46423721,-111.98391724,2022-12-18 06:25:17
Culvers,946 Pancheri Dr,,Idaho Falls,ID,83402,US,43.48879623,-112.05171967,2022-12-18 06:25:17
Culvers,1855 S US Hwy 231,,Crawfordsville,IN,47933,US,40.01169968,-86.90418243,2022-12-18 06:25:17
Culvers,4201 Calumet Ave,,Manitowoc,WI,54220,US,44.07462311,-87.70016479,2022-12-18 07:39:41
Culvers,1441 Service Dr,,Winona,MN,55987,US,44.04722214,-91.67640686,2022-12-18 06:25:16
Culvers,610 50th Ave,,Alexandria,MN,56308,US,45.84528351,-95.3867569,2022-12-18 06:25:09
Culvers,4280 24th Ave,,Fort Gratiot,MI,48059,US,43.03359985,-82.45580292,2022-12-18 06:25:19
Culvers,3141 Colby St,,Whitehall,MI,49461,US,43.40859985,-86.32029724,2022-12-18 06:25:16
Culvers,3048 5th Ave S,,Fort Dodge,IA,50501,US,42.50146866,-94.15353394,2022-12-18 06:25:17
Culvers,332 N Division St,,Stevens Point,WI,54481,US,44.53871155,-89.57600403,2022-12-18 06:25:11
Culvers,5346 US Hwy 10 E,,Stevens Point,WI,54482,US,44.52391815,-89.52186584,2022-12-18 06:25:11
Culvers,1805 Plover Rd,,Plover,WI,54467,US,44.4534874,-89.52436829,2022-12-18 06:25:11
Culvers,2711 8th St S,,Wisconsin Rapids,WI,54494,US,44.36997986,-89.81634521,2022-12-18 06:25:11
Culvers,179 Tyler Rd,,Red Wing,MN,55066,US,44.56535339,-92.58467865,2022-12-18 06:25:11
Culvers,616 Centennial St S,,Aberdeen,SD,57401,US,45.45860291,-98.43911743,2022-12-18 06:25:11
Culvers,1600 Midtown Rd,,Peru,IL,61354,US,41.34721756,-89.1242218,2022-12-18 06:25:15
Culvers,3001 Fairfield Ln,,Ottawa,IL,61350,US,41.37357712,-88.83526611,2022-12-18 06:25:15
Culvers,224 Ace Rd,,Princeton,IL,61356,US,41.39488983,-89.46427155,2022-12-18 06:25:15
Culvers,3481 Wolverine Dr,,Montrose,CO,81401,US,38.44549942,-107.86740112,2022-12-18 06:25:18
Culvers,2207 N. Wayne St.,,Angola,IN,46703,US,41.66265869,-85.00002289,2022-12-18 07:39:41
Culvers,436 E Chicago St,,Coldwater,MI,49036,US,41.93716431,-84.98213196,2022-12-18 06:25:12
Culvers,830 S Centerville Rd,,Sturgis,MI,49091,US,41.7898674,-85.42790222,2022-12-18 06:25:09
Culvers,1907 N Newton St,,Jasper,IN,47546,US,38.4048996,-86.93710327,2022-12-18 06:25:12
Culvers,7 Executive Blvd,,Vincennes,IN,47591,US,38.69480133,-87.49749756,2022-12-18 07:39:41
Culvers,919 Lawrence Dr,,Burlington,IA,52601,US,40.79895782,-91.14086151,2022-12-18 06:25:15
Culvers,1000 N Wisconsin St,,Elkhorn,WI,53121,US,42.69320679,-88.54239655,2022-12-18 07:39:41
Culvers,109 W Upham St,,Marshfield,WI,54449,US,44.68086243,-90.16444397,2022-12-18 06:25:12
Culvers,202 19th Ave SE,,Willmar,MN,56201,US,45.10300446,-95.04034424,2022-12-18 06:25:13
Culvers,924 S 20th St,,Norfolk,NE,68701,US,42.0224762,-97.43673706,2022-12-18 06:25:14
Culvers,1690 Dirck Dr,,Freeport,IL,61032,US,42.28066635,-89.63441467,2022-12-18 06:25:14
Culvers,252 8th St,,Monroe,WI,53566,US,42.60308456,-89.65598297,2022-12-18 06:25:14
Culvers,4595 S White Mountain Rd,,Show Low,AZ,85901,US,34.20740128,-110.02120209,2022-12-18 06:25:19
Culvers,4537 Red Arrow Hwy,,Stevensville,MI,49127,US,42.0357399,-86.51338196,2022-12-18 06:25:15
Culvers,8645 E 34 Rd,,Cadillac,MI,49601,US,44.2817421,-85.40389252,2022-12-18 07:39:41
Culvers,1397 W Main St,,Gaylord,MI,49735,US,45.02726746,-84.70149231,2022-12-18 06:25:17
Culvers,4800 Asbury Rd,,Dubuque,IA,52002,US,42.5158844,-90.74187469,2022-12-18 06:25:18
Culvers,11371 Oldenburg Ln,,Galena,IL,61036,US,42.43622208,-90.45032501,2022-12-18 06:25:18
Culvers,375 E BUS Hwy 151,,Platteville,WI,53818,US,42.72756958,-90.47363281,2022-12-18 06:25:16
Culvers,1175 S Pokegama Ave,,Grand Rapids,MN,55744,US,47.21899414,-93.52919006,2022-12-18 06:25:18
Culvers,401 Reiger Dr,,Williston,ND,58801,US,48.14710236,-103.65544128,2022-12-18 06:25:18
Culvers,1801 Venture Dr,,Ottumwa,IA,52501,US,41.01643372,-92.45232391,2022-12-18 07:39:41
Culvers,1512 Washington St,,Pella,IA,50219,US,41.41044617,-92.93188477,2022-12-18 06:25:15
Culvers,1392 North 200 East,,Logan,UT,84341,US,41.75699997,-111.82849884,2022-12-18 06:25:15
Culvers,805 E Hwy 260,,Payson,AZ,85541,US,34.24143982,-111.31069183,2022-12-18 06:25:09
Culvers,1321 N Cass St,,Wabash,IN,46992,US,40.81549835,-85.83585358,2022-12-18 06:25:11
Culvers,420 Linn St,,Baraboo,WI,53913,US,43.47517014,-89.76647186,2022-12-18 06:25:14
Culvers,1070 Wisconsin Dells Pkwy S,,Lake Delton,WI,53913,US,43.57705688,-89.77938843,2022-12-18 06:25:14
Culvers,351 Hwy 13,,Wisconsin Dells,WI,53965,US,43.62560272,-89.78837585,2022-12-18 06:25:15
Culvers,2075 E Main St,,Reedsburg,WI,53959,US,43.53295898,-89.97796631,2022-12-18 06:25:11
Culvers,2733 New Pinery Rd,,Portage,WI,53901,US,43.56358719,-89.46881104,2022-12-18 06:25:13
Culvers,901 26th St SE,,Watertown,SD,57201,US,44.88968277,-97.07395935,2022-12-18 06:25:18
Culvers,15295 Waldron Way,,Big Rapids,MI,49307,US,43.68808365,-85.51476288,2022-12-18 06:25:19
Culvers,1264 US 31 N,,Petoskey,MI,49770,US,45.38869858,-84.91400146,2022-12-18 06:25:09
Culvers,1410 Bridge St,,Charlevoix,MI,49720,US,45.30590057,-85.25849915,2022-12-18 06:25:09
Culvers,16 Iowa Ave W,,Marshalltown,IA,50158,US,42.00621796,-92.91459656,2022-12-18 06:25:11
Culvers,1045 W Fulton St,,Waupaca,WI,54981,US,44.35650635,-89.10970306,2022-12-18 06:25:11
Culvers,2250 S Main St,,Rice Lake,WI,54868,US,45.47687912,-91.73661041,2022-12-18 06:25:15
Culvers,1510 Montreal St,,Hutchinson,MN,55350,US,44.86674881,-94.37464905,2022-12-18 06:25:19
Culvers,1015 Cabela Dr,,Mitchell,SD,57301,US,43.6885376,-98.01242065,2022-12-18 06:25:12
Culvers,2915 Ave B,,Scottsbluff,NE,69361,US,41.87643433,-103.66532135,2022-12-18 06:25:18
Culvers,1061 M 32 W,,Alpena,MI,49707,US,45.06113815,-83.4726944,2022-12-18 06:25:17
Culvers,640 McEvoy St,,Mauston,WI,53948,US,43.79594803,-90.05956268,2022-12-18 06:25:15
Culvers,1800 8th St NW,,Austin,MN,55912,US,43.68363953,-92.98439026,2022-12-18 06:25:18
Culvers,15222 Dellwood Dr,,Baxter,MN,56425,US,46.37210846,-94.243927,2022-12-18 06:25:18
Culvers,2229 6th St,,Brookings,SD,57006,US,44.31207275,-96.76650238,2022-12-18 06:25:17
Culvers,5089 W. US-10,,Ludington,MI,49431,US,43.9552002,-86.40630341,2022-12-18 06:25:16
Culvers,605 N Lincoln Rd,,Escanaba,MI,49829,US,45.7526741,-87.07841492,2022-12-18 06:25:15
Culvers,147 Wittig Rd,,Tomah,WI,54660,US,44.01731491,-90.50338745,2022-12-18 06:25:09
Culvers,1317 N Galena Ave,,Dixon,IL,61021,US,41.86111832,-89.49872589,2022-12-18 06:25:09
Culvers,1901 Harley Davidson Dr,,Rock Falls,IL,61071,US,41.76297379,-89.6889801,2022-12-18 06:25:09
Culvers,51283 Hwy 6,,Glenwood Springs,CO,81601,US,39.56180573,-107.35839081,2022-12-18 06:25:15
Culvers,1913 S Main Ave,,Sioux Center,IA,51250,US,43.05716324,-96.17742157,2022-12-18 06:25:09
Culvers,405 W US Hwy 30,,Carroll,IA,51401,US,42.06660461,-94.87200165,2022-12-18 06:25:13
Culvers,1211 Susan Dr,,Marshall,MN,56258,US,44.43586731,-95.77133942,2022-12-18 06:25:14
Culvers,1601 N Spring St,,Beaver Dam,WI,53916,US,43.47275925,-88.8254776,2022-12-18 06:25:16
Culvers,1225 Marinette Ave,,Marinette,WI,54143,US,45.09365463,-87.64691162,2022-12-18 06:25:18
Culvers,5581 Gordon Rd,,Sturgeon Bay,WI,54235,US,44.86016083,-87.34414673,2022-12-18 06:25:18
Culvers,1220 E Green Bay St,,Shawano,WI,54166,US,44.78165054,-88.58274841,2022-12-18 07:39:41
Culvers,105 S Main St,,Clintonville,WI,54929,US,44.61905289,-88.76159668,2022-12-18 07:39:41
Culvers,2939 Cook Rd,,West Branch,MI,48661,US,44.25120163,-84.22480011,2022-12-18 06:25:17
Culvers,1122 N Johns St,,Dodgeville,WI,53533,US,42.97198486,-90.12689209,2022-12-18 06:25:16
Culvers,3208 Broadway Ave,,Yankton,SD,57078,US,42.91210938,-97.39668274,2022-12-18 07:39:41
Culvers,2530 Woodlawn Rd,,Lincoln,IL,62656,US,40.15851974,-89.402565,2022-12-18 06:25:15
Culvers,620 W Kemp St,,Rhinelander,WI,54501,US,45.63293076,-89.43169403,2022-12-18 07:39:41
Culvers,123 US Hwy 51 N,,Arbor Vitae,WI,54568,US,45.89917374,-89.69825745,2022-12-18 07:39:41
Culvers,101 N Century Dr,,Wautoma,WI,54982,US,44.06952667,-89.26820374,2022-12-18 06:25:19
Culvers,2015 S Stephenson Ave,,Iron Mountain,MI,49801,US,45.81018829,-88.03546906,2022-12-18 06:25:18
Culvers,600 Airport Rd,,Rifle,CO,81650,US,39.52310181,-107.771698,2022-12-18 06:25:17
Culvers,1001 W Sharon Ave,,Houghton,MI,49931,US,47.11290359,-88.58987427,2022-12-18 06:25:18
Culvers,1082 Hwy 61,,Two Harbors,MN,55616,US,47.02428818,-91.69055939,2022-12-18 06:25:18
Culvers,2423 Platinum Dr,,Spearfish,SD,57783,US,44.4786911,-103.81635284,2022-12-18 06:25:13
Culvers,925 Commerce St,,Black River Falls,WI,54615,US,44.29422379,-90.82617188,2022-12-18 06:25:12
Culvers,2105 Neva Rd,,Antigo,WI,54409,US,45.16020966,-89.14742279,2022-12-18 06:25:15
Culvers,2101 Lake Shore Dr,,Ashland,WI,54806,US,46.60368347,-90.85922241,2022-12-18 06:25:15
Culvers,2415 US Hwy 14 E,,Richland Center,WI,53581,US,43.31256866,-90.34554291,2022-12-18 06:25:11
Culvers,E4919 US Hwy 14,,Spring Green,WI,53588,US,43.18919754,-90.0727005,2022-12-18 06:25:11
Culvers,1915 S Marquette Rd,,Prairie du Chien,WI,53821,US,43.02872086,-91.1289444,2022-12-18 06:25:18
Culvers,909 Casement Ct,,Medford,WI,54451,US,45.15110016,-90.33519745,2022-12-18 06:25:15
Culvers,904 Short St,,Decorah,IA,52101,US,43.29228973,-91.79693604,2022-12-18 06:25:12
