company_name,address_line_1,address_line_2,city,state_alpha,postal_code,country_code,latitude,longitude,when_verified
Denny's,254 US 550,,Bernalillo,NM,87004,US,35.31792831,-106.54061127,2022-11-26 23:22:14
Denny's,1446 Unser Blvd SE,,Rio Rancho,NM,87124,US,35.23527527,-106.69567108,2022-11-26 23:22:14
Denny's,5201 SAN ANTONIO DRIVE NE,,ALBUQUERQUE,NM,87109,US,35.16049194,-106.58561707,2022-11-26 23:22:14
Denny's,11261 Menaul Blvd NE,,Albuquerque,NM,87112,US,35.10914612,-106.51586914,2022-11-26 23:22:14
Denny's,2400 San Mateo Blvd NE,,Albuquerque,NM,87110,US,35.10620499,-106.58721161,2022-11-26 23:22:14
Denny's,1602 Coors Road NW,,Albuquerque,NM,87121,US,35.10364914,-106.70498657,2022-11-26 23:22:14
Denny's,1620 Towne Center Lane S.E.,,Albuquerque,NM,87106,US,35.05891418,-106.62941742,2022-11-26 23:22:14
Denny's,9911 Avalon Rd NW,,Albuquerque,NM,87121,US,35.07933426,-106.74543762,2022-11-26 23:22:14
Denny's,139 Factory Outlet Dr,,Fort Chiswell,VA,24360,US,36.94506836,-80.94607544,2022-11-25 02:07:46
Denny's,3249 Chapman Road,,Wytheville,VA,24382,US,36.93559647,-80.99302673,2022-11-25 02:07:46
Denny's,21195 North John Wayne Parkway,,Maricopa,AZ,85139,US,33.0712738,-112.04421997,2022-11-25 06:47:50
Denny's,1851 E Florence Blvd,,Casa Grande,AZ,85122,US,32.87917328,-111.70826721,2022-11-25 03:40:44
Denny's,7400 W Chandler Blvd,,Chandler,AZ,85226,US,33.30587387,-111.96846008,2022-11-27 14:06:44
Denny's,1750 W Chandler Blvd,,Chandler,AZ,85224,US,33.30661774,-111.87252045,2022-11-27 14:06:44
Denny's,3971 South Gilbert Rd,,Gilbert,AZ,85297,US,33.27787781,-111.78870392,2022-11-27 14:06:44
Denny's,800 S. Kings Hwy,,Myrtle Beach,SC,29577,US,33.68071365,-78.89782715,2022-11-25 04:40:17
Denny's,94-305 Kunia Road,,Waipahu,HI,96797,US,21.38702774,-158.03361511,2022-11-25 07:52:25
Denny's,4470 Kapolei Parkway  Ste 800,,Kapolei,HI,96707,US,21.32908249,-158.09236145,2022-11-25 07:52:25
Denny's,205 Lewers St,,Honolulu,HI,96815,US,21.27842331,-157.83152771,2022-11-25 07:52:25
Denny's,208 Kapahulu Avenue,,Honolulu,HI,96815,US,21.27209473,-157.82026672,2022-11-25 07:52:25
Denny's,61 Newtown Rd,,Danbury,CT,06810,US,41.40497589,-73.41976929,2022-11-27 02:38:52
Denny's,621 Queen St,,Southington,CT,06489,US,41.63392639,-72.87302399,2022-11-27 02:38:52
Denny's,2801 W Kennewick Ave,,Kennewick,WA,99336,US,46.2091713,-119.15921783,2022-11-21 09:28:57
Denny's,1301A George Washington Way,,Richland,WA,99354,US,46.2867012,-119.27546692,2022-11-21 09:28:57
Denny's,987 Kruse Way,,Springfield,OR,97477,US,44.08234024,-123.04032135,2022-11-21 11:47:00
Denny's,3652 Glenwood Dr,,Eugene,OR,97403,US,44.03411484,-123.0402832,2022-11-21 11:47:00
Denny's,16452 West Russell Road,,Wadsworth,IL,60083,US,42.48788452,-87.95098114,2022-11-27 09:52:08
Denny's,6429 Grand Ave,,Gurnee,IL,60031,US,42.3842659,-87.96192169,2022-11-27 09:52:08
Denny's,5501 Washington Avenue,,Racine,WI,53406,US,42.71845627,-87.84695435,2022-11-27 10:37:35
Denny's,3890 N. Point Boulevard,,Waukegan,IL,60085,US,42.34634399,-87.89764404,2022-11-27 09:52:08
Denny's,9650 South 20th Street,,Oak Creek,WI,53154,US,42.87128067,-87.94093323,2022-11-27 10:37:35
Denny's,10623 E. Main St.,,Apache Junction,AZ,85120,US,33.41461182,-111.60110474,2022-11-27 11:10:42
Denny's,5854 E Longbow Parkway,,Mesa,AZ,85215,US,33.47285843,-111.70481873,2022-11-27 14:06:44
Denny's,17053 E Shea Blvd,,Fountain Hills,AZ,85268,US,33.57265854,-111.71433258,2022-11-27 14:06:44
Denny's,1330 S Power Rd,,Mesa,AZ,85206,US,33.39133453,-111.68518829,2022-11-27 14:06:44
Denny's,5012 S Power Rd,,Mesa,AZ,85212,US,33.32500839,-111.68801117,2022-11-27 11:10:42
Denny's,1210 E. Main,,Mesa,AZ,85203,US,33.41547775,-111.8049469,2022-11-27 14:06:44
Denny's,1661 E Warner Rd,,Gilbert,AZ,85296,US,33.3349762,-111.7543335,2022-11-27 14:06:44
Denny's,1150 South Country Club,,Mesa,AZ,85210,US,33.39375687,-111.84062958,2022-11-27 14:06:44
Denny's,20995 E. Rittenhouse Rd,,Queen Creek,AZ,85142,US,33.25279236,-111.63043976,2022-11-27 11:10:42
Denny's,9160 E Indian Bend Rd,,Scottsdale,AZ,85250,US,33.53876114,-111.8848877,2022-11-27 14:06:44
Denny's,7605 E MCDOWELL RD,,SCOTTSDALE,AZ,85257,US,33.46532059,-111.91721344,2022-11-27 14:06:44
Denny's,3315 North Scottsdale Rd,,Scottsdale,AZ,85251,US,33.48670959,-111.92575836,2022-11-27 14:06:44
Denny's,1758 W. Hunt Highway,,San Tan Valley,AZ,85143,US,33.17963409,-111.58399963,2022-11-27 11:10:41
Denny's,4403 S. Rural Rd.,,Tempe,AZ,85282,US,33.3847084,-111.92601776,2022-11-27 14:06:44
Denny's,1 Merlin Drive,,Troy,MO,63379,US,38.9861412,-90.96897888,2022-11-27 12:49:43
Denny's,1300 Lake St Louis Blvd,,Lake St Louis,MO,63367,US,38.80302429,-90.76811981,2022-11-27 12:49:43
Denny's,3939 Veterans Memorial Blvd,,Saint Peters,MO,63376,US,38.79256058,-90.56625366,2022-11-27 13:04:21
Denny's,1423 S. 5th Street,,Saint Charles,MO,63301,US,38.77065659,-90.49397278,2022-11-27 13:04:21
Denny's,429 E. Veterans Memorial Parkway,,Warrenton,MO,63383,US,38.82084656,-91.14887238,2022-11-27 12:49:43
Denny's,2250 Etchepare Dr.,,Cheyenne,WY,82007,US,41.09797668,-104.85423279,2022-11-21 15:54:35
Denny's,23236 Interstate 30,,Bryant,AR,72022,US,34.6216011,-92.49434662,2022-11-27 01:36:26
Denny's,310 S Shackleford Dr,,Little Rock,AR,72211,US,34.75070572,-92.39463806,2022-11-27 01:36:26
Denny's,806 S. White Sands Blvd.,,Alamogordo,NM,88310,US,32.88243103,-105.96081543,2022-11-14 20:41:34
Denny's,17455 IH 35 N,,Schertz,TX,78154,US,29.5997982,-98.27892303,2022-11-27 08:45:47
Denny's,12816 IH 35 N,,Live Oak,TX,78233,US,29.55549431,-98.34642792,2022-11-27 08:45:47
Denny's,6703 Fm78,,San Antonio,TX,78244,US,29.4828186,-98.35705566,2022-11-27 08:45:47
Denny's,1815 North Foster Rd,,San Antonio,TX,78244,US,29.44592285,-98.36188507,2022-11-27 08:45:47
Denny's,13635 San Pedro Ave,,San Antonio,TX,78232,US,29.56612778,-98.48291016,2022-11-27 08:45:47
Denny's,1348 North IH 35,,New Braunfels,TX,78130,US,29.70210075,-98.09127808,2022-11-25 05:10:50
Denny's,2210 Loop 410 SE,,San Antonio,TX,78220,US,29.39940834,-98.3881073,2022-11-27 08:45:47
Denny's,6801 Blanco Rd,,San Antonio,TX,78216,US,29.51862907,-98.50728607,2022-11-27 08:45:47
Denny's,903 E Commerce St,,San Antonio,TX,78205,US,29.42312622,-98.48290253,2022-11-27 08:45:47
Denny's,9550 I-10 West,,San Antonio,TX,78230,US,29.52913094,-98.56124878,2022-11-27 08:45:47
Denny's,4510 Fredericksburg Rd,,San Antonio,TX,78201,US,29.490345,-98.55095673,2022-11-27 08:45:47
Denny's,7122 Interstate 35-s. Access Rd.,,San Antonio,TX,78224,US,29.35595894,-98.52562714,2022-11-27 08:45:47
Denny's,6854 Ingram Rd,,San Antonio,TX,78238,US,29.46291161,-98.6229248,2022-11-27 08:45:47
Denny's,7138 NW Loop 410,,San Antonio,TX,78238,US,29.45362282,-98.62863159,2022-11-27 08:45:47
Denny's,6859 Highway 90 West,,San Antonio,TX,78227,US,29.4036026,-98.62685394,2022-11-27 08:45:47
Denny's,118 Interstate Ave,,Chehalis,WA,98532,US,46.64611816,-122.95667267,2022-11-25 13:26:12
Denny's,1052A Harrison Ave,,Centralia,WA,98531,US,46.72867203,-122.97796631,2022-11-25 13:26:12
Denny's,110 Kelso Dr,,Kelso,WA,98626,US,46.14432907,-122.89464569,2022-11-21 14:03:16
Denny's,3000 Service Loop Rd,,West Memphis,AR,72301,US,35.15426636,-90.14380646,2022-11-26 23:46:01
Denny's,14390 County Line Rd,,Delano,CA,93215,US,35.79098129,-119.25005341,2022-11-24 18:20:31
Denny's,1262 W Henderson Ave,,Porterville,CA,93257,US,36.0807457,-119.0454483,2022-11-26 22:33:40
Denny's,360 Montgomery Ave,,Porterville,CA,93257,US,36.05093765,-119.02396393,2022-11-26 22:33:40
Denny's,795 E Prosperity Ave,,Tulare,CA,93274,US,36.2255249,-119.33712769,2022-11-26 22:33:40
Denny's,2332 South Mooney Blvd,,Visalia,CA,93277,US,36.30957031,-119.31310272,2022-11-26 22:33:40
Denny's,4024 E Harry St,,Wichita,KS,67218,US,37.66502762,-97.28862762,2022-11-27 06:53:25
Denny's,4541 Sunset Rd,,Charlotte,NC,28216,US,35.30754852,-80.85118866,2022-11-27 09:52:13
Denny's,8031 Concord Mills Blvd,,Concord,NC,28027,US,35.37037659,-80.71787262,2022-11-27 07:24:07
Denny's,3016 W 11th St,,Huntsville,TX,77340,US,,,2022-11-27 07:45:48
Denny's,2306 Reidville Road,,Spartanburg,SC,29301,US,34.9215126,-81.99185944,2022-11-25 05:10:40
Denny's,115 Sloane Garden Rd,,Boiling Springs,SC,29316,US,35.01191711,-81.95615387,2022-11-25 05:10:40
Denny's,2521 Wade Hampton,,Greenville,SC,29615,US,34.89595413,-82.34261322,2022-11-27 03:52:02
Denny's,3118 Covey Lane,,Sunnyside,WA,98944,US,46.30838776,-119.97914124,2022-11-14 20:04:14
Denny's,5910 Rogers Ave,,Fort Smith,AR,72903,US,35.36000824,-94.36737061,2022-11-25 13:44:23
Denny's,38681 Tanger Dr,,North Branch,MN,55056,US,45.50872803,-92.99633789,2022-11-25 00:58:37
Denny's,4703 S Expressway 77/83,,Harlingen,TX,78550,US,26.16026878,-97.6802597,2022-11-25 07:15:28
Denny's,6131 Paredes Line Rd.,,Brownsville,TX,78526,US,25.98499489,-97.48451233,2022-11-25 07:15:28
Denny's,1875 N Expressway,,Brownsville,TX,78520,US,25.94496727,-97.50524902,2022-11-20 08:05:49
Denny's,1416 W Expwy 83,,Weslaco,TX,78596,US,,,2022-11-27 09:10:57
Denny's,17225 A Crosby Freeway,,Houston,TX,77049,US,29.85509872,-95.12908173,2022-11-27 12:02:15
Denny's,6920 Fm1960,,Humble,TX,77346,US,29.99773788,-95.17207336,2022-11-27 12:02:15
Denny's,7207 Garth Road,,Baytown,TX,77521,US,29.80664635,-94.98269653,2022-11-27 12:02:15
Denny's,1876 East Freeway,,Baytown,TX,77521,US,29.7950058,-95.0333786,2022-11-27 12:02:15
Denny's,9655 N. Sam Houston Parkway E,,Humble,TX,77396,US,29.9356041,-95.24578857,2022-11-27 12:02:15
Denny's,19450 Hwy 59,,Humble,TX,77338,US,29.99914551,-95.26953888,2022-11-27 12:02:15
Denny's,22671 Eastex Frwy,,Kingwood,TX,77339,US,30.04605865,-95.25483704,2022-11-27 12:02:15
Denny's,23693 US Highway 59,,Porter,TX,77365,US,30.10360909,-95.23580933,2022-11-27 11:47:44
Denny's,11901 E Freeway,,Houston,TX,77029,US,29.7735157,-95.23291779,2022-11-27 12:02:15
Denny's,11915 Eastex Freeway,,Houston,TX,77039,US,29.89680862,-95.31583405,2022-11-27 12:02:15
Denny's,23412 Sh 242,,New Caney,TX,77357,US,30.19270515,-95.1933136,2022-11-27 11:47:44
Denny's,909 West Pasadena,,Pasadena,TX,77506,US,29.70935249,-95.22093201,2022-11-27 12:02:15
Denny's,1104 N Sam Houston Parkway East,,Houston,TX,77032,US,29.93769646,-95.37294769,2022-11-27 12:02:15
Denny's,928 Hwy 146 S,,La Porte,TX,77571,US,29.65400124,-95.03114319,2022-11-27 12:02:15
Denny's,4125 Spencer Hwy,,Pasadena,TX,77504,US,29.66559792,-95.18066406,2022-11-27 12:02:15
Denny's,11320 North Freeway,,Houston,TX,77037,US,29.93014717,-95.41092682,2022-11-27 12:02:15
Denny's,7707 STUEBNER AIRLINE RD,,HOUSTON,TX,77088,US,29.87310219,-95.41038513,2022-11-27 12:02:15
Denny's,6969 Gulf Freeway,,Houston,TX,77087,US,29.70380783,-95.29624176,2022-11-27 12:02:15
Denny's,15919 North Freeway,,Houston,TX,77090,US,29.99921608,-95.42765045,2022-11-27 12:02:15
Denny's,9810 Gulf Freeway,,Houston,TX,77034,US,29.65185547,-95.25241089,2022-11-27 12:02:15
Denny's,20015 I-45 N,,Spring,TX,77388,US,30.05424881,-95.43314362,2022-11-27 11:47:44
Denny's,3509 S 84th St,,Omaha,NE,68124,US,41.22554016,-96.04219055,2022-11-27 00:26:26
Denny's,15010 South State Hwy 31,,Gretna,NE,68028,US,41.09172821,-96.25443268,2022-11-27 00:26:26
Denny's,2020 Milton Ave,,Janesville,WI,53545,US,42.70715332,-89.0042038,2022-11-26 23:22:22
Denny's,16049 Willowbrook Rd,,South Beloit,IL,61080,US,42.49326706,-88.99855042,2022-11-26 23:22:22
Denny's,1550 Four Seasons,,Hendersonville,NC,28792,US,35.3319664,-82.44818878,2022-11-27 05:20:52
Denny's,6144 Gateway Blvd. E,,El Paso,TX,79905,US,31.78083992,-106.40782928,2022-11-27 14:06:48
Denny's,1613 Pleasanton Road  Suite B-10,Suite B-10,El Paso,TX,79906,US,31.8162117,-106.42766571,2022-11-27 14:06:48
Denny's,6650 Montana Ave,,El Paso,TX,79925,US,31.78918648,-106.39685059,2022-11-27 14:06:48
Denny's,11045 Gateway Blvd. W,,El Paso,TX,79935,US,31.74585152,-106.33287811,2022-11-27 14:06:48
Denny's,9567 Dyer St,,El Paso,TX,79924,US,31.88409805,-106.41915131,2022-11-27 14:06:48
Denny's,4690 WOODROW BEAN TRANSMOUNTAIN RD,,EL PASO,TX,79924,US,31.8979454,-106.43508911,2022-11-27 14:06:48
Denny's,510 Zaragosa Rd,,El Paso,TX,79907,US,31.70233727,-106.32106018,2022-11-27 14:06:48
Denny's,11315 Montwood Dr,,El Paso,TX,79936,US,31.76976204,-106.30265808,2022-11-27 14:06:48
Denny's,1301 North Horizon Blvd,,El Paso,TX,79927,US,31.66197014,-106.23800659,2022-11-27 14:06:48
Denny's,3001 Mountain Pass Blvd,,Anthony,TX,79821,US,31.99644852,-106.57993317,2022-11-27 14:06:48
Denny's,3817 Cork Street,,Kalamazoo,MI,49001,US,42.26302338,-85.53151703,2022-11-27 12:19:40
Denny's,4785 Beckley Rd,,Battle Creek,MI,49015,US,42.26139069,-85.20118713,2022-11-27 12:19:40
Denny's,1320 S Jefferson Ave,,Lebanon,MO,65536,US,37.66854858,-92.64844513,2022-11-14 09:17:11
Denny's,14799 West Grand Ave,,Surprise,AZ,85374,US,33.65890121,-112.37689972,2022-11-27 14:06:44
Denny's,8131 W Bell Rd,,Peoria,AZ,85382,US,33.63780212,-112.23153687,2022-11-27 14:06:44
Denny's,16487 W Bell Rd,#109,Surprise,AZ,85374,US,33.63825989,-112.41347504,2022-11-27 14:06:44
Denny's,8737 NW Grand Ave,,Peoria,AZ,85345,US,33.58850479,-112.24655151,2022-11-27 14:06:44
Denny's,5161 W Thunderbird Rd,,Glendale,AZ,85306,US,33.61036682,-112.1706543,2022-11-27 14:06:44
Denny's,2525 W Deer Valley Rd,,Phoenix,AZ,85027,US,33.68330765,-112.11504364,2022-11-27 14:06:44
Denny's,2717 West Bell Rd,,Phoenix,AZ,85053,US,33.63950348,-112.11901093,2022-11-27 14:06:44
Denny's,4303 W Peoria Ave,,Glendale,AZ,85302,US,33.58143616,-112.15196228,2022-11-27 14:06:44
Denny's,9856 W. Camelback Rd.,,Glendale,AZ,85305,US,33.50892258,-112.27119446,2022-11-27 14:06:44
Denny's,4865 N. Dysart Rd,,Litchfield Park,AZ,85340,US,33.50555038,-112.34043884,2022-11-27 14:06:44
Denny's,3160 W. Carefree Highway,,Phoenix,AZ,85086,US,33.79956055,-112.12856293,2022-11-27 14:06:44
Denny's,9030 N. Black Canyon Highway,,Phoenix,AZ,85051,US,33.56880951,-112.1181488,2022-11-27 14:06:44
Denny's,3456 West Bethany Home Rd,,Phoenix,AZ,85017,US,33.52433395,-112.13388062,2022-11-27 14:06:44
Denny's,4120 N 51st Ave,,Phoenix,AZ,85031,US,33.49583435,-112.16928101,2022-11-27 14:06:44
Denny's,1218 N Litchfield Rd,,Goodyear,AZ,85338,US,,,2022-11-27 14:06:44
Denny's,4121 W Anthem Way,,Anthem,AZ,85086,US,33.87042618,-112.14877319,2022-11-27 01:52:40
Denny's,1401 N 75TH AVE,,PHOENIX,AZ,85035,US,33.46411514,-112.22010803,2022-11-27 14:06:44
Denny's,6700 West Latham Street,,Phoenix,AZ,85043,US,33.46116638,-112.20588684,2022-11-27 14:06:44
Denny's,2120 E Cactus Rd,,Phoenix,AZ,85022,US,33.59713745,-112.03692627,2022-11-27 14:06:44
Denny's,3205 E Bell Rd,,Phoenix,AZ,85032,US,33.64019394,-112.01289368,2022-11-27 14:06:44
Denny's,2801 No. Black Canyon,,Phoenix,AZ,85009,US,33.4797554,-112.11223602,2022-11-27 14:06:44
Denny's,9960 W Lower Buckeye Rd,,Tolleson,AZ,85353,US,33.42176437,-112.27420044,2022-11-27 14:06:44
Denny's,5002 North Seventh St,,Phoenix,AZ,85014,US,33.50950241,-112.0652771,2022-11-27 14:06:44
Denny's,441 S. Watson Rd,,Buckeye,AZ,85326,US,33.44324875,-112.55508423,2022-11-27 10:37:39
Denny's,1500 County Hwy Xx,,Rothschild,WI,54474,US,44.86335373,-89.63780212,2022-11-25 13:27:12
Denny's,6288 E 82nd St,,Indianapolis,IN,46250,US,39.90578842,-86.05973816,2022-11-27 09:52:19
Denny's,2490 Post Rd,,Indianapolis,IN,46219,US,39.80350876,-86.00992584,2022-11-27 09:52:19
Denny's,5300 S State Rt 3,,Spiceland,IN,47385,US,39.8519516,-85.41323853,2022-11-25 07:52:53
Denny's,827 East State Road 32,,Westfield,IN,46074,US,40.04233932,-86.143013,2022-11-27 09:52:19
Denny's,7601 Navarro St,,Victoria,TX,77904,US,28.86582565,-96.99765015,2022-11-20 15:12:28
Denny's,113 Motel Drive,,Saint George,SC,29477,US,33.19264221,-80.60179901,2022-11-25 07:15:09
Denny's,4260 South St.,,Lafayette,IN,47905,US,40.41816711,-86.82437134,2022-11-27 09:25:05
Denny's,301 North I-45,,Ennis,TX,75119,US,32.33560181,-96.61768341,2022-11-27 13:47:09
Denny's,408 N I-35 East Service Road,,Red Oak,TX,75154,US,32.52938461,-96.82119751,2022-11-27 14:06:41
Denny's,140 Lr Campbell Road,,Italy,TX,76651,US,32.19722366,-96.90065765,2022-11-27 14:06:41
Denny's,201 N. Hwy. I-45,,Wilmer,TX,75172,US,32.59386826,-96.68190765,2022-11-27 13:47:09
Denny's,7425 Bonnie View Road,,Dallas,TX,75241,US,32.6562233,-96.75153351,2022-11-27 13:47:09
Denny's,7120 S Cockrell Hill,,Dallas,TX,75236,US,32.66098785,-96.89083862,2022-11-27 13:47:09
Denny's,3720 East Broad Street,,Mansfield,TX,76063,US,32.5786438,-97.07649994,2022-11-27 14:06:41
Denny's,400 N Highway 175,,Seagoville,TX,75159,US,32.64858627,-96.53798676,2022-11-27 13:47:09
Denny's,408 Westchase Drive,,Grand Prairie,TX,75052,US,32.67368317,-97.00471497,2022-11-27 14:06:41
Denny's,3716 Parkway,,Pigeon Forge,TN,37863,US,35.78089523,-83.54994965,2022-11-27 02:16:27
Denny's,2990 US Hwy 17 South,,Brunswick,GA,31523,US,31.1400032,-81.57842255,2022-11-24 17:11:44
Denny's,108 College Street SE,,Lacey,WA,98516,US,47.04836655,-122.82196045,2022-11-27 11:47:38
Denny's,11755 Pacific Highway,,Tacoma,WA,98499,US,47.14945221,-122.50328827,2022-11-27 11:47:38
Denny's,8614 S Hosmer,,Tacoma,WA,98444,US,47.17877197,-122.46413422,2022-11-27 11:47:38
Denny's,10802 Pacific Ave. South,,Tacoma,WA,98444,US,47.15897369,-122.43487549,2022-11-27 11:47:38
Denny's,20420 Mountain Highway,,Spanaway,WA,98387,US,47.07146835,-122.41970825,2022-11-27 11:47:38
Denny's,600 Trosper Road Sw,,Tumwater,WA,98512,US,47.0006218,-122.91458893,2022-11-27 04:59:59
Denny's,5110 Pacific Hwy E,,Fife,WA,98424,US,47.24137878,-122.3602829,2022-11-27 11:47:38
Denny's,16511 Meridian East,,Puyallup,WA,98375,US,47.10677719,-122.29231262,2022-11-27 11:47:38
Denny's,626 S Hill Park Dr,,Puyallup,WA,98373,US,47.16081238,-122.30006409,2022-11-27 11:47:38
Denny's,34726 16th Avenue South,,Federal Way,WA,98003,US,47.29016113,-122.31291199,2022-11-27 11:47:38
Denny's,301 E Wallace-Kneeland Blvd,,Shelton,WA,98584,US,47.23039246,-123.12467194,2022-11-27 01:26:39
Denny's,6360 Newtown Rd,,Norfolk,VA,23502,US,36.8433075,-76.186409,2022-11-26 21:33:12
Denny's,3337 Virginia Beach Blvd,,Virginia Beach,VA,23452,US,36.84143066,-76.08779907,2022-11-26 21:33:12
Denny's,1401 Tintern St,,Chesapeake,VA,23320,US,36.76467133,-76.25286865,2022-11-26 21:33:12
Denny's,1040 West Mercury Blvd,,Hampton,VA,23666,US,37.04347992,-76.38160706,2022-11-26 21:33:12
Denny's,2010 Overland Ave,,Billings,MT,59102,US,45.75400162,-108.56468201,2022-11-25 03:13:45
Denny's,37050 47th St E,,Palmdale,CA,93552,US,34.55460739,-118.04463196,2022-11-26 13:18:46
Denny's,2627 E Colorado Blvd,,Pasadena,CA,91107,US,34.14635086,-118.09591675,2022-11-27 12:19:43
Denny's,7 East Huntington Dr,,Arcadia,CA,91006,US,34.14038467,-118.03109741,2022-11-27 12:19:43
Denny's,1060 Huntington Dr,,Duarte,CA,91010,US,34.13923264,-117.98283386,2022-11-27 12:19:43
Denny's,1257 Rancho Vista Blvd,,Palmdale,CA,93551,US,34.60186768,-118.15362549,2022-11-26 13:18:46
Denny's,369 W Main St,,Alhambra,CA,91801,US,34.09341431,-118.13101959,2022-11-27 12:19:43
Denny's,1010 W Alameda Ave,,Burbank,CA,91506,US,34.16292572,-118.31322479,2022-11-27 12:19:43
Denny's,3060 San Fernando Rd,,Los Angeles,CA,90065,US,34.11410522,-118.24542236,2022-11-27 12:49:38
Denny's,546 W. Baseline Rd.,,Glendora,CA,91740,US,34.12112045,-117.8723526,2022-11-27 12:19:43
Denny's,2525 North Hollywood Way,,Burbank,CA,91505,US,34.19433594,-118.34932709,2022-11-27 12:19:43
Denny's,9804 E. Flair Drive,,El Monte,CA,91731,US,34.07184601,-118.05519104,2022-11-27 12:19:43
Denny's,3540 N Peck Rd,,El Monte,CA,91731,US,34.07196045,-118.02442932,2022-11-27 12:19:43
Denny's,8022 Vineland Ave,,Sun Valley,CA,91352,US,34.21635056,-118.36997986,2022-11-27 12:02:22
Denny's,14550 Baldwin Pk Towne Center,,Baldwin Park,CA,91706,US,34.07120132,-117.95838165,2022-11-27 12:19:43
Denny's,16401 Delone St.,,Santa Clarita,CA,91387,US,34.42484283,-118.4224472,2022-11-27 11:47:55
Denny's,13201 Gladstone Ave,,Sylmar,CA,91342,US,34.30950546,-118.42863464,2022-11-27 12:02:22
Denny's,645 N Azusa,,West Covina,CA,91791,US,34.08243179,-117.9080658,2022-11-27 12:19:43
Denny's,11377 Burbank Blvd.,,No Hollywood,CA,91601,US,34.1723671,-118.37871552,2022-11-27 12:19:43
Denny's,1041 Truman Street,,San Fernando,CA,91340,US,34.28351212,-118.44055176,2022-11-27 12:02:22
Denny's,132 N. Grand Ave,,West Covina,CA,91791,US,34.07372665,-117.87220001,2022-11-27 12:19:43
Denny's,548 W Arrow Hwy,,San Dimas,CA,91773,US,34.10409164,-117.81789398,2022-11-27 12:19:43
Denny's,4760 East Cesar E Chavez Avenue,,Los Angeles,CA,90022,US,34.04033661,-118.16268921,2022-11-27 16:47:13
Denny's,2005 W Ave K,,Lancaster,CA,93536,US,34.67536545,-118.16609955,2022-11-26 13:18:46
Denny's,2727 Via Campo,,Montebello,CA,90640,US,34.03237152,-118.12624359,2022-11-27 16:47:13
Denny's,13136 Sherman Way,,North Hollywood,CA,91605,US,34.20094299,-118.41949463,2022-11-27 12:02:22
Denny's,530 Ramirez St,,Los Angeles,CA,90012,US,34.05450058,-118.23176575,2022-11-27 12:49:38
Denny's,18932 W. Soledad Canyon Rd,,Canyon Country,CA,91351,US,34.41533661,-118.46557617,2022-11-27 11:47:55
Denny's,6100 Sunset,,Hollywood,CA,90028,US,34.09782791,-118.32263184,2022-11-27 12:49:38
Denny's,8500 Van Nuys Blvd.,,Panorama City,CA,91402,US,34.22516251,-118.4485321,2022-11-27 12:02:22
Denny's,12861 Encinitas Ave,,Sylmar,CA,91342,US,34.30305481,-118.47824097,2022-11-27 11:47:55
Denny's,1150 So Seventh Ave.,,Hacienda Heights,CA,91745,US,34.01844025,-117.98819733,2022-11-27 13:18:53
Denny's,15553 Valley Blvd,,La Puente,CA,91744,US,34.02062988,-117.95874023,2022-11-27 12:19:43
Denny's,888 S Figueroa St,,Los Angeles,CA,90017,US,34.04706192,-118.26174927,2022-11-27 12:49:38
Denny's,1028 West Ave I,,Lancaster,CA,93534,US,34.70354843,-118.14915466,2022-11-24 13:24:01
Denny's,8600 E Whittier Blvd,,Pico Rivera,CA,90660,US,34.00295258,-118.08840942,2022-11-27 16:47:13
Denny's,5142 Triggs St,,City Of Commerce,CA,90022,US,34.01085281,-118.16205597,2022-11-27 16:47:13
Denny's,3750 Wilshire Blvd,,Los Angeles,CA,90010,US,34.06127167,-118.30802917,2022-11-27 12:49:38
Denny's,1 Flying J Way,,Rawlins,WY,82301,US,41.77848816,-107.31009674,2022-11-14 09:21:59
Denny's,261 Plainfield Road,,West Lebanon,NH,03784,US,43.62689972,-72.32318115,2022-11-25 00:58:21
Denny's,55 Jr Road,,Selma,NC,27576,US,35.51750565,-78.28723907,2022-11-25 05:11:08
Denny's,2806 Raleigh Rd Parkway W,,Wilson,NC,27893,US,35.73814774,-77.95339966,2022-11-25 05:11:08
Denny's,4380 Fayetteville Rd.,,Raleigh,NC,27603,US,35.72066498,-78.65441895,2022-11-25 08:31:28
Denny's,2655 E Grapevine Mills Circle,,Grapevine,TX,76051,US,32.96619415,-97.03844452,2022-11-27 13:04:23
Denny's,6480 North Frwy,,Fort Worth,TX,76137,US,32.8597374,-97.31324005,2022-11-27 13:04:23
Denny's,1015 Spur 350 West,,Euless,TX,76039,US,,,2022-11-27 13:04:23
Denny's,8000 S Interstate 35 E,,Corinth,TX,76210,US,33.13064575,-97.04142761,2022-11-27 00:38:12
Denny's,8120 Esters Blvd,,Irving,TX,75063,US,32.91806412,-97.00759125,2022-11-27 13:04:23
Denny's,2267 S Stemmons Freeway,,Lewisville,TX,75067,US,33.00821304,-96.97618103,2022-11-27 12:34:44
Denny's,4007 N. Interstate 35,,Denton,TX,76207,US,33.23210144,-97.17567444,2022-11-26 21:06:01
Denny's,3543 Jim Wright Freeway,,Lake Worth,TX,76135,US,32.81371689,-97.41031647,2022-11-27 13:04:23
Denny's,510 W LBJ Freeway,,Irving,TX,75063,US,32.9130249,-96.95380402,2022-11-27 13:04:23
Denny's,4115 West Airport,,Irving,TX,75062,US,32.83809662,-97.00826263,2022-11-27 13:47:09
Denny's,839 N. Watson Road,,Arlington,TX,76011,US,32.7567482,-97.06445312,2022-11-27 13:47:09
Denny's,2425 Walnut Hill Lane,,Dallas,TX,75229,US,32.88155746,-96.89687347,2022-11-27 13:47:09
Denny's,4400 South Freeway,,Fort Worth,TX,76115,US,32.68298721,-97.32138062,2022-11-27 14:06:41
Denny's,4567 Frankford Road,,Dallas,TX,75287,US,32.99804306,-96.83039856,2022-11-27 12:34:44
Denny's,3228 Se Loop 820,,Forest Hill,TX,76140,US,32.6608429,-97.27616119,2022-11-27 14:06:41
Denny's,4928 S. Cooper,,Arlington,TX,76017,US,32.66597366,-97.13475037,2022-11-27 14:06:41
Denny's,4601 S Hulen Rd,,Fort Worth,TX,76132,US,32.67988586,-97.39305878,2022-11-27 14:06:41
Denny's,4820 W Sublett Road,,Arlington,TX,76017,US,32.6456337,-97.18341827,2022-11-27 14:06:41
Denny's,1305 Preston Road,,Plano,TX,75093,US,33.0177269,-96.79602051,2022-11-27 12:34:44
Denny's,1716 E. 3rd St.,,Williamsport,PA,17701,US,41.25008392,-76.97162628,2022-11-27 00:08:56
Denny's,3950 Debarr Road,,Anchorage,AK,99508,US,61.20952988,-149.80674744,2022-11-25 08:30:36
Denny's,2350 West Oak St.  #100,,Palestine,TX,75801,US,31.74320793,-95.65589905,2022-11-25 02:22:04
Denny's,1702 S. Jackson St.,,Jacksonville,TX,75766,US,31.94574547,-95.25845337,2022-11-27 10:13:00
Denny's,1524 Dabney Dr,,Henderson,NC,27536,US,36.33407974,-78.43561554,2022-11-27 07:46:17
Denny's,1435 E 16th St.,,Yuma,AZ,85365,US,32.6979866,-114.6056366,2022-11-27 09:52:16
Denny's,11255 E. South Frontage Rd,,Yuma,AZ,85367,US,32.66953659,-114.44084167,2022-11-27 09:52:16
Denny's,1541 North Main Street,,San Luis,AZ,85349,US,32.50590897,-114.78601837,2022-11-14 20:37:08
Denny's,1420 SW H K Dodgen Loop,,Temple,TX,76504,US,31.07510376,-97.37065125,2022-11-27 03:37:11
Denny's,900 Crain Drive,,Conway,AR,72032,US,35.06773758,-92.41443634,2022-11-27 01:36:26
Denny's,1635 Glendale Ave.,,Hanford,CA,93230,US,36.32054138,-119.67192841,2022-11-27 10:54:47
Denny's,200 S Akers St,,Visalia,CA,93291,US,36.32823181,-119.34929657,2022-11-26 22:33:40
Denny's,27585 Bernard Drive,,Kettleman City,CA,93239,US,35.98777771,-119.96031952,2022-11-27 10:54:47
Denny's,2701 East Grand River Ave,,East Lansing,MI,48823,US,42.72542191,-84.45017242,2022-11-24 22:39:56
Denny's,7330 W. Saginaw Highway,,Lansing,MI,48917,US,42.74153137,-84.65840912,2022-11-24 22:39:56
Denny's,2580 Airport Way,,Boise,ID,83705,US,43.56972885,-116.21337891,2022-11-25 05:41:48
Denny's,3155 E. Fairview Avenue,,Meridian,ID,83642,US,43.61880493,-116.35674286,2022-11-25 05:41:48
Denny's,607 Northside Blvd,,Nampa,ID,83687,US,43.59844589,-116.57353973,2022-11-25 05:41:48
Denny's,309 Georgia Hwy 49 N,,Byron,GA,31008,US,32.66212845,-83.74140167,2022-11-25 08:31:18
Denny's,4 Interstate Drive,,Vandalia,IL,62471,US,38.97095871,-89.13572693,2022-11-14 20:07:40
Denny's,8409 Blanding Blvd.,,Jacksonville,FL,32244,US,30.19462585,-81.7385788,2022-11-26 23:31:47
Denny's,10445 Atlantic Blvd,,Jacksonville,FL,32225,US,30.32441711,-81.52888489,2022-11-26 23:31:47
Denny's,13874 Beach Blvd,,Jacksonville,FL,32224,US,30.28715324,-81.45105743,2022-11-26 23:31:47
Denny's,2455 State Road 16,,Saint Augustine,FL,32084,US,,,2022-11-27 06:03:37
Denny's,701 Mohawk St,,Herkimer,NY,13350,US,43.01852036,-74.99189758,2022-11-25 06:47:59
Denny's,180 N Genesee St,,Utica,NY,13501,US,,,2022-11-25 06:47:59
Denny's,25026 West Dorris Ave,,Coalinga,CA,93210,US,36.25559616,-120.24907684,2022-11-27 10:54:47
Denny's,3614 State St,,Santa Barbara,CA,93105,US,34.44070435,-119.74092102,2022-11-24 17:11:11
Denny's,1043 Jimmie Kerr Road,,Haw River,NC,27258,US,36.07190704,-79.35407257,2022-11-27 08:04:58
Denny's,1602 S State St,,Salina,UT,84654,US,38.93590927,-111.8554306,2022-11-14 19:03:26
Denny's,2560 Airport Rd,,Jackson,MI,49202,US,42.27067947,-84.45358276,2022-11-25 03:41:58
Denny's,1200 E. Main St.,,Barstow,CA,92311,US,34.89743042,-117.00962067,2022-11-24 16:16:08
Denny's,2611 Fisher Rd.,,Barstow,CA,92311,US,34.85450363,-117.08135986,2022-11-24 16:16:08
Denny's,2830 Lenwood Rd,,Barstow,CA,92311,US,34.85012817,-117.08359528,2022-11-24 16:16:08
Denny's,5609 Nittany Valley Drive,,Mill Hall,PA,17751,US,41.02880096,-77.5221405,2022-11-25 07:53:17
Denny's,3294 Gold Rd,,Kingdom City,MO,65262,US,38.94212341,-91.93950653,2022-11-25 13:27:30
Denny's,9601 I-40 East Exit 76,,Amarillo,TX,79111,US,35.19364548,-101.72353363,2022-11-24 12:31:16
Denny's,681 Newcastle Rd,,Newcastle,CA,95658,US,38.87100983,-121.13057709,2022-11-26 21:07:31
Denny's,122 Sunrise Ave.,,Roseville,CA,95661,US,38.7434845,-121.26728058,2022-11-27 10:12:58
Denny's,8841 Greenback Ln,,Orangevale,CA,95662,US,38.67885208,-121.22830963,2022-11-27 10:12:58
Denny's,5120 Interstate Ave,,Sacramento,CA,95842,US,38.66010666,-121.36253357,2022-11-27 10:12:58
Denny's,3520 Auburn Blvd.,,Sacramento,CA,95821,US,38.63729858,-121.38174438,2022-11-27 10:12:58
Denny's,2474 Sunrise Blvd,,Rancho Cordova,CA,95670,US,38.61452484,-121.27005768,2022-11-27 10:12:58
Denny's,4441 E Commerce Way,,Sacramento,CA,95834,US,38.65304184,-121.52632141,2022-11-27 10:12:58
Denny's,1322 Howe Ave.,,Sacramento,CA,95825,US,38.58974838,-121.41493988,2022-11-27 10:12:58
Denny's,630 Tenth St.,,Marysville,CA,95901,US,39.1453743,-121.59407806,2022-11-25 09:27:11
Denny's,300 Bercut Drive,,Sacramento,CA,95814,US,,,2022-11-27 10:12:58
Denny's,7900 College Town Dr.,,Sacramento,CA,95826,US,38.5550499,-121.41001892,2022-11-27 10:12:58
Denny's,3155 Ryan Dr SE,,Salem,OR,97301,US,44.92007065,-122.99699402,2022-11-27 00:54:21
Denny's,3680 Market St NE,,Salem,OR,97301,US,44.94985962,-122.98764038,2022-11-27 00:54:21
Denny's,3435 Spicer Road,,Albany,OR,97321,US,,,2022-11-25 03:12:37
Denny's,5104 N State Line,,Texarkana,AR,71854,US,33.4729805,-94.04222107,2022-11-21 09:28:02
Denny's,8300 State Highway 108,,Texarkana,AR,71854,US,33.51369858,-93.94810486,2022-11-21 09:28:02
Denny's,1888 US-82,,New Boston,TX,75570,US,33.46983337,-94.45426941,2022-11-21 09:28:02
Denny's,1209 Burkemount Avenue,,Morganton,NC,28655,US,35.71741104,-81.69437408,2022-11-24 14:12:04
Denny's,4437 13th Ave SW,,Fargo,ND,58103,US,46.86225891,-96.8612442,2022-11-24 21:29:55
Denny's,132 128 St SW,,Everett,WA,98204,US,47.88162994,-122.23606873,2022-11-27 11:28:42
Denny's,4109 196th Place,,Lynnwood,WA,98036,US,47.82135391,-122.28870392,2022-11-27 11:28:48
Denny's,8431 244th St. SW,,Edmonds,WA,98026,US,47.77841187,-122.34720612,2022-11-27 11:28:48
Denny's,760 NE Liberty Rd,,Poulsbo,WA,98370,US,47.74214935,-122.63925934,2022-11-27 11:28:48
Denny's,2202 State Rt 530 NE,,Arlington,WA,98223,US,48.18743134,-122.20048523,2022-11-26 22:07:27
Denny's,2762 4th Avenue S,,Seattle,WA,98134,US,47.57798386,-122.32870483,2022-11-27 11:28:48
Denny's,2020 Highway 172,,Sneads Ferry,NC,28460,US,34.54916763,-77.42948914,2022-11-25 13:44:13
Denny's,6591 THOMPSON ROAD,,SYRACUSE,NY,13206,US,43.08944321,-76.09272766,2022-11-27 02:06:14
Denny's,5315 W. Genessee St.,,Camillus,NY,13031,US,43.04065323,-76.27126312,2022-11-27 02:06:14
Denny's,103 Elwood Davis Road,,Syracuse,NY,13212,US,43.0935936,-76.17232513,2022-11-27 02:06:14
Denny's,7873 Brewerton Road,,Cicero,NY,13039,US,43.1506424,-76.1257782,2022-11-27 02:06:14
Denny's,1 River St,,Cortland,NY,13045,US,42.60642242,-76.16662598,2022-11-25 03:13:28
Denny's,1207 West Patrick St,,Frederick,MD,21701,US,39.40794373,-77.38907623,2022-11-26 23:31:56
Denny's,1151 Herndon Ave,,Clovis,CA,93612,US,36.8379097,-119.69654846,2022-11-26 22:33:36
Denny's,30 East Herndon Ave,,Fresno,CA,93720,US,36.83777618,-119.78951263,2022-11-26 22:33:36
Denny's,710 W Shaw Avenue,,Clovis,CA,93612,US,36.80799484,-119.72531128,2022-11-26 22:33:36
Denny's,1110 East Shaw St.,,Fresno,CA,93710,US,36.80895615,-119.76987457,2022-11-26 22:33:36
Denny's,1746 W. Shaw Ave,,Fresno,CA,93711,US,36.80862427,-119.82498169,2022-11-26 22:33:36
Denny's,3120 N Blackstone Ave,,Fresno,CA,93703,US,36.77923203,-119.79011536,2022-11-26 22:33:36
Denny's,40650 Hwy 41,,Oakhurst,CA,93644,US,37.33763885,-119.64518738,2022-11-14 20:07:17
Denny's,530 South Clovis Ave,,Fresno,CA,93727,US,36.73759079,-119.70046234,2022-11-26 22:33:36
Denny's,1121 N. Parkway Dr.,,Fresno,CA,93728,US,36.75671768,-119.83058167,2022-11-26 22:33:36
Denny's,141 Abby St.,,Fresno,CA,93701,US,36.74403763,-119.78969574,2022-11-26 22:33:36
Denny's,2568 S East Ave,,Fresno,CA,93706,US,36.70726776,-119.77298737,2022-11-26 22:33:36
Denny's,536 Academy Ave,,Sanger,CA,93657,US,36.70814514,-119.55567932,2022-11-26 22:33:36
Denny's,3900 28th Street  Se,,Kentwood,MI,49512,US,42.91205978,-85.57155609,2022-11-27 13:32:49
Denny's,3127 Plainfield NE,,Grand Rapids,MI,49505,US,43.01933289,-85.63778687,2022-11-27 13:32:49
Denny's,715 44th St Southwest,,Wyoming,MI,49509,US,42.88434982,-85.68205261,2022-11-27 13:32:49
Denny's,3400 Newberry Road,,North Platte,NE,69101,US,41.10147858,-100.72634125,2022-11-14 18:59:58
Denny's,30003 County Road 8,,Dunnigan,CA,95937,US,38.86192703,-121.95143127,2022-11-25 06:48:43
Denny's,39050 Bernard Court,,Woodland,CA,95695,US,38.70059586,-121.7829361,2022-11-27 10:12:58
Denny's,1568 E. Main St.,,Woodland,CA,95776,US,38.67681503,-121.74848175,2022-11-27 10:12:58
Denny's,126 Troy Rd,,East Greenbush,NY,12061,US,42.626091,-73.69989777,2022-11-25 09:27:19
Denny's,114 Wolf Road,,Albany,NY,12205,US,42.71794891,-73.80845642,2022-11-25 09:27:19
Denny's,720 N. Lexington Springmill Rd N,,Mansfield,OH,44906,US,40.77187347,-82.58995819,2022-11-26 21:07:00
Denny's,738 State Rt 250 E,,Ashland,OH,44805,US,,,2022-11-26 21:07:00
Denny's,1500 Ana Sparks Way,,Mckinleyville,CA,95519,US,40.93175125,-124.10136414,2022-11-25 00:29:27
Denny's,136 5th St,,Eureka,CA,95501,US,40.80126572,-124.16940308,2022-11-25 00:29:27
Denny's,5910 Veterans Memorial Blvd,,Metairie,LA,70003,US,30.00512505,-90.20614624,2022-11-27 01:05:41
Denny's,1020 Tanger Dr.,,Locust Grove,GA,30248,US,33.34923935,-84.12316895,2022-11-27 08:04:53
Denny's,115 Baker Ave,,Santa Rosa,CA,95407,US,38.42193985,-122.71435547,2022-11-27 01:26:33
Denny's,1000 W. Steele Lane,,Santa Rosa,CA,95403,US,38.45999908,-122.72915649,2022-11-27 01:26:33
Denny's,4986 Petaluma Blvd,,Petaluma,CA,94952,US,38.26900101,-122.67016602,2022-11-27 01:26:33
Denny's,2335 WEST 76 COUNTRY BLVD,,BRANSON,MO,65616,US,36.64176559,-93.26360321,2022-11-24 19:51:03
Denny's,1 Center Drive,,North East,MD,21901,US,39.62638474,-75.95065308,2022-11-26 23:06:32
Denny's,41 Heather Lane,,Perryville,MD,21903,US,39.58921814,-76.06591797,2022-11-26 22:07:28
Denny's,1803 Edgewood Rd,,Edgewood,MD,21040,US,39.45271683,-76.30563354,2022-11-27 08:18:14
Denny's,2438 Martin Luther King Blvd,,Panama City,FL,32405,US,30.19284821,-85.64935303,2022-11-25 07:52:12
Denny's,425 NE Hassalo St,,Portland,OR,97232,US,45.53095627,-122.66093445,2022-11-27 12:34:40
Denny's,10428 S E STARK ST,,PORTLAND,OR,97216,US,45.51875687,-122.55615234,2022-11-27 12:34:40
Denny's,12101 SE 82nd Ave,,Happy Valley,OR,97086,US,45.43560791,-122.57951355,2022-11-27 12:34:40
Denny's,11950 N. CENTER AVE,,PORTLAND,OR,97217,US,45.60963821,-122.68180847,2022-11-27 12:34:40
Denny's,1369 Se 1st Ave,,Canby,OR,97013,US,45.26712418,-122.6785965,2022-11-27 12:34:40
Denny's,800 Watt Rd,,Knoxville,TN,37932,US,35.88190079,-84.23525238,2022-11-26 21:32:28
Denny's,4760 S Campbell Avenue,,Springfield,MO,65807,US,,,2022-11-26 21:06:42
Denny's,2894 S. Oneida Street,,Green Bay,WI,54304,US,44.47076416,-88.07756042,2022-11-27 00:16:40
Denny's,3470 West College Avenue,,Appleton,WI,54914,US,44.26250839,-88.45817566,2022-11-27 00:16:40
Denny's,4240 LAKEVILLE ROAD,,GENESEO,NY,14454,US,42.79640198,-77.78926086,2022-11-25 13:26:27
Denny's,2890 W. Ridge Road,,Rochester,NY,14626,US,43.21084976,-77.7050705,2022-11-25 13:26:27
Denny's,364 W. Main St.,,Batavia,NY,14020,US,43.00480652,-78.20160675,2022-11-25 13:26:59
Denny's,10111 S Us 1,,Port Saint Lucie,FL,34952,US,27.27772522,-80.29292297,2022-11-25 13:27:17
Denny's,4102 W. Blue Heron Blvd,,Riviera Beach,FL,33404,US,26.78388786,-80.10070038,2022-11-26 13:19:16
Denny's,103 Sedgehill Dr,,Thomasville,NC,27360,US,35.86182022,-80.07326508,2022-11-25 13:26:44
Denny's,2226 NORTH MAIN ST.,,HUBBARD,OH,44425,US,41.18268585,-80.56929779,2022-11-27 06:18:37
Denny's,4020 Belmont Ave,,Youngstown,OH,44505,US,41.1537056,-80.66543579,2022-11-27 06:18:37
Denny's,7135 Nc #4,,Battleboro,NC,27809,US,36.06056976,-77.81573486,2022-11-27 07:46:17
Denny's,1450 Hartford Ave.,,Johnston,RI,02919,US,41.82393646,-71.5014267,2022-11-27 02:38:57
Denny's,444 Quaker Lane  #5,,Warwick,RI,02886,US,41.68460846,-71.50057983,2022-11-27 02:38:57
Denny's,1177 Reservoir Ave,,Cranston,RI,02920,US,41.76955414,-71.45539856,2022-11-27 02:38:57
Denny's,201 W Hwy I-30,,Royse City,TX,75189,US,32.96729279,-96.33383942,2022-11-27 09:25:19
Denny's,4175 Highway 21,,Brooklyn,IA,52211,US,41.69182205,-92.35701752,2022-11-19 22:27:23
Denny's,1630 W ARIZONA HIGHWAY 260,,CAMP VERDE,AZ,86322,US,34.5759964,-111.88148499,2022-11-24 11:38:19
Denny's,2211 State Route 89A,,Cottonwood,AZ,86326,US,34.72102356,-112.00077057,2022-11-24 11:38:19
Denny's,120 Haskell Rd,,Bangor,ME,04401,US,44.83235931,-68.7399292,2022-11-25 07:52:27
Denny's,1306 Del Prado Blvd,,Cape Coral,FL,33990,US,26.62817383,-81.94128418,2022-11-27 00:38:08
Denny's,9340 Marketplace Rd,,Fort Myers,FL,33912,US,26.54775238,-81.8004837,2022-11-27 00:38:08
Denny's,8031 Summerlin Center Road,,Fort Myers,FL,33907,US,26.5212307,-81.88787842,2022-11-27 00:38:08
Denny's,1250 Bladensburg Rd NE,,Washington,DC,20002,US,38.90677643,-76.97948456,2022-11-27 08:04:51
Denny's,4445 Benning Rd NE,,Washington,DC,20019,US,38.89056778,-76.93846893,2022-11-27 08:04:51
Denny's,5501 Leesburg Pike,,Falls Church,VA,22041,US,38.84703064,-77.12286377,2022-11-27 08:04:51
Denny's,8424 Baltimore Ave,,College Park,MD,20740,US,38.99401855,-76.9330368,2022-11-27 08:04:51
Denny's,7214 Richmond Hwy,,Alexandria,VA,22306,US,38.76028442,-77.08457947,2022-11-27 08:04:51
Denny's,10473 Lee Hwy,,Fairfax,VA,22030,US,38.85826492,-77.30645752,2022-11-27 08:04:51
Denny's,314 Washington Blvd,,Laurel,MD,20707,US,39.10151672,-76.8455658,2022-11-27 11:10:44
Denny's,2975 Crain Highway,,Waldorf,MD,20601,US,38.63031387,-76.907547,2022-11-27 08:04:51
Denny's,1365 Mellon Rd,,Hanover,MD,21076,US,39.16054916,-76.71188354,2022-11-27 11:10:44
Denny's,9020 Quaday Ave NE,,Otsego,MN,55330,US,45.28190231,-93.56356049,2022-11-27 08:45:50
Denny's,13450 Rogers Dr,,Rogers,MN,55374,US,45.19836807,-93.54978943,2022-11-27 08:45:50
Denny's,804 Old Us Highway 27 N,,Marshall,MI,49068,US,42.2912674,-84.96392059,2022-11-27 03:44:54
Denny's,15236 State Route 180,,Catlettsburg,KY,41129,US,38.36487198,-82.69656372,2022-11-27 03:20:55
Denny's,840 Cypress Parkway,,Poinciana,FL,34759,US,28.14603043,-81.45088959,2022-11-27 07:08:23
Denny's,35649 US Hwy 27 North,,Haines City,FL,33844,US,28.11828613,-81.63876343,2022-11-27 07:08:23
Denny's,2509 W. Vine Street,,Kissimmee,FL,34741,US,28.30496597,-81.42974091,2022-11-27 07:08:23
Denny's,2051 E. Irlo Bronson Memorial Hwy,,Kissimmee,FL,34744,US,28.29095268,-81.36032867,2022-11-27 07:08:23
Denny's,4541 Macey Ln,,Lake Wales,FL,33859,US,27.96455765,-81.62526703,2022-11-27 02:56:25
Denny's,44111 S US 27,,Davenport,FL,33837,US,28.23571396,-81.65106964,2022-11-27 07:08:23
Denny's,4783 W. Irlo Bronson Memorial Hwy,,Kissimmee,FL,34746,US,28.32979774,-81.47192383,2022-11-27 07:08:23
Denny's,5855 W. Irlo Bronson,,Kissimmee,FL,34746,US,28.33351898,-81.51828003,2022-11-27 07:08:23
Denny's,1515 E Osceola Parkway,,Kissimmee,FL,34744,US,28.34099388,-81.38382721,2022-11-27 07:08:23
Denny's,894 Cypress Garden,,Winter Haven,FL,33880,US,28.00363159,-81.71478271,2022-11-27 02:56:25
Denny's,7631 W IRLO BRONSON  HWY,,KISSIMMEE,FL,34747,US,28.33698654,-81.59218597,2022-11-27 07:08:23
Denny's,12375 St Rd 535,,Orlando,FL,32836,US,28.38505363,-81.50550079,2022-11-27 07:08:23
Denny's,11037 International Dr,,Orlando,FL,32821,US,28.40542984,-81.45539856,2022-11-27 07:08:23
Denny's,25 Town Center Blvd,,Clermont,FL,34711,US,28.34755135,-81.66365814,2022-11-27 07:08:23
Denny's,9880 International,,Orlando,FL,32819,US,28.42492485,-81.46232605,2022-11-27 07:08:23
Denny's,8747 International,,Orlando,FL,32819,US,28.43816757,-81.47091675,2022-11-27 07:08:23
Denny's,8243 S John Young Pkwy,,Orlando,FL,32819,US,28.44528961,-81.42675781,2022-11-27 07:08:23
Denny's,7660 International,,Orlando,FL,32819,US,28.45150375,-81.47124481,2022-11-27 07:08:23
Denny's,8076 S. Orange Ave.,,Orlando,FL,32809,US,28.45204353,-81.3645401,2022-11-27 07:08:23
Denny's,5825 International,,Orlando,FL,32819,US,28.46323967,-81.45968628,2022-11-27 07:08:23
Denny's,730 Shelburne Road,,South Burlington,VT,05403,US,44.44615555,-73.2088623,2022-11-25 00:28:32
Denny's,427 W Avenue I,,San Angelo,TX,76903,US,31.44820786,-100.44172668,2022-11-24 14:34:31
Denny's,1199 Loucks Rd,,York,PA,17404,US,39.97922134,-76.75769806,2022-11-27 08:32:47
Denny's,5505 Carlisle Pike,,Mechanicsburg,PA,17050,US,40.24063492,-76.9839325,2022-11-27 08:32:47
Denny's,21921 S. East Outer Road,,Peculiar,MO,64078,US,38.72166824,-94.45249176,2022-11-27 04:43:39
Denny's,1007 N. Main St.  #140,,Logan,UT,84341,US,41.75061417,-111.8348999,2022-11-24 17:58:47
Denny's,3901 Bataan Memorial Hwy West,,Las Cruces,NM,88012,US,32.37102509,-106.74267578,2022-11-25 02:21:55
Denny's,808 S Memorial Dr,,Greenville,NC,27834,US,35.60511398,-77.39653778,2022-11-24 21:29:54
Denny's,1620 Mcculloch Blvd N.,,Lake Havasu City,AZ,86403,US,34.47436142,-114.34312439,2022-11-14 19:51:58
Denny's,2919 Tom Tenant Drive,,Woodburn,OR,97071,US,45.15213013,-122.87787628,2022-11-27 12:34:38
Denny's,1071 Airport Road,,Jacksonville,FL,32218,US,30.48241615,-81.64627075,2022-11-26 23:31:47
Denny's,1222 Boone St,,Kingsland,GA,31548,US,30.78962517,-81.65711212,2022-11-24 18:50:35
Denny's,7805 150th St NW,,Apple Valley,MN,55124,US,44.73242569,-93.22360992,2022-11-27 08:45:50
Denny's,1458 South Robert Street,,West Saint Paul,MN,55118,US,44.90208817,-93.08029175,2022-11-27 08:45:50
Denny's,255 N Century Ave,,Maplewood,MN,55119,US,44.94979858,-92.98600006,2022-11-27 08:45:50
Denny's,1000 Gateway Blvd,,Hudson,WI,54016,US,44.95875549,-92.72263336,2022-11-26 22:18:15
Denny's,12950 Aldrich Ave S,,Burnsville,MN,55337,US,44.76867676,-93.29084015,2022-11-27 08:45:50
Denny's,815 E 78th St,,Bloomington,MN,55420,US,44.86119843,-93.26210022,2022-11-27 08:45:50
Denny's,1664 University Ave. W.,,Saint Paul,MN,55104,US,44.95529938,-93.17017365,2022-11-27 08:45:50
Denny's,3050 White Bear Ave,,Maplewood,MN,55109,US,45.03368378,-93.01690674,2022-11-27 08:45:50
Denny's,4209 W. American Blvd,,Bloomington,MN,55437,US,44.85667038,-93.33161163,2022-11-27 08:45:50
Denny's,1201 W Warm Springs Rd,,Henderson,NV,89014,US,36.05586243,-115.03788757,2022-11-27 16:47:09
Denny's,9320 S Eastern Ave,,Las Vegas,NV,89123,US,36.01983643,-115.11808777,2022-11-27 16:47:09
Denny's,5318 Boulder Highway,,Las Vegas,NV,89122,US,36.10612869,-115.05779266,2022-11-27 16:47:09
Denny's,9840 South Las Vegas Blvd,,Las Vegas,NV,89183,US,36.01125717,-115.17182922,2022-11-27 16:47:09
Denny's,2380 E Tropicana Ave,,Las Vegas,NV,89119,US,36.10041046,-115.11937714,2022-11-27 16:47:09
Denny's,7200 S Las Vegas Blvd,,Las Vegas,NV,89119,US,36.05935287,-115.16998291,2022-11-27 16:47:09
Denny's,310 N Nellis Blvd,,Las Vegas,NV,89110,US,36.16477203,-115.06167603,2022-11-27 16:47:09
Denny's,169 E Tropicana Avenue,,Las Vegas,NV,89109,US,36.10038757,-115.16527557,2022-11-27 16:47:09
Denny's,"5175 Blue Diamond Road, Ste 100-115",,Las Vegas,NV,89139,US,36.03056717,-115.21121979,2022-11-27 16:47:09
Denny's,3081 S. Maryland Park,,Las Vegas,NV,89109,US,36.13392258,-115.13730621,2022-11-27 16:47:09
Denny's,3771 S Las Vegas Blvd,,Las Vegas,NV,89109,US,36.1042099,-115.17217255,2022-11-27 16:47:09
Denny's,3397 S Las Vegas Blvd,,Las Vegas,NV,89109,US,36.12063217,-115.17181396,2022-11-27 16:47:09
Denny's,3001 S Las Vegas Blvd,,Las Vegas,NV,89109,US,36.13324356,-115.16339874,2022-11-27 16:47:09
Denny's,3881 W Flamingo Road,,Las Vegas,NV,89103,US,36.11510468,-115.19179535,2022-11-27 16:47:09
Denny's,1822 Las Vegas Blvd South,,Las Vegas,NV,89104,US,36.14965057,-115.15390778,2022-11-27 16:47:09
Denny's,5045 W Tropicana,,Las Vegas,NV,89103,US,36.1002121,-115.20991516,2022-11-27 16:47:09
Denny's,450 Fremont Street,,Las Vegas,NV,89101,US,36.17028046,-115.14109802,2022-11-27 16:47:09
Denny's,3010 W Sahara Ave.,,Las Vegas,NV,89102,US,36.14505005,-115.18262482,2022-11-27 16:47:09
Denny's,5678 South Rainbow Boulevard,,Las Vegas,NV,89118,US,36.08581924,-115.24240875,2022-11-27 16:47:09
Denny's,2310 East Lake Mead Blvd,,North Las Vegas,NV,89030,US,36.19612885,-115.11740875,2022-11-27 16:47:09
Denny's,3230 Losee Rd,,North Las Vegas,NV,89030,US,36.21828461,-115.12602234,2022-11-27 16:47:09
Denny's,6300 W Charleston #110,,Las Vegas,NV,89102,US,,,2022-11-27 16:47:09
Denny's,8000 W Sahara Ave,,Las Vegas,NV,89117,US,36.14427185,-115.26602936,2022-11-27 16:47:09
Denny's,7341 W Lake Mead Blvd,,Las Vegas,NV,89128,US,36.19562149,-115.25241852,2022-11-27 16:47:09
Denny's,4280 W Craig Rd,,North Las Vegas,NV,89031,US,,,2022-11-27 16:47:09
Denny's,5585 Simmons St,,Las Vegas,NV,89031,US,36.26115799,-115.18035126,2022-11-27 16:47:09
Denny's,420 E. Deer Springs Way,,North Las Vegas,NV,89084,US,36.28397751,-115.13567352,2022-11-27 16:47:09
Denny's,430 Clayton Rd,,Raton,NM,87740,US,36.8854332,-104.43490601,2022-11-14 19:03:07
Denny's,2117 Taney St,,Kansas City,MO,64116,US,39.14610672,-94.55856323,2022-11-27 10:13:15
Denny's,9001 Shawnee Mission Parkway,,Merriam,KS,66202,US,39.01375961,-94.69009399,2022-11-27 10:13:15
Denny's,6887 E Front St,,Kansas City,MO,64120,US,39.12970734,-94.5021286,2022-11-27 10:13:15
Denny's,10480 Metcalf,,Overland Park,KS,66212,US,38.93892288,-94.66828156,2022-11-27 10:13:15
Denny's,9930 W. 49th Ave.,,Wheat Ridge,CO,80033,US,39.7852211,-105.10874939,2022-11-26 23:22:24
Denny's,7201 Sheridan Boulevard,,Westminster,CO,80003,US,39.82794571,-105.05426025,2022-11-26 23:22:24
Denny's,3291 Youngfield Service Road,,Golden,CO,80401,US,39.76337051,-105.14429474,2022-11-26 23:22:24
Denny's,1605 NW Federal Blvd,,Denver,CO,80204,US,39.7430191,-105.02563477,2022-11-26 23:22:24
Denny's,565 Union Blvd.,,Lakewood,CO,80228,US,39.7240715,-105.13276672,2022-11-26 23:22:24
Denny's,900 West Alameda Ave.,,Denver,CO,80223,US,39.71079254,-104.99724579,2022-11-26 23:22:24
Denny's,350 East 104th Ave.,,Thornton,CO,80233,US,39.88466644,-104.9827652,2022-11-26 23:22:24
Denny's,3580 So Wadsworth,,Lakewood,CO,80235,US,39.65035248,-105.08072662,2022-11-26 23:22:24
Denny's,12090 E. 40th Ave.,,Denver,CO,80239,US,39.77269363,-104.84818268,2022-11-26 23:22:24
Denny's,1505 S Havana St,,Aurora,CO,80012,US,39.6889801,-104.8664093,2022-11-26 23:22:24
Denny's,14400 E 6th Ave,,Aurora,CO,80011,US,39.72526932,-104.82117462,2022-11-26 23:22:24
Denny's,16751 E 32nd Ave,,Aurora,CO,80011,US,39.76276779,-104.79281616,2022-11-26 23:22:24
Denny's,1164 Sargent Jon Stiles Drive,,Highlands Ranch,CO,80129,US,39.54837036,-105.00317383,2022-11-26 23:22:24
Denny's,1311 West Palmetto Park Rd,,Boca Raton,FL,33496,US,,,2022-11-27 01:17:00
Denny's,5000 N.federal Hwy,,Fort Lauderdale,FL,33308,US,26.18998146,-80.11423492,2022-11-27 01:17:00
Denny's,650 N. State Road #7,,Margate,FL,33063,US,26.23796654,-80.20440674,2022-11-27 01:17:00
Denny's,911 E Commercial Blvd,,Oakland Park,FL,33334,US,26.1891346,-80.13561249,2022-11-27 01:17:00
Denny's,3151 Nw 9th Ave,,Fort Lauderdale,FL,33309,US,26.1669693,-80.15497589,2022-11-27 01:17:00
Denny's,5710 University Drive,,Tamarac,FL,33321,US,26.19543076,-80.25151062,2022-11-27 01:17:00
Denny's,1727 North University Dr,,Plantation,FL,33322,US,26.14689064,-80.25765991,2022-11-27 01:17:00
Denny's,12100 W. Sunrise Blvd,,Plantation,FL,33323,US,26.14520454,-80.31023407,2022-11-27 01:17:00
Denny's,4541 Hypoluxo Road,,Lake Worth,FL,33463,US,26.57251549,-80.11431122,2022-11-27 01:17:00
Denny's,2541 N. 29th Avenue,,Hollywood,FL,33021,US,26.03427124,-80.16531372,2022-11-27 01:17:00
Denny's,5645 South University Dr.,,Davie,FL,33328,US,26.05020714,-80.25254059,2022-11-27 01:17:00
Denny's,404 S. State Rd 7,,Hollywood,FL,33023,US,26.00778389,-80.20795441,2022-11-27 01:17:00
Denny's,1290 N. University Dr.,,Pembroke Pines,FL,33024,US,26.01961327,-80.24899292,2022-11-27 01:17:00
Denny's,3000 S Congress Ave,,Palm Springs,FL,33461,US,26.63190842,-80.08815765,2022-11-26 13:19:18
Denny's,1025 W Hallandale Bch Blvd,,Hallandale Beach,FL,33009,US,25.98474312,-80.1628952,2022-11-27 01:17:00
Denny's,10800 Pines Blvd.  Suite #15,,Pembroke Pines,FL,33026,US,26.00723267,-80.29124451,2022-11-27 01:17:00
Denny's,2922 Brooks St,,Missoula,MT,59801,US,46.84361267,-114.02497864,2022-11-17 18:26:29
Denny's,836 N US 491,,Gallup,NM,87301,US,35.53388596,-108.75837708,2022-11-14 19:17:52
Denny's,3810 E Hwy 66,,Gallup,NM,87301,US,35.53109741,-108.66666412,2022-11-14 19:17:52
Denny's,1 Giant Crossing,,Jamestown,NM,87347,US,,,2022-11-14 19:03:19
Denny's,392 W Hwy 264,,Saint Michaels,AZ,86511,US,35.6591301,-109.11363983,2022-11-14 20:10:53
Denny's,2801 N. Grandview Boulevard,,Pewaukee,WI,53072,US,43.04291534,-88.25526428,2022-11-27 10:37:35
Denny's,11155 West North Avenue,,Wauwatosa,WI,53226,US,43.05929184,-88.05227661,2022-11-27 10:37:35
Denny's,4695 S. 108th St.,,Greenfield,WI,53228,US,42.95950699,-88.04870605,2022-11-27 10:37:35
Denny's,8850 University Drive,,Blaine,MN,55434,US,45.13090897,-93.26545715,2022-11-27 08:45:50
Denny's,3565 Northdale Blvd,,Coon Rapids,MN,55448,US,45.20780563,-93.35613251,2022-11-27 08:45:50
Denny's,2045 Twin Lakes Parkway,,Roseville,MN,55113,US,45.02297211,-93.18688965,2022-11-27 08:45:50
Denny's,6405 James Circle N,,Brooklyn Center,MN,55430,US,45.07120132,-93.30524445,2022-11-27 08:45:50
Denny's,900 N. Leavitt Avenue,,Amherst,OH,44001,US,41.41685867,-82.20956421,2022-11-25 01:31:29
Denny's,640 Tillotson St,,Elyria,OH,44035,US,41.40005112,-82.11361694,2022-11-26 21:06:58
Denny's,25912 Lorain Road,,North Olmsted,OH,44070,US,41.42118454,-81.90914917,2022-11-27 07:24:09
Denny's,4331 W. 150th Street,,Cleveland,OH,44135,US,41.43675613,-81.8006134,2022-11-27 07:24:09
Denny's,832 New Los Angeles Ave,,Moorpark,CA,93021,US,34.27974319,-118.86708832,2022-11-27 11:47:55
Denny's,327 South Palm Ave,,Santa Paula,CA,93060,US,34.34624481,-119.06894684,2022-11-27 07:23:54
Denny's,5197 E Los Angeles Avenue,,Simi Valley,CA,93063,US,34.27212906,-118.69198608,2022-11-27 11:47:55
Denny's,31724 Castaic Rd,,Castaic,CA,91384,US,34.4953537,-118.6211853,2022-11-27 11:47:55
Denny's,2830 CAMINO DEL RIOS,,NEWBURY PARK,CA,91320,US,34.18949127,-118.93651581,2022-11-27 07:23:54
Denny's,1659 East Daily Dr.,,Camarillo,CA,93010,US,34.2181282,-119.04814148,2022-11-27 07:23:54
Denny's,27541 Wayne Mills Place,,Valencia,CA,91355,US,34.42191315,-118.58158875,2022-11-27 11:47:55
Denny's,25341 Chiquella Dr.,,Stevenson Ranch,CA,91381,US,34.37837982,-118.56748199,2022-11-27 11:47:55
Denny's,1255 N Oxnard Blvd,,Oxnard,CA,93030,US,34.2141304,-119.17772675,2022-11-27 07:23:54
Denny's,4095 Telegraph Road,,Ventura,CA,93003,US,34.27458191,-119.23957062,2022-11-27 07:23:54
Denny's,9001 Tampa Ave.,,Northridge,CA,91324,US,34.23377991,-118.55400848,2022-11-27 11:47:55
Denny's,22027 Burbank Blvd.,,Woodland Hills,CA,91367,US,34.17232132,-118.60679626,2022-11-27 11:47:55
Denny's,17018 Devonshire St,,Northridge,CA,91325,US,34.25732422,-118.50307465,2022-11-27 11:47:55
Denny's,2511 N Ventura Rd,,Port Hueneme,CA,93041,US,34.1764183,-119.19606781,2022-11-27 07:23:54
Denny's,7600 Reseda Blvd,,Reseda,CA,91335,US,34.20870972,-118.53573608,2022-11-27 11:47:55
Denny's,1491 West Pacheco,,Los Banos,CA,93635,US,37.05636978,-120.87796021,2022-11-25 02:07:51
Denny's,2397 E. FRY BLVD,,SIERRA VISTA,AZ,85635,US,31.55499649,-110.2747345,2022-11-14 20:11:23
Denny's,975 S Main St,,Kernersville,NC,27284,US,36.10851669,-80.095047,2022-11-25 06:47:48
Denny's,501 Aultman Street,,Ely,NV,89301,US,39.24789429,-114.89261627,2022-11-14 19:04:02
Denny's,3512 Franklin Road,,Caldwell,ID,83605,US,43.66169739,-116.65487671,2022-11-25 05:41:48
Denny's,17400 N Hwy 20,,Canton,TX,75103,US,32.5806694,-95.85817719,2022-11-25 03:13:12
Denny's,3244 Gentry Pkwy,,Tyler,TX,75702,US,32.3794632,-95.33216858,2022-11-25 03:13:36
Denny's,63960 20th Ave.,,North Palm Springs,CA,92258,US,33.90669632,-116.5463562,2022-11-27 02:06:17
Denny's,73669-91 Twentynine Palms Hwy,,Twentynine Palms,CA,92277,US,34.13531113,-116.05500793,2022-11-14 19:55:44
Denny's,1201 N Palm Canyon Dr,,Palm Springs,CA,92262,US,33.83964539,-116.54709625,2022-11-27 02:06:17
Denny's,72244 Varner Rd,,Thousand Palms,CA,92276,US,33.81745148,-116.40133667,2022-11-25 00:28:30
Denny's,3600 Santa Ursula,,Laredo,TX,78041,US,27.53202629,-99.5036087,2022-11-26 22:18:09
Denny's,1011 Beltway Parkway,,Laredo,TX,78045,US,27.68544769,-99.46598816,2022-11-26 22:18:09
Denny's,5931 Alabama Highway,#157,Cullman,AL,35058,US,34.20640564,-86.87419128,2022-11-25 07:53:23
Denny's,4874 University Drive,,Huntsville,AL,35816,US,34.73818588,-86.65477753,2022-11-26 21:32:58
Denny's,825 S 48th St,,Tempe,AZ,85281,US,33.42090225,-111.97653961,2022-11-27 14:06:44
Denny's,1343 W. Broadway,,Tempe,AZ,85282,US,33.40710449,-111.9597702,2022-11-27 14:06:44
Denny's,1994 W Baseline Rd.,,Tempe,AZ,85283,US,33.37878418,-111.96895599,2022-11-27 14:06:44
Denny's,1015 West Main St,,Gun Barrel City,TX,75156,US,32.33042526,-96.13101196,2022-11-25 13:44:05
Denny's,2947 S 6th St,,Klamath Falls,OR,97603,US,42.20943832,-121.75243378,2022-11-20 03:18:38
Denny's,5534 Jimmy Carter Blvd,,Norcross,GA,30093,US,33.90950012,-84.2072525,2022-11-27 08:04:53
Denny's,434 Eastern Parkway,,Louisville,KY,40217,US,38.21141434,-85.75188446,2022-11-27 13:32:51
Denny's,1420 Hwy 96 North,,Fairview,TN,37062,US,36.02706146,-87.17171478,2022-11-27 05:52:20
Denny's,8484 Allegheny Road,,Corfu,NY,14036,US,43.00141907,-78.40707397,2022-11-26 21:06:29
Denny's,5699 Transit Road,,Lockport,NY,14094,US,43.14863968,-78.69625092,2022-11-26 21:06:29
Denny's,4471 White Mountain Rd,,Show Low,AZ,85901,US,34.20931244,-110.02307892,2022-11-14 19:04:43
Denny's,1142 ARSENAL ST,,WATERTOWN,NY,13601,US,43.97738647,-75.93997955,2022-11-27 08:58:55
Denny's,100 East Cedar Lane,,Fruitland,MD,21826,US,38.32728958,-75.61408997,2022-11-26 23:22:20
Denny's,405 Punkin Court,,Salisbury,MD,21804,US,38.36719513,-75.54039764,2022-11-26 23:22:20
Denny's,13019 Walton-Verona Rd,,Walton,KY,41094,US,38.85765457,-84.62649536,2022-11-26 13:18:22
Denny's,208 Madonna Rd.,,San Luis Obispo,CA,93405,US,35.26424026,-120.67672729,2022-11-26 21:06:22
Denny's,611 Five Cities Dr.,,Pismo Beach,CA,93449,US,35.13514709,-120.6213913,2022-11-26 21:06:22
Denny's,1019 East Main St.,,Santa Maria,CA,93454,US,34.95338821,-120.41902161,2022-11-26 21:06:22
Denny's,288 Resaca Beach Blvd,,Resaca,GA,30735,US,34.57653046,-84.94698334,2022-11-27 00:54:19
Denny's,315 S. Meridian Avenue,,Oklahoma City,OK,73108,US,35.46268082,-97.60165405,2022-11-27 11:10:37
Denny's,3030 South I-35 Service Rd.,,Oklahoma City,OK,73129,US,35.43461227,-97.48531342,2022-11-27 11:10:37
Denny's,1617 SW 74th Street,,Oklahoma City,OK,73159,US,35.39206696,-97.54669189,2022-11-27 11:10:37
Denny's,3130 South Douglas Blvd,,Oklahoma City,OK,73150,US,35.43355942,-97.36986542,2022-11-27 11:10:37
Denny's,350 W Harvard,,Roseburg,OR,97470,US,43.21303177,-123.3524704,2022-11-19 21:09:53
Denny's,685 Highway 80 East,,Pearl,MS,39208,US,32.27737808,-90.16043854,2022-11-27 01:26:37
Denny's,1701 WEST N TEMPLE ST,,SALT LAKE CITY,UT,84116,US,40.7711792,-111.93969727,2022-11-27 00:38:17
Denny's,2025 S 900 W,,Salt Lake City,UT,84104,US,40.72626114,-111.91599274,2022-11-27 00:38:17
Denny's,420 W 4500 S,,Murray,UT,84123,US,40.67479324,-111.90267944,2022-11-27 02:46:50
Denny's,401 W 7200 S,,Midvale,UT,84047,US,40.62029648,-111.90098572,2022-11-27 02:46:50
Denny's,7051 S 1300 E,,Midvale,UT,84047,US,40.62366104,-111.85515594,2022-11-27 02:46:50
Denny's,991 N 400 W,,Layton,UT,84041,US,41.0752449,-111.97605896,2022-11-25 08:30:41
Denny's,1605 East Saddleback Blvd,,Lake Point,UT,84074,US,40.68610764,-112.26712799,2022-11-27 00:38:17
Denny's,4029 Riverdale Rd.,,Riverdale,UT,84405,US,41.19145203,-111.98105621,2022-11-24 19:32:19
Denny's,642 West Charter Way,,Stockton,CA,95206,US,37.93667221,-121.29606628,2022-11-27 13:18:58
Denny's,4747 Pacific Ave.,,Stockton,CA,95207,US,37.99267197,-121.3136673,2022-11-27 13:18:58
Denny's,3950 Waterloo Rd,,Stockton,CA,95215,US,37.98574829,-121.247612,2022-11-27 13:18:58
Denny's,2670 W. March Lane,,Stockton,CA,95207,US,37.98433685,-121.34192657,2022-11-27 13:18:58
Denny's,5033 S Hwy 99 E Frontage Rd,,Stockton,CA,95215,US,37.90287399,-121.22114563,2022-11-27 13:18:58
Denny's,16851 Harlan Rd,,Lathrop,CA,95330,US,37.81011963,-121.29528046,2022-11-27 13:18:58
Denny's,701 E Kettleman Lane,,Lodi,CA,95240,US,38.11654282,-121.25920868,2022-11-27 13:18:58
Denny's,1135 S. Main St.,,Manteca,CA,95336,US,37.81301117,-121.21764374,2022-11-27 13:18:58
Denny's,15237 Thornton Road,,Lodi,CA,95242,US,38.1178894,-121.39459991,2022-11-27 13:18:58
Denny's,3718 N Tracy Blvd.,,Tracy,CA,95304,US,37.7636528,-121.43476105,2022-11-27 13:18:58
Denny's,1501 N Jack Tone Road,,Ripon,CA,95366,US,37.7560463,-121.14332581,2022-11-27 13:18:58
Denny's,1055 C St,,Galt,CA,95632,US,38.25340271,-121.29840088,2022-11-27 10:12:58
Denny's,4324 Salida Blvd,,Salida,CA,95368,US,37.70141983,-121.07462311,2022-11-27 13:18:58
Denny's,2052 W. Orangeburg St.,,Modesto,CA,95350,US,37.66614532,-121.03035736,2022-11-27 11:47:41
Denny's,24279 Rogers Clark Blvd,,Ruther Glen,VA,22546,US,37.93336487,-77.47264862,2022-11-27 09:25:09
Denny's,6598 W. Broad Street,,Richmond,VA,23230,US,37.60004425,-77.51398468,2022-11-27 09:25:09
Denny's,11161 Research Plaza Way,,Richmond,VA,23236,US,37.50502396,-77.60133362,2022-11-26 13:25:26
Denny's,650 Stagecoach Dr.,,Rock Springs,WY,82901,US,41.60902786,-109.23053741,2022-11-14 19:05:47
Denny's,2690 N Monroe St,,Tallahassee,FL,32303,US,30.47705269,-84.2987442,2022-11-25 08:30:37
Denny's,32670 Blue Star Hwy,,Midway,FL,32343,US,30.49290085,-84.42964935,2022-11-25 08:30:37
Denny's,351 N Green River Rd,,Evansville,IN,47715,US,37.97969437,-87.49212646,2022-11-27 08:04:56
Denny's,3901 HWY 41 N,,EVANSVILLE,IN,47711,US,38.01305008,-87.53862762,2022-11-27 08:04:56
Denny's,812 N. Conner Court,,Dale,IN,47523,US,38.18398666,-86.98550415,2022-11-25 02:44:17
Denny's,844 East 1250 S,,Haubstadt,IN,47639,US,38.17624664,-87.55148315,2022-11-27 08:04:56
Denny's,1989 South State Road 57,,Oakland City,IN,47660,US,38.32703018,-87.36998749,2022-11-27 08:04:56
Denny's,5212 Weston Rd,,Evansville,IN,47712,US,37.9768219,-87.63877106,2022-11-27 08:04:56
Denny's,1956 US Hwy 41 N,,Henderson,KY,42420,US,37.86340714,-87.57356262,2022-11-27 08:04:56
Denny's,1670 Schneidmiller Ave,,Post Falls,ID,83854,US,47.71175766,-116.92068481,2022-11-27 01:05:32
Denny's,2300 N 4th St,,Coeur D' Alene,ID,83814,US,47.69830322,-116.78031158,2022-11-26 13:18:13
Denny's,6 N Pines Rd,,Spokane,WA,99206,US,47.65757751,-117.23934174,2022-11-27 01:05:32
Denny's,2022 N Argonne Rd,,Spokane,WA,99212,US,47.67515945,-117.28170013,2022-11-27 01:05:32
Denny's,415 This Way St,,Lake Jackson,TX,77566,US,29.03911018,-95.45504761,2022-11-25 03:41:13
Denny's,2480 Citrus Blvd,,Leesburg,FL,34748,US,28.84309196,-81.89619446,2022-11-25 03:40:59
Denny's,16150 Us Hwy 441,,Eustis,FL,32726,US,28.82274437,-81.6890564,2022-11-26 22:33:28
Denny's,1577 Bella Cruz Dr,,The Villages,FL,32159,US,28.95314217,-81.95926666,2022-11-25 03:40:59
Denny's,351 E. Main St.,,Apopka,FL,32703,US,28.67356491,-81.50374603,2022-11-26 22:33:28
Denny's,1535 East South Street,,Globe,AZ,85501,US,33.39585495,-110.76912689,2022-11-14 19:53:08
Denny's,1515 Venture Way,,Montrose,CO,81401,US,38.45611954,-107.86561584,2022-11-20 05:38:03
Denny's,11820 Hickman Road,,Clive,IA,50325,US,41.6133461,-93.78102112,2022-11-27 07:46:03
Denny's,8001 W. Brown Deer Road,,Milwaukee,WI,53223,US,43.17731476,-88.0096283,2022-11-27 10:37:35
Denny's,3801 S 27th Street,,Milwaukee,WI,53221,US,42.9757309,-87.94885254,2022-11-27 10:37:35
Denny's,4925 S. Howell Avenue,,Milwaukee,WI,53207,US,42.95487595,-87.91036987,2022-11-27 10:37:35
Denny's,1815 E Expressway 83,,Penitas,TX,78576,US,26.24370384,-98.44127655,2022-11-27 09:10:57
Denny's,116 South Shary Rd,,Mission,TX,78572,US,26.20059395,-98.28810883,2022-11-27 09:10:57
Denny's,1110 So 10th St,,Mcallen,TX,78501,US,26.19296837,-98.2322998,2022-11-27 09:10:57
Denny's,401 E Nolana Ave,,Mcallen,TX,78504,US,26.23825455,-98.20991516,2022-11-27 09:10:57
Denny's,2301 West University Drive,,Edinburg,TX,78539,US,26.30572891,-98.1883316,2022-11-27 09:10:57
Denny's,4756 E US 83,,RIO GRANDE CITY,TX,78582,US,26.36359787,-98.79063416,2022-11-14 20:42:21
Denny's,1305 E MONTE CRISTO RD,,EDINBURG,TX,78542,US,26.33613205,-98.14303589,2022-11-27 09:10:57
Denny's,1601 E Interstate hwy 2,,San Juan,TX,78589,US,26.19223976,-98.13548279,2022-11-27 09:10:57
Denny's,1090 Wisconsin Dells Pkwy S,,Lake Delton,WI,53940,US,43.57658768,-89.77952576,2022-11-25 03:41:01
Denny's,600 Frontage Rd South,,Wisconsin Dells,WI,53965,US,43.62287521,-89.79426575,2022-11-25 03:41:01
Denny's,8111 Day Dr,,Parma,OH,44129,US,41.37994766,-81.74060059,2022-11-27 07:24:09
Denny's,6100 Rockside Rd.,,Independence,OH,44131,US,41.39523697,-81.64859772,2022-11-27 07:24:09
Denny's,3105 Medina Road,,Medina Township,OH,44256,US,41.13684464,-81.79876709,2022-11-26 21:33:18
Denny's,868 Ne Alsbury Blvd,,Burleson,TX,76028,US,32.56260681,-97.32066345,2022-11-27 14:06:41
Denny's,1415 Medical Dist. Dr,,Dallas,TX,75207,US,32.8080368,-96.83985901,2022-11-27 13:47:09
Denny's,2030 Market Ctr Blvd,,Dallas,TX,75207,US,32.79851151,-96.82447052,2022-11-27 13:47:09
Denny's,4400 N Central Expwy,,Dallas,TX,75206,US,32.81922531,-96.78679657,2022-11-27 13:47:09
Denny's,291 Pole Line Road,,Twin Falls,ID,83301,US,42.59225845,-114.47554016,2022-11-14 20:34:10
Denny's,1122 Buck Road,,Rossford,OH,43460,US,41.58727646,-83.56577301,2022-11-27 10:54:43
Denny's,6920 W. Central Ave.,,Toledo,OH,43615,US,,,2022-11-27 10:54:43
Denny's,26415 Warns Rd,,Perrysburg,OH,43551,US,41.53417969,-83.46033478,2022-11-27 10:54:43
Denny's,14240 US Highway 395,,Adelanto,CA,92301,US,34.5092926,-117.40009308,2022-11-26 22:33:14
Denny's,14244 Valley Center Dr,,Victorville,CA,92392,US,34.50949097,-117.32102966,2022-11-26 22:33:14
Denny's,13165 Main St,,Hesperia,CA,92345,US,34.42606735,-117.37638092,2022-11-26 22:33:14
Denny's,20242 Hwy 18,,Apple Valley,CA,92307,US,34.52732086,-117.22146606,2022-11-26 22:33:14
Denny's,18989 Bear Valley Road,,Apple Valley,CA,92308,US,34.46972275,-117.24952698,2022-11-26 22:33:14
Denny's,2728 N 6th St,,Vincennes,IN,47591,US,38.69266891,-87.49936676,2022-11-24 21:29:20
Denny's,2349 CENTER ROAD,,AUSTINBURG,OH,44010,US,41.78905106,-80.85578156,2022-11-27 09:52:21
Denny's,2207 N. Marine Blvd,,Jacksonville,NC,28546,US,34.78195953,-77.38730621,2022-11-25 13:44:13
Denny's,Joe's Truck Plaza  4415 Howard R,,Westley,CA,95387,US,37.53863907,-121.26380157,2022-11-27 11:47:41
Denny's,3020 W Jack London Blvd,,Livermore,CA,94551,US,37.69680023,-121.84540558,2022-11-27 12:02:17
Denny's,15001 Rogers Rd,,Patterson,CA,95363,US,37.46617889,-121.17630768,2022-11-27 11:47:41
Denny's,4823 Lone Tree Way,,Antioch,CA,94531,US,37.96319199,-121.76685333,2022-11-27 13:18:58
Denny's,1525 McHenry Ave.,,Modesto,CA,95350,US,37.66643524,-120.99485779,2022-11-27 11:47:41
Denny's,110 McHenry St.,,Modesto,CA,95354,US,37.64574432,-120.99344635,2022-11-27 11:47:41
Denny's,4125 South Beltline Road,,Balch Springs,TX,75180,US,32.70689392,-96.5855484,2022-11-27 13:47:09
Denny's,8233 East R.L. Thornton Frwy.,,Dallas,TX,75228,US,32.7947464,-96.69893646,2022-11-27 13:47:09
Denny's,114 Hwy 80,,Mesquite,TX,75149,US,32.78930664,-96.59415436,2022-11-27 13:47:09
Denny's,4004 Emporium Circle,,Mesquite,TX,75150,US,32.81166077,-96.62471771,2022-11-27 13:47:09
Denny's,457 W. Interstate 30,,Garland,TX,75043,US,32.8416748,-96.59358978,2022-11-27 13:47:09
Denny's,12733 Interstate 635,,Garland,TX,75041,US,32.86487198,-96.66088867,2022-11-27 13:47:09
Denny's,10433 N Central Expwy,,Dallas,TX,75231,US,32.8893013,-96.77051544,2022-11-27 13:47:09
Denny's,9009 Skillman Rd,,Dallas,TX,75243,US,32.89997482,-96.71875,2022-11-27 13:47:09
Denny's,13689 N. Central Exp.,,Dallas,TX,75243,US,32.93518829,-96.75331116,2022-11-27 12:34:44
Denny's,670 East Interstate 30,,Rockwall,TX,75032,US,32.8987236,-96.46705627,2022-11-27 12:34:44
Denny's,1102 FM 148,,Terrell,TX,75160,US,32.72299576,-96.31808472,2022-11-27 05:00:01
Denny's,2200 S Washington Street,,Kaufman,TX,75142,US,32.57440186,-96.31030273,2022-11-27 05:00:01
Denny's,801 South Ave,,Colonial Heights,VA,23834,US,37.24477386,-77.39199066,2022-11-26 22:49:47
Denny's,5111 Oaklawn Blvd,,Hopewell,VA,23860,US,37.2609787,-77.32666016,2022-11-26 22:49:47
Denny's,1100 Padre Blvd.,,South Padre Island,TX,78597,US,26.09304428,-97.16475677,2022-11-17 18:26:14
Denny's,I-35 N & Kyle Crossing,,Kyle,TX,78640,US,,,2022-11-26 23:45:59
Denny's,2320 S Interregional,,Austin,TX,78704,US,30.233181,-97.74253082,2022-11-26 23:45:59
Denny's,7619 E Ben White Boulevard,,Austin,TX,78741,US,30.21719933,-97.69177246,2022-11-26 23:45:59
Denny's,1601 IH35 N,,Austin,TX,78702,US,30.27666473,-97.72961426,2022-11-26 23:45:59
Denny's,7100 North I-35,,Austin,TX,78752,US,30.33249855,-97.70523834,2022-11-26 23:45:59
Denny's,13216 N IH-35 SVRD SB,,Austin,TX,78753,US,30.41683578,-97.67390442,2022-11-26 23:45:59
Denny's,1221 Honoapiilani Hwy,,Lahaina,HI,96761,US,20.88630486,-156.68423462,2022-11-14 20:43:13
Denny's,1630 Dual Highway,,Hagerstown,MD,21740,US,39.61751556,-77.69252777,2022-11-25 00:28:22
Denny's,1346 Old Freedom Rd,,Cranberry Township,PA,16066,US,40.68521881,-80.10196686,2022-11-26 21:50:18
Denny's,209 Tarentum Bridge Rd,,New Kensington,PA,15068,US,40.59103012,-79.75183868,2022-11-27 09:51:59
Denny's,3704 Fruitvale Blvd.,,Yakima,WA,98902,US,46.61996078,-120.559021,2022-11-25 02:08:10
Denny's,2603 Rudkin Rd,,Union Gap,WA,98903,US,46.56255722,-120.47463226,2022-11-25 02:08:10
Denny's,1830 North Central Expressway,,Plano,TX,75074,US,33.0258522,-96.708992,2022-11-27 12:34:44
Denny's,302 W. Fm 544,,Murphy,TX,75094,US,33.01096725,-96.61830902,2022-11-27 12:34:44
Denny's,155 N 1000 East St,,Saint George,UT,84770,US,37.11083603,-113.56240082,2022-11-21 07:10:13
Denny's,1215 S Main St,,Saint George,UT,84770,US,37.08746719,-113.58307648,2022-11-21 07:10:13
Denny's,1201 E Broadway,,Monona,WI,53716,US,43.04855728,-89.31161499,2022-11-27 01:05:30
Denny's,433 S. Gammon Road,,Madison,WI,53719,US,43.05826569,-89.50219727,2022-11-27 01:05:30
Denny's,1798 Thierer Road,,Madison,WI,53704,US,43.12314606,-89.31428528,2022-11-27 01:05:30
Denny's,3004 Cerrillos Rd,,Santa Fe,NM,87507,US,35.65421677,-105.99284363,2022-11-26 23:45:57
Denny's,1317 N. Riverside Dr,,Espanola,NM,87532,US,36.01072311,-106.06476593,2022-11-26 23:45:57
Denny's,581 South Highway 9,,Black Mountain,NC,28711,US,35.60940552,-82.31819153,2022-11-26 23:06:39
Denny's,2710 N Roosevelt Blvd,,Key West,FL,33040,US,24.56502914,-81.77289581,2022-11-14 19:08:09
Denny's,14962 Sand Canyon Ave,,Irvine,CA,92618,US,33.67630386,-117.75881958,2022-11-27 11:28:40
Denny's,23515 El Toro Rd,,Lake Forest,CA,92630,US,33.62013626,-117.70161438,2022-11-27 11:28:40
Denny's,24445 Alicia Parkway,,Mission Viejo,CA,92691,US,33.60714722,-117.69007111,2022-11-27 11:47:50
Denny's,1571 El Camino Real,,Tustin,CA,92780,US,33.73365784,-117.81369019,2022-11-27 11:28:40
Denny's,2530 S Bristol Street,,Santa Ana,CA,92704,US,33.71279907,-117.88573456,2022-11-27 16:47:13
Denny's,3170 Harbor Blvd,,Costa Mesa,CA,92626,US,33.68634415,-117.91905212,2022-11-27 16:47:13
Denny's,26712 Portola Parkway,,Foothill Ranch,CA,92610,US,33.67925262,-117.66439056,2022-11-27 11:47:50
Denny's,2314 E 17th St,,Santa Ana,CA,92701,US,33.75944519,-117.83323669,2022-11-27 11:28:40
Denny's,1501 W 17th St,,Santa Ana,CA,92706,US,33.76037979,-117.88865662,2022-11-27 16:47:13
Denny's,16205 Brookhurst St,,Fountain Valley,CA,92708,US,33.72742844,-117.95509338,2022-11-27 16:47:13
Denny's,13302 Harbor Blvd.,,Garden Grove,CA,92843,US,33.7695961,-117.92005157,2022-11-27 16:47:13
Denny's,18477 Beach Blvd,,Huntington Beach,CA,92648,US,33.69418335,-117.98965454,2022-11-27 16:47:13
Denny's,2005 E Katella Ave,,Anaheim,CA,92806,US,33.80382538,-117.88878632,2022-11-27 16:47:13
Denny's,2080 S Harbor Blvd,,Anaheim,CA,92802,US,33.79636765,-117.91461182,2022-11-27 16:47:13
Denny's,34242 Del Obispo,,Dana Point,CA,92629,US,33.46521378,-117.68700409,2022-11-27 11:28:40
Denny's,1610 S HARBOR BLVD,,ANAHEIM,CA,92802,US,33.80846024,-117.91495514,2022-11-27 16:47:13
Denny's,1168 W Katella Ave,,Anaheim,CA,92802,US,33.80280685,-117.92719269,2022-11-27 16:47:13
Denny's,1695 E Lincoln Ave,,Orange,CA,92865,US,33.83533859,-117.83660889,2022-11-27 13:18:53
Denny's,12924 Beach Blvd.,,Stanton,CA,90680,US,33.77446365,-117.99228668,2022-11-27 16:47:13
Denny's,210 S Euclid St,,Anaheim,CA,92802,US,33.83137894,-117.94120026,2022-11-27 16:47:13
Denny's,108 E Orangethorpe Ave,,Placentia,CA,92870,US,33.86199951,-117.87246704,2022-11-27 13:18:53
Denny's,529 Avenida Pico,,San Clemente,CA,92672,US,33.43876266,-117.62360382,2022-11-27 11:47:50
Denny's,22611 Oak Crest Circle,,Yorba Linda,CA,92887,US,33.872612,-117.74410248,2022-11-27 11:28:40
Denny's,1375 S HARBOR BLVD,,FULLERTON,CA,92832,US,33.85838699,-117.9261322,2022-11-27 16:47:13
Denny's,2920 E Nutwood Ave,,Fullerton,CA,92831,US,33.87759018,-117.8790741,2022-11-27 16:47:13
Denny's,2940 Westminster Ave,,Seal Beach,CA,90740,US,33.75929642,-118.0797348,2022-11-27 16:47:13
Denny's,7740 Orangethorpe,,Buena Park,CA,90621,US,33.85866165,-117.9984436,2022-11-27 16:47:13
Denny's,1833 W 6th St,,Corona,CA,92882,US,33.87996292,-117.60182953,2022-11-27 16:47:07
Denny's,2379 Compton Ave,,Corona,CA,92881,US,33.8431015,-117.53730011,2022-11-27 16:47:07
Denny's,5570 Pacific Coast Highway,,Long Beach,CA,90804,US,33.7759552,-118.1239624,2022-11-27 16:47:13
Denny's,11605 Carson St.,,Lakewood,CA,90715,US,33.83165359,-118.08612061,2022-11-27 16:47:13
Denny's,1150 S Beach Blvd,,La Habra,CA,90631,US,33.91798019,-117.96741486,2022-11-27 16:47:13
Denny's,2860 N Bellflower Blvd,,Long Beach,CA,90815,US,33.80798721,-118.12494659,2022-11-27 16:47:13
Denny's,1360 N Hamner Ave,,Norco,CA,92860,US,33.90164948,-117.56274414,2022-11-27 16:47:07
Denny's,16907 S Pioneer Blvd,,Artesia,CA,90701,US,33.87721252,-118.0828476,2022-11-27 16:47:13
Denny's,15459 Fairfield Ranch Rd,,Chino Hills,CA,91710,US,33.97149658,-117.68981934,2022-11-27 16:47:07
Denny's,5520 South Street,,Lakewood,CA,90713,US,33.8600502,-118.12429047,2022-11-27 16:47:13
Denny's,601 N Long Beach Blvd,,Long Beach,CA,90802,US,33.77441406,-118.18975067,2022-11-27 16:47:13
Denny's,4010 24TH AVENUE,,FORT GRATIOT,MI,48059,US,43.0254364,-82.45542908,2022-11-24 10:19:08
Denny's,521 Auburn Way S,,Auburn,WA,98002,US,47.30228043,-122.22633362,2022-11-27 11:47:38
Denny's,1246 North Central Ave.,,Kent,WA,98032,US,47.39715958,-122.22734833,2022-11-27 11:47:38
Denny's,18623 Pacific Hwy South,,Seatac,WA,98188,US,47.4356842,-122.29628754,2022-11-27 11:47:38
Denny's,17206 Pacific Hwy,,Seatac,WA,98188,US,47.44859695,-122.29631042,2022-11-27 11:47:38
Denny's,14821 First Ave. South,,Seattle,WA,98168,US,47.46986771,-122.33421326,2022-11-27 11:47:38
Denny's,20805 State Route 410 E,,Bonney Lake,WA,98391,US,47.16766739,-122.1520462,2022-11-27 11:47:38
Denny's,9351 Canal Rd,,Gulfport,MS,39503,US,30.42104721,-89.13817596,2022-11-25 04:09:39
Denny's,7541 Washington Avenue,,Ocean Springs,MS,39564,US,30.45129585,-88.84278107,2022-11-25 00:57:31
Denny's,8201 Sudley Rd,,Manassas,VA,20109,US,38.77793884,-77.5063858,2022-11-27 07:45:50
Denny's,7071 W Craig Rd  #101,,Las Vegas,NV,89129,US,36.23819351,-115.24859619,2022-11-27 16:47:09
Denny's,1407 W Hudson Blvd,,Litchfield,IL,62056,US,39.17525482,-89.67156982,2022-11-27 11:28:55
Denny's,3602 S. Rangeline Road,,Joplin,MO,64804,US,37.04914856,-94.47955322,2022-11-27 09:25:16
Denny's,11570 Hwy Ff,,Joplin,MO,64804,US,37.05556488,-94.42958832,2022-11-27 09:25:16
Denny's,3001 Lusk Drive,,Neosho,MO,64850,US,36.84049988,-94.39312744,2022-11-25 07:52:42
Denny's,6305 Joshua Palmer Way,,Banning,CA,92220,US,33.92778397,-116.94589996,2022-11-27 16:47:15
Denny's,1184 Calimesa Blvd,,Calimesa,CA,92320,US,33.99510193,-117.05899811,2022-11-27 16:47:15
Denny's,1290 North State St,,San Jacinto,CA,92583,US,33.80452347,-116.97262573,2022-11-27 16:47:15
Denny's,2675 W Florida Ave,,Hemet,CA,92545,US,33.74706268,-117.00001526,2022-11-27 16:47:15
Denny's,24952 Sunnymead Blvd,,Riverside,CA,92553,US,33.93938828,-117.22841644,2022-11-27 16:47:15
Denny's,110 W REDLANDS BLVD,,REDLANDS,CA,92373,US,34.0575943,-117.18380737,2022-11-27 16:47:15
Denny's,1180 Alabama St.,,Redlands,CA,92374,US,34.06814575,-117.20804596,2022-11-27 16:47:15
Denny's,570 E 4th St,,Perris,CA,92570,US,33.78268051,-117.21691895,2022-11-27 16:47:15
Denny's,2442 Highland Avenue,,Highland,CA,92346,US,34.13615036,-117.23413086,2022-11-27 16:47:15
Denny's,1190 S. Mt. Vernon,,Colton,CA,92324,US,34.04877853,-117.30859375,2022-11-27 16:47:15
Denny's,1245 University Ave.,,Riverside,CA,92507,US,33.97605133,-117.33874512,2022-11-27 16:47:15
Denny's,41196 Big Bear Blvd,,Big Bear,CA,92315,US,34.24379349,-116.90336609,2022-11-27 16:47:15
Denny's,702 E Highland Ave,,San Bernardino,CA,92404,US,34.13613892,-117.27219391,2022-11-27 16:47:15
Denny's,160 West Valley Blvd.,,Colton,CA,92324,US,34.06669617,-117.32532501,2022-11-27 16:47:15
Denny's,3530 Madison St,,Riverside,CA,92504,US,33.93691254,-117.40637207,2022-11-27 16:47:15
Denny's,7112 I-10 West,,Orange,TX,77632,US,30.11667061,-93.81988525,2022-11-27 06:03:46
Denny's,607 Texas Ave,,College Station,TX,77840,US,30.62753105,-96.33306885,2022-11-25 13:44:12
Denny's,2890 Harvey Mitchell Parkway,,Bryan,TX,77807,US,30.72540283,-96.4256897,2022-11-25 13:44:12
Denny's,531 HWY 128,,WILSON,WI,54027,US,44.9348793,-92.19564819,2022-11-25 03:12:49
Denny's,1827 N. Broadway St,,Menomonie,WI,54751,US,44.9038353,-91.93307495,2022-11-27 11:29:00
Denny's,14010 FM 2920,,Tomball,TX,77375,US,,,2022-11-27 11:47:44
Denny's,6111 FM 1488,,MAGNOLIA,TX,77354,US,30.22318077,-95.56065369,2022-11-27 11:47:44
Denny's,26050 Highway 290,,Cypress,TX,77429,US,29.97309113,-95.69528198,2022-11-27 11:47:44
Denny's,6504 FM 2920,,Spring,TX,77379,US,30.07453537,-95.52323914,2022-11-27 11:47:44
Denny's,7720 Louetta Rd,,Spring,TX,77379,US,30.0176506,-95.53076172,2022-11-27 11:47:44
Denny's,15295 Highway 105 W Suite 100,,Montgomery,TX,77316,US,30.35811806,-95.595047,2022-11-27 11:47:44
Denny's,28669 I-45 North,,Shenandoah,TX,77381,US,30.17906761,-95.45313263,2022-11-27 11:47:44
Denny's,13031 Fm 1960 W,,Houston,TX,77065,US,29.91785622,-95.61225128,2022-11-27 11:47:44
Denny's,12697 Gessner Rd,,Houston,TX,77064,US,29.95555496,-95.54605103,2022-11-27 11:47:44
Denny's,1760  FARM TO MARKET 1960 RD WEST,,HOUSTON,TX,77090,US,30.01147461,-95.45672607,2022-11-27 11:47:44
Denny's,2243 Stoneside Rd,,Conroe,TX,77303,US,30.33769226,-95.47871399,2022-11-27 11:47:44
Denny's,4999 Hwy 6 N,,Houston,TX,77084,US,29.84981728,-95.64644623,2022-11-27 11:47:44
Denny's,1579 N Fry Road,,Katy,TX,77449,US,29.78953552,-95.71946716,2022-11-27 11:28:51
Denny's,204 S Waller,,Brookshire,TX,77423,US,29.7800827,-95.95228577,2022-11-26 22:49:38
Denny's,2405 Texmati Dr,,Katy,TX,77494,US,29.78215981,-95.80980682,2022-11-27 11:28:51
Denny's,6920 S. Fry Road,,Katy,TX,77494,US,29.71572685,-95.77664948,2022-11-27 11:28:51
Denny's,900 Tyson Road,,Hope Hull,AL,36043,US,32.19415283,-86.41966248,2022-11-26 22:07:32
Denny's,11710 IH 35,,Jarrell,TX,76537,US,30.81128883,-97.61146545,2022-11-27 03:37:11
Denny's,1108 S. Fort Hood Rd,,Killeen,TX,76541,US,31.11008453,-97.74663544,2022-11-27 03:37:11
Denny's,5004 Kitsap Way,,Bremerton,WA,98312,US,47.57011032,-122.6828537,2022-11-27 11:28:48
Denny's,12862 NW Freeway,,Houston,TX,77040,US,29.84392357,-95.49507141,2022-11-27 12:02:15
Denny's,11099 NW Frwy,,Houston,TX,77092,US,29.81915092,-95.46984863,2022-11-27 12:02:15
Denny's,2120 N. Loop West,,Houston,TX,77018,US,29.81021118,-95.43999481,2022-11-27 12:02:15
Denny's,9766-B Katy Frwy,,Houston,TX,77055,US,29.78570175,-95.53515625,2022-11-27 12:02:15
Denny's,925 N Wilcrest,,Houston,TX,77079,US,29.78282356,-95.57601929,2022-11-27 12:02:15
Denny's,7300 Washington Ave,,Houston,TX,77007,US,29.77832031,-95.42917633,2022-11-27 12:02:15
Denny's,1058 US 59 S,,Carthage,TX,75633,US,32.12987518,-94.3330307,2022-11-14 19:15:28
Denny's,4015 Frederick Blvd,,Saint Joseph,MO,64506,US,39.77741623,-94.79547119,2022-11-26 23:06:56
Denny's,2316 SOUTHMORE BLVD,,HOUSTON,TX,77004,US,29.72124672,-95.37620544,2022-11-27 12:02:15
Denny's,8401 Westheimer Rd - Suite 190,Suite 190,Houston,TX,77063,US,29.73684883,-95.51493835,2022-11-27 12:02:15
Denny's,6060 Hillcroft St,,Houston,TX,77081,US,29.7147541,-95.49790192,2022-11-27 12:02:15
Denny's,8020 Niagara Falls Blvd,,Niagara Falls,NY,14304,US,43.0896759,-78.97238922,2022-11-26 21:50:24
Denny's,3920 Maple Road,,Amherst,NY,14226,US,42.99132156,-78.81767273,2022-11-26 21:50:24
Denny's,2215 Delaware Ave.,,Buffalo,NY,14216,US,42.94440079,-78.86774445,2022-11-26 21:50:24
Denny's,4610 Genesee St.,,Cheektowaga,NY,14225,US,42.93520737,-78.71526337,2022-11-26 21:50:24
Denny's,255 N 1100 West,,Cedar City,UT,84720,US,,,2022-11-20 00:50:57
Denny's,1804 Highway 46,,Wasco,CA,93280,US,35.60200119,-119.34608459,2022-11-24 18:20:31
Denny's,I-5 Hwy 46,,Lost Hills,CA,93249,US,,,2022-11-20 00:53:52
Denny's,8710 Rosedale Hwy,,Bakersfield,CA,93312,US,35.38393784,-119.09894562,2022-11-25 03:40:50
Denny's,35175 7th Standard Road,,Bakersfield,CA,93308,US,35.44101715,-119.0753479,2022-11-25 03:40:50
Denny's,4440 Gosford Rd,,Bakersfield,CA,93311,US,,,2022-11-25 03:40:50
Denny's,1172 W 2100 SOUTH,,WEST HAVEN,UT,84401,US,41.23102951,-112.00841522,2022-11-24 19:32:19
Denny's,1250 Washington Blvd,,Ogden,UT,84404,US,41.24317932,-111.96949005,2022-11-24 19:32:19
Denny's,669 SCENIC VIEW RD,,PAGE,AZ,86040,US,36.9233284,-111.47264862,2022-11-14 19:16:31
Denny's,Indian Route 7,,Chinle,AZ,86503,US,36.15642166,-109.56370544,2022-11-14 19:16:43
Denny's,69050 Hwy 111,,Cathedral City,CA,92234,US,33.77789307,-116.45659637,2022-11-27 02:06:17
Denny's,82120 Hwy 111,,Indio,CA,92201,US,33.71502686,-116.23300934,2022-11-25 00:28:30
Denny's,16189 S Sunshine Blvd,,Eloy,AZ,85131,US,32.73251724,-111.5493927,2022-11-25 03:40:44
Denny's,2615 N. Stallings Dr.,,Nacogdoches,TX,75964,US,31.65211868,-94.67876434,2022-11-27 09:25:14
Denny's,4610 Broadway St,,Mt. Vernon,IL,62864,US,38.31269836,-88.96104431,2022-11-19 23:40:56
Denny's,347 BROADWAY ST,,SEARCHLIGHT,NV,89046,US,35.4656601,-114.91915131,2022-11-14 19:17:20
Denny's,2020 South Casino Drive,,Laughlin,NV,89029,US,35.16020584,-114.57148743,2022-11-25 09:27:09
Denny's,1307 N Keller Dr,,Effingham,IL,62401,US,39.1395874,-88.56723022,2022-11-25 07:14:36
Denny's,212 FM 518,,Kemah,TX,77565,US,29.53713608,-95.02092743,2022-11-27 12:02:15
Denny's,2735 Bay Area Blvd,,Houston,TX,77058,US,29.57830238,-95.10703278,2022-11-27 12:02:15
Denny's,19212 Gulf Fwy,,Friendswood,TX,77546,US,29.54279709,-95.14499664,2022-11-27 12:02:15
Denny's,2940 Gulf Freeway,,League City,TX,77573,US,29.46793747,-95.09098053,2022-11-27 12:02:15
Denny's,1201 Hwy 146 N,,Texas City,TX,77590,US,29.39441299,-94.952034,2022-11-27 07:46:10
Denny's,11221 Broadway Blvd,,Pearland,TX,77581,US,,,2022-11-27 12:02:15
Denny's,3332 S Loop W,,Houston,TX,77025,US,29.67852211,-95.42905426,2022-11-27 12:02:15
Denny's,1050 Mt. Vernon Ave.,,Marion,OH,43302,US,40.58106613,-83.10345459,2022-11-25 08:30:30
Denny's,7735 State Rd Rt 37,,Berkshire,OH,43074,US,40.26769257,-82.92480469,2022-11-27 07:46:04
Denny's,2801 U.S. 287,,Corsicana,TX,75110,US,32.0761528,-96.44638824,2022-11-25 13:44:05
Denny's,1803 Marina Blvd,,San Leandro,CA,94577,US,37.70892334,-122.16950226,2022-11-27 12:02:17
Denny's,601 Hegenberger Rd,,Oakland,CA,94621,US,37.74528885,-122.19693756,2022-11-27 12:02:17
Denny's,15015 Freedom Ave,,San Leandro,CA,94578,US,37.70862961,-122.12405396,2022-11-27 12:02:17
Denny's,25010 Hesperian Blvd,,Hayward,CA,94545,US,37.64476013,-122.10488129,2022-11-27 12:02:17
Denny's,30163 Industrial,,Hayward,CA,94544,US,37.60808563,-122.06595612,2022-11-27 12:02:17
Denny's,1776 Powell Street,,Emeryville,CA,94608,US,37.83854675,-122.29580688,2022-11-27 12:02:17
Denny's,2920 S. Norfolk,,San Mateo,CA,94403,US,37.54549789,-122.28530121,2022-11-27 09:52:25
Denny's,816 Mission St,,San Francisco,CA,94103,US,37.78436279,-122.40512848,2022-11-27 12:02:17
Denny's,10 Airport Blvd,,South San Francisco,CA,94080,US,37.65015793,-122.40790558,2022-11-27 12:02:17
Denny's,5331 Hopyard Road,,Pleasanton,CA,94588,US,37.69998169,-121.90477753,2022-11-27 12:02:17
Denny's,5280 Mowry Ave,,Fremont,CA,94538,US,37.53345871,-122.00019836,2022-11-27 09:52:25
Denny's,11344 San Pablo Ave,,El Cerrito,CA,94530,US,37.92127228,-122.31506348,2022-11-27 12:02:17
Denny's,1201 Broadway,,Redwood City,CA,94063,US,37.48671341,-122.2146759,2022-11-27 09:52:25
Denny's,1313 Willow Pass Rd,,Concord,CA,94520,US,37.96905518,-122.05225372,2022-11-27 12:02:17
Denny's,2526 SAN PABLO DAM ROAD,,SAN PABLO,CA,94806,US,37.95515442,-122.33019257,2022-11-27 12:02:17
Denny's,612 Contra Costa Blvd.,,Pleasant Hill,CA,94523,US,37.97460938,-122.06485748,2022-11-27 12:02:17
Denny's,814 Ahwanee Ave,,Sunnyvale,CA,94085,US,37.39616013,-122.02777863,2022-11-27 09:52:25
Denny's,333 S. Abbott,,Milpitas,CA,95035,US,37.42557526,-121.91416168,2022-11-27 09:52:25
Denny's,1 Camp Branch Rd.,,Warrenton,MO,63383,US,38.83956909,-91.22798157,2022-11-27 12:49:43
Denny's,1419 Martin Springs Rd.,,Rolla,MO,65401,US,37.94188309,-91.79380035,2022-11-26 21:06:10
Denny's,1555 East F St,,Oakdale,CA,95361,US,37.77299881,-120.82943726,2022-11-27 11:47:41
Denny's,1303 Armour Road,,Bourbonnais,IL,60914,US,41.16318512,-87.85192108,2022-11-25 04:41:01
Denny's,3231 East 181st Street,,Hebron,IN,46341,US,41.28731537,-87.29386139,2022-11-27 02:46:45
Denny's,611 N. Overland Ave.,,Burley,ID,83318,US,42.56251144,-113.79154205,2022-11-14 19:18:25
Denny's,3703 West Gate City Blvd.,,Greensboro,NC,27407,US,36.0390892,-79.85118866,2022-11-25 03:12:26
Denny's,1875 EMILIO LOPEZ LOOP NW,,LOS LUNAS,NM,87031,US,34.81440735,-106.75788116,2022-11-26 23:22:14
Denny's,7319 McKnight Rd,,Pittsburgh,PA,15237,US,40.53847504,-80.01195526,2022-11-27 09:51:59
Denny's,2180 Greentree Rd,,Pittsburgh,PA,15220,US,40.39125443,-80.07342529,2022-11-27 09:51:59
Denny's,3801 West Silver Springs Blvd.,,Ocala,FL,34482,US,29.1870842,-82.18601227,2022-11-27 07:46:12
Denny's,5201 Granite Lane,,Sioux Falls,SD,57107,US,43.60295868,-96.76763916,2022-11-24 17:34:56
Denny's,2608 Hilltop Dr.,,Redding,CA,96002,US,40.57006836,-122.35919189,2022-11-21 09:56:13
Denny's,542 E Cypress St,,Redding,CA,96002,US,40.57148361,-122.36162567,2022-11-21 09:56:13
Denny's,48 Antelope Blvd,,Red Bluff,CA,96080,US,40.17918015,-122.22930908,2022-11-19 22:25:08
Denny's,1601 Martinsburg Pike,,Winchester,VA,22603,US,39.21719742,-78.13983154,2022-11-25 00:57:59
Denny's,1530 Rest Church Rd,,Clear Brook,VA,22624,US,39.29019928,-78.08686829,2022-11-24 21:30:05
Denny's,592 Kirby Lane,,Spanish Fork,UT,84660,US,40.12424469,-111.64421082,2022-11-27 02:46:50
Denny's,1460 N 1750 W,,Springville,UT,84663,US,40.18749237,-111.64095306,2022-11-27 02:46:50
Denny's,1597 S Main St,,Nephi,UT,84648,US,39.68563843,-111.83642578,2022-11-17 18:28:57
Denny's,1680 N 200 W ST,,PROVO,UT,84601,US,,,2022-11-27 02:46:50
Denny's,485 N State St,,Orem,UT,84057,US,40.30632019,-111.69948578,2022-11-27 02:46:50
Denny's,2875 W Highway 70,,Thatcher,AZ,85552,US,32.84721756,-109.74745178,2022-11-25 06:48:14
Denny's,5325 Jefferson Davis Hwy.,,Fredericksburg,VA,22408,US,38.24420929,-77.49965668,2022-11-27 09:25:09
Denny's,1445 Ocotillo Drive,,El Centro,CA,92243,US,32.7762146,-115.56899261,2022-11-14 20:35:50
Denny's,3403 DOGWOOD RD.,,EL CENTRO,CA,92243,US,32.76316452,-115.53443909,2022-11-14 20:35:50
Denny's,2265 Hwy 395 S,,Hermiston,OR,97838,US,45.81850052,-119.26206207,2022-11-14 20:39:51
Denny's,19780 NW 27th Avenue,,Miami Gardens,FL,33056,US,25.95361328,-80.24642944,2022-11-27 01:17:00
Denny's,18600 NW 67th Ave,,Miami Lakes,FL,33015,US,25.94271851,-80.30895233,2022-11-27 01:17:00
Denny's,1000 W 49th St,,Hialeah,FL,33012,US,25.86632729,-80.30369568,2022-11-26 22:18:26
Denny's,1450 Miami Gardens Dr Ne,,North Miami,FL,33179,US,25.94448471,-80.17194366,2022-11-27 01:17:00
Denny's,12105 Biscayne Blvd,,North Miami,FL,33181,US,25.88796616,-80.16386414,2022-11-27 01:17:00
Denny's,11701 Okeechobee Rd,,Hialeah Gardens,FL,33018,US,25.8805294,-80.35673523,2022-11-26 22:18:26
Denny's,3600 Biscayne Blvd,,Miami,FL,33137,US,25.81089211,-80.18974304,2022-11-26 21:50:41
Denny's,5825 NW 36th St,,Miami,FL,33166,US,25.80784607,-80.29196167,2022-11-26 21:50:41
Denny's,7411 NW 36th St,,Miami,FL,33166,US,25.8098278,-80.31775665,2022-11-26 21:50:41
Denny's,7140 Collins Avenue,,Miami Beach,FL,33141,US,25.85698509,-80.12081146,2022-11-26 21:50:41
Denny's,11350 NW 41st St,,Miami,FL,33178,US,25.81123161,-80.3806839,2022-11-26 21:50:41
Denny's,1 Miracle Mile,,Coral Gables,FL,33134,US,25.75003433,-80.25527954,2022-11-26 21:50:41
Denny's,8503 Sw 40th St,,Miami,FL,33155,US,25.73362732,-80.33377838,2022-11-26 21:50:41
Denny's,1150 South Dixie Highway,,Coral Gables,FL,33146,US,25.71568108,-80.27507019,2022-11-26 21:50:41
Denny's,3850 SW 137th Ave,,Miami,FL,33175,US,25.73158264,-80.41643524,2022-11-26 21:50:41
Denny's,12000 North Kendall Dr,,Miami,FL,33196,US,,,2022-11-26 21:50:41
Denny's,15235 SW 137th Ave,,Miami,FL,33177,US,25.62521744,-80.41304779,2022-11-26 21:50:41
Denny's,19313 So Dixie Hgwy,,Miami,FL,33157,US,25.58841705,-80.35938263,2022-11-26 21:50:41
Denny's,1337 N Wenatchee Ave,,Wenatchee,WA,98801,US,47.44185257,-120.32513428,2022-11-24 20:36:33
Denny's,17 W 660 22nd Street,,Oakbrook Terrace,IL,60181,US,41.84720993,-87.96824646,2022-11-27 09:52:01
Denny's,2447 Mannheim Road,,Franklin Park,IL,60131,US,41.92419434,-87.88399506,2022-11-27 09:52:01
Denny's,4824 No. River Road,,Schiller Park,IL,60176,US,41.96691895,-87.86212921,2022-11-27 09:52:01
Denny's,711 N Harlem Avenue,,Oak Park,IL,60302,US,41.89343262,-87.80472565,2022-11-27 09:52:01
Denny's,363 S. Schmale Road,,Carol Stream,IL,60188,US,41.89349365,-88.10295868,2022-11-27 09:52:08
Denny's,4609 N. Harlem Avenue,,Norridge,IL,60706,US,41.96431351,-87.80685425,2022-11-27 09:52:01
Denny's,7737 S. Kingery Hwy,,Willowbrook,IL,60527,US,41.74824142,-87.94338226,2022-11-27 09:52:01
Denny's,17 W Algonquin Rd,,Arlington Heights,IL,60005,US,42.04415131,-87.98414612,2022-11-27 09:52:08
Denny's,1086 EAST LAKE ST,,HANOVER PARK,IL,60133,US,41.978302,-88.13420105,2022-11-27 09:52:08
Denny's,1175 North Roselle Road,,Hoffman Estates,IL,60169,US,42.04843521,-88.07913971,2022-11-27 09:52:08
Denny's,7627 W. 95th Street,,Hickory Hills,IL,60457,US,41.71842957,-87.809021,2022-11-27 09:52:02
Denny's,126 East North Frontage Rd.,,Bolingbrook,IL,60440,US,41.68712997,-88.06687164,2022-11-27 09:52:02
Denny's,9217 S. Cicero Ave,,Oak Lawn,IL,60453,US,41.72506714,-87.74053955,2022-11-27 09:52:02
Denny's,4330 Fox Valley,,Aurora,IL,60504,US,41.76132202,-88.20963287,2022-11-27 09:52:01
Denny's,975 E. Dundee Road,,Palatine,IL,60074,US,42.13875961,-88.02038574,2022-11-27 09:52:08
Denny's,4690 Hoffman Blvd,,Hoffman Estates,IL,60192,US,42.06960297,-88.19398499,2022-11-27 09:52:08
Denny's,412 S Lincolnway,,North Aurora,IL,60542,US,41.7908287,-88.32289886,2022-11-27 09:52:02
Denny's,2063 Skokie Valley,,Highland Park,IL,60035,US,42.1905365,-87.82601166,2022-11-27 09:52:08
Denny's,"1120 South Randall Road, Unit 102",Unit 102,Elgin,IL,60123,US,42.00391769,-88.33691406,2022-11-27 09:52:08
Denny's,200 Springhill Dr,,Carpentersville,IL,60110,US,42.10611725,-88.29324341,2022-11-27 09:52:08
Denny's,2531 Plainfield Road,,Joliet,IL,60435,US,41.57150269,-88.14933014,2022-11-27 00:09:02
Denny's,19099 S Old Lagrange Rd,,Mokena,IL,60448,US,41.5434494,-87.84828186,2022-11-27 02:46:45
Denny's,3715 EL CAMINO REAL,,SANTA CLARA,CA,95051,US,37.35264587,-121.99824524,2022-11-27 09:52:25
Denny's,1745 El Camino Real,,Santa Clara,CA,95050,US,37.35268784,-121.95684052,2022-11-27 09:52:25
Denny's,910 Saratoga Ave,,San Jose,CA,95129,US,37.31038284,-121.97698212,2022-11-27 09:52:25
Denny's,2077 N 1st St,,San Jose,CA,95131,US,37.37348557,-121.91902924,2022-11-27 09:52:25
Denny's,1490 N 1st St,,San Jose,CA,95112,US,37.36328506,-121.91047668,2022-11-27 09:52:25
Denny's,702 W Town Center Blvd.,,Champaign,IL,61822,US,40.14315796,-88.254776,2022-11-26 22:18:19
Denny's,815 Hwy 24 W,,Gilman,IL,60938,US,40.75082397,-88.00126648,2022-11-14 19:20:23
Denny's,2160 N Walnut St,,Bloomington,IN,47408,US,,,2022-11-25 03:13:11
Denny's,1035 James Ave,,Bedford,IN,47421,US,38.86638641,-86.51918793,2022-11-24 23:14:37
Denny's,255 Centereach Mall,,Centereach,NY,11720,US,40.85898972,-73.08300018,2022-11-27 04:24:09
Denny's,1100 E Plumb Lane,,Reno,NV,89502,US,39.50569153,-119.78561401,2022-11-27 13:18:54
Denny's,680 N. Wells Ave.,,Reno,NV,89512,US,39.53587341,-119.80277252,2022-11-27 13:18:54
Denny's,205 Nugget Ave.,,Sparks,NV,89431,US,39.52681351,-119.74088287,2022-11-27 13:18:54
Denny's,2299 N. Carson St.,,Carson City,NV,89706,US,39.18142319,-119.76708221,2022-11-27 13:18:54
Denny's,8425 San Ysidro Ave,,Gilroy,CA,95020,US,37.02336502,-121.56555939,2022-11-25 06:48:59
Denny's,12820 St. Hwy 33,,Gustine,CA,95322,US,37.10318375,-121.01528931,2022-11-25 02:07:51
Denny's,2005 N Main Street,,Salinas,CA,93906,US,36.72194672,-121.6566925,2022-11-25 02:43:35
Denny's,1255 De La Torre,,Salinas,CA,93905,US,36.65994263,-121.6214447,2022-11-25 13:26:50
Denny's,18750 Herndon / Oak Grove Rd,,Oak Grove,KY,42262,US,36.69728088,-87.45458221,2022-11-26 22:33:21
Denny's,2951 State Hwy 36 South,,Brenham,TX,77833,US,30.13806343,-96.39485931,2022-11-27 10:37:31
Denny's,800 John Long Rd,,Oakland,OR,97462,US,43.53948212,-123.28875732,2022-11-19 21:09:53
Denny's,322 S Frontage Road I-95,,New London,CT,06320,US,41.36859512,-72.11846161,2022-11-25 07:53:05
Denny's,1493 Us Hwy 74-a Bypass,,Spindale,NC,28160,US,35.34164429,-81.91210175,2022-11-24 14:34:17
Denny's,10480 Baltimore Rd SW,,Millersport,OH,43046,US,39.9430809,-82.59905243,2022-11-27 07:46:04
Denny's,9935 State Route 41,,Jeffersonville,OH,43128,US,39.64619446,-83.53871155,2022-11-27 03:52:00
Denny's,312 S Beeline Hwy,,Payson,AZ,85541,US,34.23675537,-111.32347107,2022-11-14 19:22:02
Denny's,4390 US Highway 27,,Sebring,FL,33870,US,27.52384758,-81.49769592,2022-11-20 02:04:20
Denny's,8493 Ocean Gateway,,Easton,MD,21601,US,38.78217697,-76.05944824,2022-11-27 09:25:13
Denny's,131 Vfw Avenue,,Grasonville,MD,21638,US,38.96252823,-76.20690918,2022-11-27 09:25:13
Denny's,781 Sunburst Highway,,Cambridge,MD,21613,US,38.55818176,-76.06129456,2022-11-26 23:06:54
Denny's,240 S. Nevada Hwy. 160,,Pahrump,NV,89048,US,36.21649933,-115.99360657,2022-11-14 19:48:31
Denny's,3040 NE Loop 286,,Paris,TX,75460,US,33.67272568,-95.52002716,2022-11-14 19:48:39
Denny's,2006 Somersville Rd,,Antioch,CA,94509,US,38.00330353,-121.83899689,2022-11-27 13:18:58
Denny's,2484 Berryessa Rd,,San Jose,CA,95133,US,37.38569641,-121.8608551,2022-11-27 09:52:25
Denny's,4380 S Nashville Rd,,Franklin,KY,42134,US,36.66265869,-86.55354309,2022-11-25 03:13:01
Denny's,418 W. Heron St,,Aberdeen,WA,98520,US,46.97138977,-123.82173157,2022-11-25 09:28:51
Denny's,1284 Boston Road,,Springfield,MA,01119,US,42.14088058,-72.50120544,2022-11-27 01:05:34
Denny's,2173 Northampton St,,Holyoke,MA,01040,US,42.18786621,-72.63057709,2022-11-27 01:05:34
Denny's,539 Flatbush Ave,,Hartford,CT,06106,US,41.74195099,-72.71366119,2022-11-27 02:38:52
Denny's,2115 E 16th Ave,,Cordele,GA,31015,US,31.95965195,-83.74797058,2022-11-24 16:17:18
Denny's,1225 5th St,,Crescent City,CA,95531,US,41.75540543,-124.19521332,2022-11-14 19:58:47
Denny's,1286 St Georges Ave,,Avenel,NJ,07001,US,40.58272552,-74.29276276,2022-11-27 07:24:11
Denny's,752 Hwy #18,,East Brunswick,NJ,08816,US,40.42548752,-74.37936401,2022-11-27 01:52:42
Denny's,805 Pennsylvania Ave,,Brooklyn,NY,11207,US,40.65818787,-73.88985443,2022-11-27 07:24:11
Denny's,8710 Northern Blvd,,Jackson Heights,NY,11372,US,40.75585556,-73.88049316,2022-11-27 09:24:56
Denny's,100 East College Way,,Mount Vernon,WA,98273,US,48.43547821,-122.33943939,2022-11-26 22:07:27
Denny's,3204 N. US Hwy 98,,Lakeland,FL,33805,US,28.08216286,-81.96774292,2022-11-27 02:56:25
Denny's,4325 S Florida Ave,,Lakeland,FL,33813,US,27.98648834,-81.95738983,2022-11-27 02:56:25
Denny's,2001 S Frontage Rd,,Plant City,FL,33566,US,,,2022-11-26 23:46:17
Denny's,11261 W Colonial Dr,,Ocoee,FL,34761,US,28.55211258,-81.54659271,2022-11-27 07:08:23
Denny's,1011 N Mountain St,,Blacksburg,SC,29702,US,35.14225388,-81.50994873,2022-11-27 09:52:13
Denny's,2025 E Dixon Blvd,,Shelby,NC,28150,US,35.26698685,-81.48097992,2022-11-27 09:52:13
Denny's,3701 Bee Ridge Rd,,Sarasota,FL,34233,US,27.29921722,-82.49375916,2022-11-27 11:47:48
Denny's,610 44th Ave W,,Bradenton,FL,34207,US,27.46269226,-82.56848145,2022-11-27 11:47:48
Denny's,3747 Sun City Center Blvd,,Ruskin,FL,33573,US,27.71142006,-82.37597656,2022-11-27 11:47:48
Denny's,901 N Main St,,Fort Bragg,CA,95437,US,39.45212936,-123.80626678,2022-11-25 06:22:11
Denny's,2701 S Broadway,,Minot,ND,58701,US,48.20572662,-101.29517365,2022-11-14 19:50:03
Denny's,876 W Donlon St,,Blythe,CA,92225,US,33.60630417,-114.60626221,2022-11-14 19:57:42
Denny's,101 N. 1200th East,,Lehi,UT,84043,US,40.38945007,-111.82736969,2022-11-27 02:46:50
Denny's,1516 N Redwood Rd,,Saratoga Springs,UT,84045,US,40.38963318,-111.9160614,2022-11-27 02:46:50
Denny's,34 Gusabel Avenue,,Nashua,NH,03063,US,42.76515198,-71.49436951,2022-11-26 23:57:11
Denny's,38 Commercial Rd,,Leominster,MA,01453,US,42.53406143,-71.74175262,2022-11-26 23:57:11
Denny's,640 East Lincoln Highway,,Langhorne,PA,19047,US,40.16404724,-74.90465546,2022-11-27 01:52:42
Denny's,221 US Hwy 130,,Bordentown,NJ,08505,US,40.1438942,-74.70159149,2022-11-27 01:52:42
Denny's,600 Scott Ave,,Farmington,NM,87401,US,36.72982788,-108.19030762,2022-11-25 00:29:20
Denny's,176 NW Centurion Court,,Lake City,FL,32055,US,30.18063736,-82.69145203,2022-11-25 00:58:23
Denny's,343 Civic Road,,Lasalle,IL,61301,US,41.36905289,-89.0977478,2022-11-24 16:41:53
Denny's,1750 Cedar Street,,Fremont,OH,43420,US,41.364254,-83.13464355,2022-11-25 09:28:36
Denny's,878 Munson Ave,,Traverse City,MI,49686,US,44.74935532,-85.56118011,2022-11-21 10:23:22
Denny's,3019 Olentangy River Road,,Columbus,OH,43202,US,40.02199173,-83.02575684,2022-11-27 07:46:04
Denny's,2604 Island Ave,,La Grande,OR,97850,US,45.33196259,-118.06987762,2022-11-14 19:52:05
Denny's,5114 N. Lovington Highway,,Hobbs,NM,88240,US,32.75810623,-103.17758179,2022-11-14 20:41:13
Denny's,361 Us Route 7 South,,Rutland,VT,05701,US,43.58504486,-72.96757507,2022-11-25 05:10:22
Denny's,300 Highway 71 West,,Bastrop,TX,78602,US,30.1046505,-97.3298645,2022-11-25 08:30:44
Denny's,900 East County Line Road,,Ridgeland,MS,39157,US,32.40023422,-90.13995361,2022-11-27 01:26:37
Denny's,500 Ed Noble Parkway,,Norman,OK,73072,US,35.21294022,-97.48578644,2022-11-27 11:10:37
Denny's,675 Manzanita Court,,Chico,CA,95926,US,39.7527771,-121.84446716,2022-11-21 11:46:30
Denny's,2470 Oro Dam Blvd,,Oroville,CA,95966,US,39.50609589,-121.54730225,2022-11-25 09:27:11
Denny's,2120 South Avenue,,Corning,CA,96021,US,39.90765381,-122.19641876,2022-11-21 11:46:30
Denny's,435 W Bandera St,,Boerne,TX,78006,US,29.77965355,-98.73526764,2022-11-27 00:47:19
Denny's,5725 Tg Lee Blvd,,Orlando,FL,32822,US,28.46082306,-81.30918121,2022-11-27 07:08:23
Denny's,440 S Semoran Blvd,,Orlando,FL,32807,US,28.53736115,-81.31095123,2022-11-27 07:08:23
Denny's,11915 E Colonial Dr,,Orlando,FL,32825,US,,,2022-11-27 07:08:23
Denny's,2931 US HWY 77,,CORPUS CHRISTI,TX,78410,US,27.85477257,-97.63105011,2022-11-27 13:47:07
Denny's,1670 U S Highway 181 Frontage Rd.,,Portland,TX,78374,US,27.88823891,-97.31230927,2022-11-27 13:47:07
Denny's,5165 Interstate 37,,Corpus Christi,TX,78408,US,27.80301094,-97.45239258,2022-11-27 13:47:07
Denny's,825 N OCOTILLO RD,,BENSON,AZ,85602,US,31.98065567,-110.30749512,2022-11-14 19:53:41
Denny's,9220 S. Houghton Road,,Tucson,AZ,85747,US,32.08499908,-110.77341461,2022-11-25 06:21:12
Denny's,411 Route 211 East,,Middletown,NY,10940,US,41.45622253,-74.38710785,2022-11-25 06:48:06
Denny's,1615 N Central Expressway,,Mckinney,TX,75070,US,33.2135582,-96.63811493,2022-11-27 09:25:19
Denny's,4310 Yellowstone Ave,,Chubbuck,ID,83202,US,42.91172028,-112.46591187,2022-11-27 05:05:42
Denny's,151 Well Road,,West Monroe,LA,71291,US,32.51416016,-92.19143677,2022-11-25 06:49:01
Denny's,401 Se 1st Avenue,,Florida City,FL,33034,US,25.44349289,-80.4744873,2022-11-24 21:03:44
Denny's,97630 Overseas Hwy,,Key Largo,FL,33037,US,25.07507324,-80.46187592,2022-11-19 21:12:13
Denny's,22717 Ave 18 1/2,,Madera,CA,93637,US,37.01892471,-120.13321686,2022-11-21 14:04:33
Denny's,220 Park Hills Plaza,,Altoona,PA,16602,US,40.46958542,-78.40634918,2022-11-25 09:26:58
Denny's,1601 Sycamore Ave,,Atwater,CA,95301,US,37.34606552,-120.61366272,2022-11-27 04:24:11
Denny's,1128 W 13th St,,Merced,CA,95341,US,37.30056,-120.49571991,2022-11-27 04:24:11
Denny's,1991 Lander Ave,,Turlock,CA,95380,US,37.47489929,-120.84962463,2022-11-27 04:24:11
Denny's,666 Camino Del Rio,,Durango,CO,81301,US,37.2714119,-107.88381958,2022-11-14 20:11:00
Denny's,255 E. Altamonte Dr.,,Altamonte Springs,FL,32701,US,28.66247177,-81.38394165,2022-11-27 07:08:23
Denny's,2684 Lee Road,,Winter Park,FL,32789,US,28.60542297,-81.38541412,2022-11-27 07:08:23
Denny's,3771 Orlando Dr,,Sanford,FL,32773,US,28.75805283,-81.28578949,2022-11-26 22:33:28
Denny's,1012 Saxon Blvd,,Orange City,FL,32763,US,28.91065216,-81.28476715,2022-11-26 23:06:48
Denny's,4903 N Harrison,,Shawnee,OK,74801,US,,,2022-11-24 23:14:16
Denny's,801 Sierra,,Kingsburg,CA,93631,US,36.5183754,-119.56066132,2022-11-27 10:54:47
Denny's,2763 Highland Ave,,Selma,CA,93662,US,36.57366943,-119.62924957,2022-11-27 10:54:47
Denny's,160 N 10th Street,,Fowler,CA,93625,US,36.62744904,-119.68426514,2022-11-27 10:54:47
Denny's,4834 North Broadway Street,,Knoxville,TN,37918,US,36.02669525,-83.92684937,2022-11-27 02:16:27
Denny's,4918 S Padre Island Dr,,Corpus Christi,TX,78411,US,27.713974,-97.38134766,2022-11-27 13:47:07
Denny's,2097 W. Highway 40,,Vernal,UT,84078,US,40.43638992,-109.56822205,2022-11-24 20:36:22
Denny's,121 North 129 East Ave,,Tulsa,OK,74116,US,36.16181946,-95.83194733,2022-11-27 16:47:16
Denny's,286 17th Avenue NW,,Rochester,MN,55901,US,44.02641678,-92.48671722,2022-11-24 14:33:39
Denny's,1226 S. Broadway,,Rochester,MN,55904,US,44.00541306,-92.46268463,2022-11-24 14:33:39
Denny's,1301 W. Brandon Blvd,,Brandon,FL,33511,US,27.93715858,-82.30246735,2022-11-26 23:46:17
Denny's,5603 E. Hillsborough,,Tampa,FL,33610,US,27.99575996,-82.3923645,2022-11-27 02:56:23
Denny's,1700 E. Fowler Ave.,,Tampa,FL,33612,US,28.05497742,-82.44036102,2022-11-27 02:56:23
Denny's,2004 N Dale Mabry Hwy,,Tampa,FL,33607,US,27.9598732,-82.50627899,2022-11-27 02:56:23
Denny's,5975 N Palm Ave,,San Bernardino,CA,92407,US,34.18933105,-117.36190033,2022-11-27 16:47:15
Denny's,1377 W Foothill Blvd,,Rialto,CA,92376,US,34.10639572,-117.39813232,2022-11-27 16:47:15
Denny's,17009-A Valley Blvd.,,Fontana,CA,92335,US,34.07000351,-117.43321991,2022-11-27 16:47:15
Denny's,13479 Baseline Ave,,Fontana,CA,92336,US,34.12091446,-117.51183319,2022-11-27 16:47:07
Denny's,6875 Valley Way,,Rubidoux,CA,92509,US,34.01066971,-117.43690491,2022-11-27 16:47:15
Denny's,11899 Foothills Blvd,,Rancho Cucamonga,CA,91730,US,34.10599518,-117.54602051,2022-11-27 16:47:07
Denny's,715 N Milliken Ave,,Ontario,CA,91764,US,34.06973267,-117.55891418,2022-11-27 16:47:07
Denny's,502 North Vineyard Rd,,Ontario,CA,91764,US,34.06863785,-117.61055756,2022-11-27 16:47:07
Denny's,1409 E 4th St,,Ontario,CA,91764,US,34.0784111,-117.62574768,2022-11-27 16:47:07
Denny's,2435 Mt. Holly Road,,Rock Hill,SC,29730,US,34.8556633,-81.00649261,2022-11-26 22:33:42
Denny's,697 Troy-Schenectady Rd,,Latham,NY,12110,US,42.75613022,-73.7747345,2022-11-25 09:27:19
Denny's,60 Nott Terrace,,Schenectady,NY,12308,US,42.81432343,-73.93352509,2022-11-25 09:27:19
Denny's,7375 E State St,,Rockford,IL,61108,US,42.26930237,-88.97280884,2022-11-25 04:09:47
Denny's,102 Lee Blvd,,Shelbyville,IN,46176,US,39.52627182,-85.73784637,2022-11-25 05:40:36
Denny's,385 Mid America Drive,,Pryor,OK,74361,US,36.22998047,-95.33866119,2022-11-26 23:06:50
Denny's,840 Palm Bay Rd NE,,Palm Bay,FL,32905,US,28.03469658,-80.64816284,2022-11-25 04:40:37
Denny's,4530 W. New Haven,,Melbourne,FL,32904,US,28.07925797,-80.70309448,2022-11-25 04:40:37
Denny's,1245 N. Atlantic Ave.,,Cocoa Beach,FL,32931,US,28.33202171,-80.61114502,2022-11-25 04:40:37
Denny's,75 E. Merritt Island Causeway,,Merritt Island,FL,32952,US,28.35652351,-80.69866943,2022-11-25 04:40:37
Denny's,7700 MENTOR AVENUE,,MENTOR,OH,44060,US,41.6590004,-81.3658905,2022-11-27 09:52:21
Denny's,7001 Lake Park - Bellville Rd,,Lake Park,GA,31636,US,30.64150047,-83.18969727,2022-11-27 07:45:59
Denny's,1010 N TEGNER ST,,WICKENBURG,AZ,85390,US,33.98148727,-112.73890686,2022-11-20 02:03:32
Denny's,4625 Mobile Highway,,Pensacola,FL,32506,US,30.43710327,-87.27946472,2022-11-27 06:11:55
Denny's,535 West Nine Mile Road,,Pensacola,FL,32534,US,30.53289986,-87.28138733,2022-11-27 06:11:55
Denny's,7748 N. Davis Highway,,Pensacola,FL,32514,US,30.50579262,-87.22096252,2022-11-27 06:11:55
Denny's,610 Tutuilla Rd,,Pendleton,OR,97801,US,45.66154099,-118.80590057,2022-11-14 20:39:51
Denny's,31900 S Las Vegas Blvd.,,Primm,NV,89019,US,35.61505127,-115.38510895,2022-11-14 20:02:10
Denny's,1230 Gail Gardner Way,,Prescott,AZ,86305,US,34.56370163,-112.48735046,2022-11-24 11:38:19
Denny's,7925 E Hwy 69,,Prescott Valley,AZ,86312,US,,,2022-11-24 11:38:19
Denny's,3156 Elton Rd,,Johnstown,PA,15904,US,40.27909088,-78.8474884,2022-11-25 03:13:14
Denny's,3870 Route 30,,Latrobe,PA,15650,US,40.29240417,-79.34984589,2022-11-27 09:51:59
Denny's,4718 Slide Rd,,Lubbock,TX,79414,US,33.54986191,-101.92293549,2022-11-26 13:18:09
Denny's,468 Louden Road,,Saratoga Springs,NY,12866,US,43.09768677,-73.74762726,2022-11-25 09:27:19
Denny's,1590 E Yonezawa Blvd,,Moses Lake,WA,98837,US,47.10623932,-119.25263977,2022-11-20 17:06:54
Denny's,4979 State Hwy 23,,Oneonta,NY,13820,US,42.44859695,-75.04863739,2022-11-18 12:44:16
Denny's,10 Airport Rd,,Zanesville,OH,43701,US,39.96538925,-81.89693451,2022-11-25 13:44:21
Denny's,2031 Southgate Parkway,,Cambridge,OH,43725,US,40.00462723,-81.57530975,2022-11-25 00:57:29
Denny's,1507 Herndon Rd.,,Ceres,CA,95307,US,37.60840988,-120.97471619,2022-11-27 11:47:41
Denny's,3429 Orange Ave,,Roanoke,VA,24012,US,37.30207825,-79.89221191,2022-11-26 21:33:20
Denny's,1206 Central Frwy N,,Wichita Falls,TX,76306,US,33.93659592,-98.51993561,2022-11-25 07:14:41
Denny's,4301 Kemp Blvd,,Wichita Falls,TX,76308,US,33.86558914,-98.5354538,2022-11-25 07:14:41
Denny's,342 Harbison Blvd,,Columbia,SC,29212,US,34.0747757,-81.15444183,2022-11-25 07:14:53
Denny's,2514 Sunset Blvd,,West Columbia,SC,29169,US,34.00382614,-81.1084671,2022-11-25 07:14:53
Denny's,5901 Fairfield Dr,,Columbia,SC,29203,US,34.06506729,-81.02319336,2022-11-25 07:14:53
Denny's,242 E White Horse Pike,,Galloway,NJ,08205,US,39.44613266,-74.52947235,2022-11-26 13:18:32
Denny's,18875 SOUTH I-19 FRONTAGE RD.,,GREEN VALLEY,AZ,85614,US,31.90746307,-110.98353577,2022-11-25 06:21:12
Denny's,1510 W Valencia Rd,,Tucson,AZ,85706,US,32.13430786,-110.99682617,2022-11-25 06:21:12
Denny's,2630 E Valencia Rd,,Tucson,AZ,85706,US,32.13367081,-110.93286896,2022-11-25 06:21:12
Denny's,4040 E. 22nd St.,,Tucson,AZ,85711,US,32.20660782,-110.90575409,2022-11-25 06:21:12
Denny's,555 N Freeway,,Tucson,AZ,85745,US,32.23035812,-110.98371124,2022-11-25 06:21:12
Denny's,6484 E Broadway Blvd.,,Tucson,AZ,85710,US,32.22056961,-110.85533905,2022-11-25 06:21:12
Denny's,5000 Oracle Rd,,Tucson,AZ,85704,US,32.2977829,-110.97766113,2022-11-25 06:21:12
Denny's,1380 Torrence Avenue,,Calumet City,IL,60409,US,41.59580612,-87.55949402,2022-11-27 07:24:00
Denny's,3850 Newton St,,Jasper,IN,47546,US,38.42546082,-86.93724823,2022-11-24 23:15:29
Denny's,600 S 69 Bypass,,Mcalester,OK,74501,US,34.91564941,-95.76679993,2022-11-14 20:01:35
Denny's,8200 NW Blvd,,Davenport,IA,52806,US,41.60306931,-90.62481689,2022-11-27 10:13:13
Denny's,105 Pomeroy,,Ukiah,CA,95482,US,39.15121841,-123.19778442,2022-11-14 20:01:53
Denny's,2021 S Mountain Rd,,Tucumcari,NM,88401,US,35.15871048,-103.70348358,2022-11-14 20:38:51
Denny's,100 Holiday Lane,,Salem,IL,62881,US,38.62405777,-88.97052765,2022-11-14 20:05:36
Denny's,110 W Cole Rd,,Calexico,CA,92231,US,32.69356537,-115.50065613,2022-11-14 20:35:50
Denny's,3442 Us Highway 41,,Terre Haute,IN,47802,US,39.4257431,-87.41523743,2022-11-24 20:11:07
Denny's,233 S 3rd St,,Terre Haute,IN,47807,US,39.46366119,-87.41432953,2022-11-24 20:11:07
Denny's,1235 Harbor Blvd.,,West Sacramento,CA,95691,US,38.57331848,-121.54914856,2022-11-27 10:12:58
Denny's,5460 Florin Rd,,Sacramento,CA,95823,US,38.49562836,-121.44250488,2022-11-27 10:12:58
Denny's,7401 ELSIE AVE.,,SACRAMENTO,CA,95828,US,38.47468185,-121.41742706,2022-11-27 10:12:58
Denny's,8707 Elk Grove Blvd,,Elk Grove,CA,95624,US,38.40932465,-121.38050842,2022-11-27 10:12:58
Denny's,1250 Stratford Ave,,Dixon,CA,95620,US,38.45830154,-121.83927917,2022-11-27 10:12:58
Denny's,1300 N Ponce De Leon Blvd,,Saint Augustine,FL,32084,US,29.90421677,-81.31977081,2022-11-24 19:50:31
Denny's,950 State Road 206 West,,St. Augustine,FL,32086,US,29.74985886,-81.34461212,2022-11-27 06:03:37
Denny's,29933 State Road 52,,San Antonio,FL,33576,US,28.32634354,-82.32249451,2022-11-27 02:56:23
Denny's,1700 Sidney Dr,,Grants,NM,87020,US,35.12632751,-107.82728577,2022-11-14 20:03:11
Denny's,2435 Tittabawassee Rd,,Saginaw,MI,48604,US,43.47940826,-83.96399689,2022-11-24 19:11:34
Denny's,2137 North Fremont St.,,Monterey,CA,93940,US,36.59647369,-121.86151123,2022-11-25 02:43:35
Denny's,110 Reservation Road,,Marina,CA,93933,US,36.6955719,-121.80328369,2022-11-25 02:43:35
Denny's,300 Fremont Street,,Monterey,CA,93940,US,36.59498215,-121.89284515,2022-11-25 02:43:35
Denny's,975 E Blanco Rd,,Salinas,CA,93901,US,36.6566391,-121.63674164,2022-11-25 13:26:50
Denny's,8810 E 350 Hwy,,Raytown,MO,64133,US,39.00065231,-94.48148346,2022-11-27 10:13:15
Denny's,3939 S Noland,,Independence,MO,64055,US,39.04891586,-94.41456604,2022-11-27 10:13:15
Denny's,3832 Blue Ridge Cutoff,,Kansas City,MO,64133,US,39.05289078,-94.47441864,2022-11-27 10:13:15
Denny's,2039 W Main St,,Salem,VA,24153,US,37.28808975,-80.0943985,2022-11-26 21:33:20
Denny's,2870 S. Lake Tahoe Blvd.,,South Lake Tahoe,CA,96150,US,38.93407059,-119.97748566,2022-11-24 15:50:04
Denny's,2627 Buck Owens Blvd,,Bakersfield,CA,93308,US,35.38396454,-119.04349518,2022-11-25 03:40:50
Denny's,2684 Mt. Vernon Ave,,Bakersfield,CA,93306,US,35.39620209,-118.96789551,2022-11-25 03:40:50
Denny's,2851 White Lane,,Bakersfield,CA,93304,US,35.31723022,-119.03411102,2022-11-25 03:40:50
Denny's,8011 E Brundage Lane,,Bakersfield,CA,93307,US,35.35403824,-118.91506195,2022-11-25 03:40:50
Denny's,2309 Panama Lane,,Bakersfield,CA,93307,US,35.29546738,-119.0281601,2022-11-25 03:40:50
Denny's,3525 N Division St,,Spokane,WA,99207,US,47.69063187,-117.41156769,2022-11-27 01:05:32
Denny's,3711 S Geiger Blvd,,Spokane,WA,99224,US,47.62103653,-117.50582123,2022-11-27 01:05:32
Denny's,2700 North IH-35,,Round Rock,TX,78681,US,30.53806686,-97.69327545,2022-11-26 23:45:59
Denny's,21030 N SH 130 SVRD SB,,Hutto,TX,78634,US,30.49846649,-97.58329773,2022-11-26 23:45:59
Denny's,405 S 7th St,,Bismarck,ND,58504,US,46.80176544,-100.78124237,2022-11-21 12:40:22
Denny's,1078 Glenwood Avenue,,Oneida,NY,13421,US,43.07691193,-75.6416626,2022-11-27 02:06:14
Denny's,47 Industrial Highway,,Essington,PA,19029,US,39.86768341,-75.30528259,2022-11-27 13:04:25
Denny's,16 S Delsea Drive,,VINELAND,NJ,08360,US,39.48641968,-75.04353333,2022-11-25 13:26:57
Denny's,16262 Sierra Hwy,,Mojave,CA,93501,US,35.0572319,-118.17495728,2022-11-24 17:57:33
Denny's,847 MAGELLAN ST,,Tehachapi,CA,93561,US,35.14189911,-118.44988251,2022-11-24 17:57:33
Denny's,16851 Interstate Highway 20,,Cisco,TX,76437,US,32.37387085,-99.00679779,2022-11-24 22:40:21
Denny's,3215 Wake Forest Rd,,Raleigh,NC,27609,US,35.82723236,-78.6208725,2022-11-25 13:26:35
Denny's,12405 Westheimer Rd,,Houston,TX,77077,US,29.73582077,-95.60092926,2022-11-27 12:02:15
Denny's,43 Bradley Cove Rd,,Russellville,AR,72802,US,35.28326797,-93.09013367,2022-11-24 17:11:59
Denny's,925 N Main St,,Tooele,UT,84074,US,40.5474472,-112.29865265,2022-11-27 00:38:17
Denny's,1445 Wendy Court,,Spring Hill,FL,34607,US,28.45567703,-82.63008881,2022-11-27 02:56:23
Denny's,12105 US Highway 19 N,,Bayonet Point,FL,34667,US,28.33279419,-82.69988251,2022-11-27 02:56:23
Denny's,4442 US Hwy 19 S,,New Port Richey,FL,34652,US,28.22411346,-82.73325348,2022-11-27 02:56:23
Denny's,900 Hwy 95 North,,Beatty,NV,89003,US,36.91470337,-116.75283051,2022-11-14 20:05:33
Denny's,2510 Navajo Blvd,,Holbrook,AZ,86025,US,34.93275833,-110.13612366,2022-11-20 07:10:28
Denny's,3980 William Penn Highway,,Monroeville,PA,15146,US,40.43783569,-79.7722702,2022-11-27 09:51:59
Denny's,2701 Freeport Rd.,,Pittsburgh,PA,15238,US,40.53685379,-79.832901,2022-11-27 09:51:59
Denny's,1829 Lincoln Highway,,North Versailles,PA,15137,US,40.3684845,-79.77970123,2022-11-27 09:51:59
Denny's,9174 Lincoln Hwy,,Irwin,PA,15642,US,40.32120132,-79.69499969,2022-11-27 09:51:59
Denny's,200 West Drive,,Greensburg,PA,15601,US,40.30561066,-79.5765686,2022-11-27 09:51:59
Denny's,2200 Lebanon Church Road,,West Mifflin,PA,15122,US,40.34803391,-79.94435883,2022-11-27 09:51:59
Denny's,271 Clairton Blvd,,Pittsburgh,PA,15236,US,40.33786392,-79.95091248,2022-11-27 09:51:59
Denny's,5701 Dennis Mccarthy Drive,,Lebec,CA,93243,US,34.9876442,-118.94664764,2022-11-25 03:40:50
Denny's,1130 South Illinois St.,,Belleville,IL,62220,US,38.50008011,-89.9832077,2022-11-27 13:04:21
Denny's,959 Illinois Rt 3,,Waterloo,IL,62298,US,38.35980988,-90.15440369,2022-11-27 13:04:21
Denny's,737 W Hwy 50,,O'fallon,IL,62269,US,38.58810043,-89.92617798,2022-11-27 13:04:21
Denny's,6441 S Lindberg Blvd,,Saint Louis,MO,63123,US,38.5133934,-90.33924866,2022-11-27 13:04:21
Denny's,522 Ramada Blvd,,Collinsville,IL,62234,US,38.67975998,-90.01078796,2022-11-27 13:04:21
Denny's,1203 Drury Lane,,Arnold,MO,63010,US,38.44445038,-90.37792969,2022-11-27 13:04:21
Denny's,10575 Watson Rd,,Saint Louis,MO,63127,US,38.55607224,-90.40567017,2022-11-27 13:04:21
Denny's,101 N FM 707,,Tye,TX,79563,US,32.45689774,-99.87133789,2022-11-25 13:26:48
Denny's,120 OVERLAND TRAIL,,ABILENE,TX,79601,US,32.49118042,-99.72244263,2022-11-25 13:26:48
Denny's,3314 South Clack Street,,Abilene,TX,79606,US,32.41326141,-99.77722168,2022-11-25 13:26:48
Denny's,224 Daniel Payne Drive N,,Birmingham,AL,35207,US,33.56209183,-86.83074188,2022-11-27 07:45:57
Denny's,2260 Biddle Road,,Medford,OR,97504,US,42.3500824,-122.87182617,2022-11-19 11:40:50
Denny's,101 Wintergreen Dr,,Lumberton,NC,28358,US,34.6688118,-79.00346375,2022-11-24 14:12:06
Denny's,635 W Prien Lake Road,,Lake Charles,LA,70601,US,30.1978302,-93.22969055,2022-11-27 08:45:46
Denny's,235-20 Hillside Avenue,,Queens Village,NY,11427,US,40.73294067,-73.73401642,2022-11-27 09:24:56
Denny's,4861 W Sunset Ave,,Springdale,AR,72762,US,36.17495346,-94.18424225,2022-11-24 21:29:30
Denny's,2209 SE Walton Blvd,,Bentonville,AR,72712,US,36.33559036,-94.18789673,2022-11-25 07:52:42
Denny's,543 Eglin Parway Ne,,Fort  Walton Beach,FL,32547,US,30.43981552,-86.5994339,2022-11-27 06:11:55
Denny's,6711 West Sam Houston Parkway South,,Houston,TX,77072,US,29.70355988,-95.55632782,2022-11-27 12:02:15
Denny's,8199 SW Frwy,,Houston,TX,77074,US,29.68907356,-95.52912903,2022-11-27 12:02:15
Denny's,3255 E. ANDY DEVINE AVE,,KINGMAN,AZ,86401,US,35.21893311,-114.0098114,2022-11-20 07:26:49
Denny's,3300 E Andy Devine Ave,,Kingman,AZ,86401,US,35.2196846,-114.00753784,2022-11-20 07:26:49
Denny's,200 S James St,,Rome,NY,13440,US,43.2097702,-75.45915222,2022-11-24 19:11:47
Denny's,175 South Honeyrun Parkway,,Scottsburg,IN,47170,US,38.68449402,-85.78611755,2022-11-26 22:33:16
Denny's,3701 W Wall Ave,,Midland,TX,79703,US,31.97917747,-102.11238861,2022-11-27 00:16:38
Denny's,105 W 42nd St,,Odessa,TX,79764,US,31.88182068,-102.3859024,2022-11-27 00:16:38
Denny's,1051 Interstate Court,,Findlay,OH,45840,US,41.05924606,-83.67077637,2022-11-25 08:31:40
Denny's,2409 South New Road,,Waco,TX,76711,US,31.50744629,-97.14502716,2022-11-24 19:49:43
Denny's,709 N. I-35,,Bellmead,TX,76705,US,31.58363724,-97.10857391,2022-11-24 19:49:43
Denny's,2122 S. Milton Road,,Flagstaff,AZ,86001,US,35.17892075,-111.66069031,2022-11-24 13:48:41
Denny's,2306 E. Lucky Lane,,Flagstaff,AZ,86004,US,35.1929245,-111.62299347,2022-11-24 13:48:41
Denny's,2200 N Main St,,Roswell,NM,88201,US,33.4188652,-104.52364349,2022-11-14 20:10:24
Denny's,10390 Bennet Road,,Fredonia,NY,14063,US,42.45347214,-79.30944824,2022-11-25 04:41:24
Denny's,4315 Texas State Hwy 42 North,,Kilgore,TX,75662,US,32.43044281,-94.86398315,2022-11-25 13:26:15
Denny's,1710 E 3rd St,,Big Spring,TX,79720,US,32.25990295,-101.45341492,2022-11-14 20:35:40
Denny's,4220 Hospitality Ln,,Casper,WY,82609,US,42.85306168,-106.2741394,2022-11-25 07:14:34
Denny's,7 Kings Hwy,,Palm Coast,FL,32137,US,29.5551815,-81.21440125,2022-11-25 03:41:57
Denny's,100 N. Kings Highway,,Fort Pierce,FL,34945,US,27.44875908,-80.39824677,2022-11-25 13:27:17
Denny's,12319 Dorsett Road,,Maryland Heights,MO,63043,US,38.71497345,-90.44865417,2022-11-27 13:04:21
Denny's,11266 Midland Blvd,,Saint Louis,MO,63114,US,38.7063942,-90.40784454,2022-11-27 13:04:21
Denny's,5789 Campus Pkwy,,Hazelwood,MO,63042,US,38.77597809,-90.38873291,2022-11-27 13:04:21
Denny's,27 Junction Dr,,Glen Carbon,IL,62034,US,38.77603531,-89.95555878,2022-11-27 13:04:21
Denny's,1310 E. Chain Of Rocks Rd.,,Pontoon Beach,IL,62040,US,38.76000977,-90.06557465,2022-11-27 13:04:21
Denny's,3512 S Keystone Ave,,Indianapolis,IN,46227,US,39.71461105,-86.12126923,2022-11-27 09:52:19
Denny's,1253 S Park Blvd,,Greenwood,IN,46143,US,39.61510849,-86.07726288,2022-11-27 09:52:19
Denny's,4982 North 350 East,,Whiteland,IN,46184,US,39.54912186,-86.03733826,2022-11-27 09:52:19
Denny's,8901 US 31 South,,Indianapolis,IN,46227,US,39.63713074,-86.12724304,2022-11-27 09:52:19
Denny's,2033 Rawsonville Road,,Belleville,MI,48111,US,42.21754074,-83.54320526,2022-11-27 10:54:49
Denny's,2116 S Georgia St,,Amarillo,TX,79109,US,35.19079208,-101.86654663,2022-11-24 12:31:16
Denny's,1710 I-40 East,,Amarillo,TX,79103,US,35.19190216,-101.81834412,2022-11-24 12:31:16
Denny's,2445 El Cajon Blvd,,San Diego,CA,92104,US,32.75501251,-117.13784027,2022-11-27 13:47:05
Denny's,1065 Camino Del Rio S,,San Diego,CA,92108,US,32.76419067,-117.15376282,2022-11-27 13:47:05
Denny's,3704 Camino Del Rio W,,San Diego,CA,92110,US,32.75517654,-117.20521545,2022-11-27 13:47:05
Denny's,7676 Friars Rd.,,San Diego,CA,92108,US,32.7724762,-117.15840149,2022-11-27 13:47:05
Denny's,1601 Rosecrans St.,,San Diego,CA,92106,US,32.72737885,-117.22650909,2022-11-27 13:47:05
Denny's,3920 W. Point Loma,,San Diego,CA,92110,US,32.75510025,-117.22076416,2022-11-27 13:47:05
Denny's,4365 University Ave,,San Diego,CA,92105,US,32.74941635,-117.10064697,2022-11-27 13:47:05
Denny's,424 W. Mile Of Cars,,National City,CA,91950,US,32.6603508,-117.10599518,2022-11-27 13:47:05
Denny's,10430 Friars Road,,San Diego,CA,92120,US,32.79149628,-117.09864044,2022-11-27 13:47:05
Denny's,1904 Sweetwater Rd.,,National City,CA,91950,US,32.66088867,-117.0790863,2022-11-27 13:47:05
Denny's,692 E St,,Chula Vista,CA,91910,US,32.64017868,-117.09674835,2022-11-27 13:47:05
Denny's,5445 Kearny Villa Rd.,,San Diego,CA,92123,US,32.83224106,-117.13783264,2022-11-27 13:47:05
Denny's,6970 Alvarado Rd,,San Diego,CA,92120,US,32.77410507,-117.04769135,2022-11-27 13:47:05
Denny's,4280 Clairemont Mesa Blvd,,San Diego,CA,92117,US,32.83258438,-117.20163727,2022-11-27 13:47:05
Denny's,110 Bonita Rd,,Chula Vista,CA,91910,US,32.647686,-117.06311035,2022-11-27 13:47:05
Denny's,4235 Spring St,,La Mesa,CA,91941,US,32.75610733,-117.01512146,2022-11-27 13:47:05
Denny's,6908 Miramar Road,,San Diego,CA,92121,US,32.8787384,-117.16735077,2022-11-27 13:47:05
Denny's,2691 Navajo Rd,,El Cajon,CA,92020,US,32.8014183,-117.00170898,2022-11-27 13:47:05
Denny's,3750 Anderson Ave,Bldg 3750,San Diego,CA,92145,US,32.8911705,-117.13790894,2022-11-27 13:47:05
Denny's,2222 Coronado Ave,,San Diego,CA,92154,US,32.57688904,-117.08502197,2022-11-27 09:25:01
Denny's,1202 W Main St,,El Cajon,CA,92021,US,,,2022-11-27 13:47:05
Denny's,140 Town Center Pkwy,,Santee,CA,92071,US,32.84138107,-116.98897552,2022-11-27 13:47:05
Denny's,9898 Mira Mesa Blvd.,,San Diego,CA,92131,US,32.91724396,-117.11351776,2022-11-27 13:47:05
Denny's,665 N Mollison Ave,,El Cajon,CA,92021,US,32.80376434,-116.95053864,2022-11-27 13:47:05
Denny's,2642 Jamacha Rd,,El Cajon,CA,92019,US,32.74448013,-116.93161774,2022-11-27 13:47:05
Denny's,2110 Birch Rd.,,Chula Vista,CA,91915,US,32.62122345,-116.96208191,2022-11-27 09:25:01
Denny's,130 E Calle Primero,,San Ysidro,CA,92173,US,32.54985809,-117.04363251,2022-11-27 09:25:01
Denny's,13584 Camino Canada,,Lakeside,CA,92040,US,,,2022-11-27 13:47:05
Denny's,2203 Via De La Valle,,Del Mar,CA,92014,US,32.97902298,-117.25570679,2022-11-27 13:47:05
Denny's,16686 Bernardo Center Dr.,,San Diego,CA,92128,US,33.01639175,-117.07667542,2022-11-27 13:47:05
Denny's,3446 Coach Lane,,Cameron Park,CA,95682,US,38.65787888,-120.96703339,2022-11-26 21:07:31
Denny's,99 Fair Lane Dr,,Placerville,CA,95667,US,38.72296524,-120.83062744,2022-11-24 17:12:02
Denny's,1239 National Hwy,,Lavale,MD,21502,US,39.63707733,-78.83815002,2022-11-20 03:17:52
Denny's,825 Mineral St.,,Keyser,WV,26726,US,39.42829514,-78.99002838,2022-11-27 09:25:11
Denny's,72415 Baker Blvd,,Baker,CA,92309,US,35.26890564,-116.06841278,2022-11-14 20:31:31
Denny's,2500 Sm 291 Hwy,,Independence,MO,64055,US,,,2022-11-27 10:13:15
Denny's,713 South Main St,,Fallbrook,CA,92028,US,33.3761673,-117.25164795,2022-11-27 12:02:19
Denny's,605 College Blvd,,Oceanside,CA,92057,US,33.24319839,-117.29039764,2022-11-27 13:47:05
Denny's,487 Harbor Dr,,Oceanside,CA,92054,US,33.20888901,-117.38774109,2022-11-27 13:47:05
Denny's,23857 Clinton Keith Rd.,,Wildomar,CA,92595,US,33.59455872,-117.24271393,2022-11-27 11:47:50
Denny's,25365 Madison Ave,,Murrieta,CA,92562,US,33.55197144,-117.19512939,2022-11-27 12:02:19
Denny's,28915 Rancho California Road,,Temecula,CA,92590,US,33.49934387,-117.15283203,2022-11-27 12:02:19
Denny's,2273 El Camino Real,,Oceanside,CA,92054,US,33.1835289,-117.32833862,2022-11-27 13:47:05
Denny's,31760 Grape St,,Lake Elsinore,CA,92532,US,33.66194534,-117.2963562,2022-11-27 16:47:07
Denny's,540 W Vista Way,,Vista,CA,92083,US,33.19565582,-117.25247955,2022-11-27 13:47:05
Denny's,36490 Winchester Road,,Murrieta,CA,92563,US,33.5912323,-117.12535858,2022-11-27 11:47:50
Denny's,731 W San Marcos Blvd,,San Marcos,CA,92069,US,,,2022-11-27 13:47:05
Denny's,76 E. Goodfellow St,,Ontario,OR,97914,US,44.02544403,-116.94322205,2022-11-25 09:27:26
Denny's,3165 South Western Blvd.,,Orchard Park,NY,14127,US,42.79873276,-78.74611664,2022-11-26 21:50:24
Denny's,5092 Camp Rd.,,Hamburg,NY,14075,US,42.74891663,-78.85462189,2022-11-26 21:50:24
Denny's,683 NORTH GRAND AVE,,NOGALES,AZ,85621,US,31.34471703,-110.93146515,2022-11-14 20:33:27
Denny's,4000 N Prince Street,,Clovis,NM,88101,US,34.43864059,-103.19690704,2022-11-20 08:21:56
Denny's,11511 W Airport Blvd,,Meadows Place,TX,77477,US,29.64620209,-95.57958984,2022-11-27 12:02:15
Denny's,6131 Highway 6 S,,Missouri City,TX,77459,US,29.56760597,-95.56525421,2022-11-27 12:02:15
Denny's,1422 State Hwy 6 S,,Sugar Land,TX,77478,US,29.60169411,-95.63311768,2022-11-27 11:28:51
Denny's,1762 Highway 95,,Bullhead City,AZ,86442,US,35.12116241,-114.58637238,2022-11-25 09:27:09
Denny's,1328 St Augustine Rd,,Valdosta,GA,31602,US,,,2022-11-27 07:45:59
Denny's,2008 N. Mulberry Ave,,Elizabethtown,KY,42701,US,37.71556854,-85.82701874,2022-11-26 22:07:25
Denny's,200 S Lakeview Dr,,Shepherdsville,KY,40165,US,37.99457169,-85.70149231,2022-11-27 13:32:51
Denny's,710 Horizon Dr,,Grand Junction,CO,81506,US,39.10774994,-108.54296112,2022-11-25 09:28:34
Denny's,3205 I-70 Business Loop,,Clifton,CO,81520,US,39.08821487,-108.45666504,2022-11-25 09:28:34
Denny's,950 Lindsey Blvd,,Idaho Falls,ID,83401,US,,,2022-11-27 05:05:39
Denny's,825 W Foothill Blvd,,Upland,CA,91786,US,34.1073494,-117.66192627,2022-11-27 09:24:59
Denny's,75-1027 Henry St,,Kailua-Kona,HI,96740,US,19.64593124,-155.98925781,2022-11-24 09:22:26
Denny's,1946 Main St,,Ramona,CA,92065,US,33.03230667,-116.88372803,2022-11-27 13:47:05
Denny's,4276 Business Route 220,,Bedford,PA,15522,US,40.05067062,-78.51111603,2022-11-25 09:26:58
Denny's,2955 Van Buren Blvd,,Riverside,CA,92503,US,33.90929031,-117.43605804,2022-11-27 16:47:15
Denny's,6285 Pats Ranch Road  Suite A,,Mira Loma,CA,91752,US,33.97480774,-117.54561615,2022-11-27 16:47:07
Denny's,2421 S. Archibald,,Ontario,CA,91761,US,34.02970886,-117.59261322,2022-11-27 16:47:07
Denny's,12180 Central Ave,,Chino,CA,91710,US,34.03192139,-117.68986511,2022-11-27 12:19:43
Denny's,820 South Indian Hill Blvd.,,Claremont,CA,91711,US,34.08097458,-117.71856689,2022-11-27 12:19:43
Denny's,248 Quaker Rd,,Queensbury,NY,12804,US,43.33191299,-73.65106201,2022-11-24 23:14:28
Denny's,60 State Road 344,,Edgewood,NM,87015,US,35.06993484,-106.19087982,2022-11-26 23:22:14
Denny's,123 Civic Center Dr,,Augusta,ME,04330,US,44.33765411,-69.79168701,2022-11-25 13:43:15
Denny's,3126 S. Eastman Rd.,,Longview,TX,75602,US,32.45339584,-94.70696259,2022-11-25 01:12:57
Denny's,607 Avenue Q,,Lubbock,TX,79401,US,33.58946228,-101.85476685,2022-11-26 13:18:09
Denny's,4757 Transit Rd,,Depew,NY,14043,US,42.86771774,-78.69673157,2022-11-26 21:50:24
Denny's,1881 Ridge Road,,West Seneca,NY,14224,US,42.82833862,-78.78272247,2022-11-26 21:50:24
Denny's,3064 H De La Rosa Sr. Street,,Soledad,CA,93960,US,36.41640472,-121.32086182,2022-11-25 13:26:50
Denny's,300 CIVIC CENTER WAY,,ROYAL PALM BEACH,FL,33411,US,26.70556831,-80.23092651,2022-11-26 13:19:18
Denny's,2705 Okeechobee Blvd,,West Palm Beach,FL,33409,US,26.70702171,-80.0945282,2022-11-26 13:19:18
Denny's,27960 Southwest Fwy,,Rosenberg,TX,77471,US,29.53296089,-95.80497742,2022-11-27 10:37:41
Denny's,211 Court St,,Auburn,ME,04210,US,44.09835434,-70.23059082,2022-11-26 22:33:19
Denny's,11201 Coastal Hwy,,Ocean City,MD,21842,US,38.41953278,-75.05944824,2022-11-21 07:10:55
Denny's,6104 Coastal Highway,,Ocean City,MD,21842,US,38.38467789,-75.06581116,2022-11-21 07:10:55
Denny's,1360 Holiday Lane,,Fairfield,CA,94534,US,38.25672913,-122.06466675,2022-11-26 22:33:30
Denny's,304 Pittman Rd,,Cordelia,CA,94585,US,38.2197113,-122.12713623,2022-11-27 12:02:17
Denny's,250 Fairgrounds Dr,,Vallejo,CA,94589,US,38.12412643,-122.23041534,2022-11-27 12:02:17
Denny's,11700 Wilmington Ave,,Los Angeles,CA,90059,US,33.92757797,-118.23878479,2022-11-27 16:47:13
Denny's,11195 Long Beach Blvd,,Lynwood,CA,90262,US,33.92973709,-118.2118454,2022-11-27 16:47:13
Denny's,5900 Atlantic Blvd,,Maywood,CA,90270,US,33.98685455,-118.1853714,2022-11-27 16:47:13
Denny's,5811 E Firestone Blvd,,South Gate,CA,90280,US,33.94947052,-118.16468811,2022-11-27 16:47:13
Denny's,3740 S. Crenshaw Blvd.,,Los Angeles,CA,90016,US,34.0184021,-118.33459473,2022-11-27 12:49:38
Denny's,7268 E Gage Ave,,Commerce,CA,90040,US,33.97451782,-118.12657928,2022-11-27 16:47:13
Denny's,13201 Hawthorne Blvd,,Hawthorne,CA,90250,US,33.91254807,-118.35307312,2022-11-27 16:47:13
Denny's,5535 W Century,,Los Angeles,CA,90045,US,33.94582748,-118.37756348,2022-11-27 16:47:13
Denny's,8601 S Bellanca Ave,,Los Angeles,CA,90045,US,33.95983505,-118.38054657,2022-11-27 16:47:13
Denny's,9312 Rosecrans,,Bellflower,CA,90706,US,33.90381622,-118.13500214,2022-11-27 16:47:13
Denny's,14301 S INGLEWOOD Ave,,HAWTHORNE,CA,90250,US,33.90156555,-118.36158752,2022-11-27 16:47:13
Denny's,2555 El Segundo Blvd,,El Segundo,CA,90245,US,33.91671371,-118.37488556,2022-11-27 16:47:13
Denny's,18620 S Western Ave,,Gardena,CA,90248,US,33.86141968,-118.3087616,2022-11-27 16:47:13
Denny's,600 Carson Plaza Dr,,Carson,CA,90746,US,33.84476471,-118.26472473,2022-11-27 16:47:13
Denny's,10700 Jefferson Blvd.,,Culver City,CA,90230,US,34.00363541,-118.39332581,2022-11-27 12:49:38
Denny's,17230 LAKEWOOD BLVD,,BELLFLOWER,CA,90706,US,33.8758049,-118.1421051,2022-11-27 16:47:13
Denny's,8425 S Pioneer Blvd,,Whittier,CA,90606,US,33.9678154,-118.08226013,2022-11-27 16:47:13
Denny's,12616 Pioneer Blvd,,Norwalk,CA,90650,US,33.9166069,-118.08133698,2022-11-27 16:47:13
Denny's,2634 E Carson St,,Lakewood,CA,90712,US,33.83214951,-118.1602478,2022-11-27 16:47:13
Denny's,3333 Atlantic Ave,,Long Beach,CA,90807,US,33.81790543,-118.18534851,2022-11-27 16:47:13
Denny's,21270 Hawthorne Blvd,,Torrance,CA,90503,US,33.83545685,-118.35256195,2022-11-27 16:47:13
Denny's,11891 Whittier Blvd,,Whittier,CA,90601,US,33.97979355,-118.04946899,2022-11-27 16:47:13
Denny's,3060 Sepulveda Blvd.,,Torrance,CA,90505,US,33.82422256,-118.34140778,2022-11-27 16:47:13
Denny's,1440 W Pacific Coast,,Wilmington,CA,90744,US,33.7904892,-118.28382874,2022-11-27 16:47:13
Denny's,1060 Tiverton Ave,,Westwood,CA,90024,US,34.06028366,-118.44303131,2022-11-27 12:49:38
Denny's,29019 Western Avenue,,Rancho Palos Verdes,CA,90275,US,33.75461578,-118.30961609,2022-11-27 16:47:13
Denny's,1515 Ocean St.,,Santa Cruz,CA,95060,US,36.98517227,-122.02407837,2022-11-25 02:43:35
Denny's,1206 N. Woodland Blvd.,,Deland,FL,32720,US,29.04897881,-81.30460358,2022-11-26 23:06:48
Denny's,161 Telegraph Rd.,,Bellingham,WA,98226,US,48.78409195,-122.48552704,2022-11-25 08:31:34
Denny's,489 Emily Dr,,Clarksburg,WV,26301,US,39.26940918,-80.28639221,2022-11-21 13:08:42
Denny's,973 N. Susquehanna Trail,,Selinsgrove,PA,17870,US,40.82410431,-76.84747314,2022-11-27 00:08:56
Denny's,131 Papermill Rd.,,Bloomsburg,PA,17815,US,41.02642822,-76.42826843,2022-11-25 05:10:00
Denny's,2190 Ross Clark Circle,,Dothan,AL,36301,US,31.19181442,-85.39987946,2022-11-27 00:26:24
Denny's,708 Silver Heights Blvd,,Silver City,NM,88061,US,32.78258896,-108.26830292,2022-11-14 20:42:07
Denny's,3210 SW Topeka Blvd,,Topeka,KS,66611,US,39.01030731,-95.68699646,2022-11-25 13:43:55
Denny's,1500 Wannamaker Rd,,Topeka,KS,66604,US,39.04009247,-95.76113129,2022-11-25 13:43:55
Denny's,68296 Red Roof Lane,,St. Clairsville,OH,43950,US,40.07506943,-80.86872864,2022-11-25 09:28:56
Denny's,1395 West Chestnut St,,Washington,PA,15301,US,40.16503143,-80.27390289,2022-11-26 22:07:18
Denny's,6801 Abercorn St,,Savannah,GA,31405,US,32.01532745,-81.11331177,2022-11-26 22:33:23
Denny's,1524 W South St,,Lebanon,IN,46052,US,40.04701996,-86.48706055,2022-11-27 09:25:05
Denny's,6388 Mills Drive,,Whitestown,IN,46075,US,39.95065308,-86.34720612,2022-11-27 09:52:19
Denny's,8808 N Michigan Rd,,Indianapolis,IN,46268,US,39.9148674,-86.22490692,2022-11-27 09:52:19
Denny's,199 Eisenhower Blvd,,Hanover,PA,17331,US,39.82472992,-76.98921967,2022-11-27 08:32:47
Denny's,1995 E Joppa Rd,,Baltimore,MD,21234,US,39.39825821,-76.54413605,2022-11-27 11:10:44
Denny's,6302 Ritchie Hwy,,Glen Burnie,MD,21061,US,39.20410156,-76.61473846,2022-11-27 11:10:44
Denny's,101 Orville Road,,Essex,MD,21221,US,39.32422638,-76.4491272,2022-11-27 11:10:44
Denny's,2095 West Street,,Annapolis,MD,21401,US,38.9839325,-76.54286194,2022-11-27 08:04:51
Denny's,115 Radio City Dr,,North Pekin,IL,61554,US,40.6249733,-89.6210556,2022-11-25 06:48:55
Denny's,940 Missouri Ave.,,Largo,FL,33770,US,27.92514992,-82.78723145,2022-11-26 21:32:43
Denny's,4999 34th St North,,Saint Petersburg,FL,33714,US,27.81707001,-82.67903137,2022-11-26 21:32:43
Denny's,410 Scranton Carbondale Hwy,,Scranton,PA,18508,US,41.46178818,-75.65525818,2022-11-25 06:48:33
Denny's,449 Pennsylvania 315,,Pittston,PA,18640,US,41.31476593,-75.75621033,2022-11-25 05:40:44
Denny's,488 Kidder St.,,Wilkes-Barre,PA,18702,US,41.25069427,-75.85352325,2022-11-25 05:40:44
Denny's,5800 S Franklin St,,Michigan City,IN,46360,US,41.66801071,-86.89329529,2022-11-25 02:43:07
Denny's,20565 Eureka Road,,Taylor,MI,48180,US,42.1975975,-83.23564148,2022-11-27 12:49:41
Denny's,1143 Deer Park Ave.,,North Babylon,NY,11703,US,40.73575211,-73.31991577,2022-11-27 06:34:05
Denny's,1390 South First St.,,San Jose,CA,95110,US,37.31681824,-121.87381744,2022-11-27 09:52:25
Denny's,1140 Hillsdale Ave,,San Jose,CA,95118,US,37.27457809,-121.87950134,2022-11-26 13:25:18
Denny's,2401 Lanai Ave,,San Jose,CA,95122,US,37.31959152,-121.82891846,2022-11-26 13:25:18
Denny's,1001 E Capitol,,San Jose,CA,95121,US,37.29925156,-121.82374573,2022-11-26 13:25:18
Denny's,1015 Blossom Hill Rd,,San Jose,CA,95123,US,37.2509613,-121.87094879,2022-11-26 13:25:18
Denny's,875 Cochrane Rd.,,Morgan Hill,CA,95037,US,37.15224457,-121.65522766,2022-11-26 13:25:18
Denny's,4646 TUSCARAWAS ST WEST,,CANTON,OH,44708,US,40.79482651,-81.43287659,2022-11-26 21:33:18
Denny's,2943 South Arlington Rd,,Akron,OH,44312,US,40.99139023,-81.49165344,2022-11-26 21:33:18
Denny's,1681 HOME AVE,,AKRON,OH,44310,US,41.11655426,-81.48464966,2022-11-26 21:33:18
Denny's,1256 W. High Extension,,New Philadelphia,OH,44663,US,40.49191284,-81.47310638,2022-11-25 13:26:24
Denny's,28 SAN PEBBLE DR  I-40  EXIT 85,,JACKSON,TN,38305,US,35.68288803,-88.777771,2022-11-21 05:47:50
Denny's,420 Centro Way,,Fort Collins,CO,80524,US,40.58182526,-105.00704956,2022-11-24 22:39:30
Denny's,1871 Catasauqua Road,,Allentown,PA,18109,US,40.64096832,-75.43132782,2022-11-27 00:38:21
Denny's,855 Rostraver Rd,,Belle Vernon,PA,15012,US,40.13789749,-79.84301758,2022-11-27 09:51:59
Denny's,122 Fitz Henry Road,,Smithton,PA,15479,US,40.16986465,-79.73188019,2022-11-27 09:51:59
Denny's,252 Washington Street,#200,Attleboro,MA,02703,US,41.92121887,-71.35684967,2022-11-27 02:38:57
Denny's,3401 Clemson Boulevard,,Anderson,SC,29621,US,34.54478073,-82.66993713,2022-11-25 06:21:48
Denny's,1283 Rt 300,,Newburgh,NY,12550,US,41.50707626,-74.0688858,2022-11-26 22:49:35
Denny's,243 William S Canning Boulevard,,Fall River,MA,02721,US,41.67369843,-71.16189575,2022-11-26 22:07:30
Denny's,84 Rt 93,,Hazleton,PA,18202,US,40.98143387,-76.02563477,2022-11-25 02:08:15
Denny's,1832 Old Minden Road,,Bossier City,LA,71111,US,32.51597977,-93.71430969,2022-11-25 05:10:24
Denny's,9080 Mansfield Rd,,Shreveport,LA,71118,US,32.40878677,-93.7988739,2022-11-25 05:10:24
Denny's,9510 Greenwood Road,,Greenwood,LA,71033,US,32.44475555,-93.978508,2022-11-25 05:10:24
Denny's,701 Eldorado Rd,,Bloomington,IL,61704,US,40.47312546,-88.95198822,2022-11-25 02:22:52
Denny's,1615 N. Main,,Normal,IL,61761,US,40.5309906,-88.99626923,2022-11-25 06:48:55
Denny's,9449 State Road 14,,Streetsboro,OH,44241,US,41.24248886,-81.35455322,2022-11-27 09:52:21
Denny's,510 W. Mission Ave,,Escondido,CA,92025,US,33.12857819,-117.09259796,2022-11-27 13:47:05
Denny's,6207 Wilson Mills Road,,Highland Heights,OH,44143,US,41.53938293,-81.45522308,2022-11-27 09:52:21
Denny's,494 Lincoln St,,Worcester,MA,01605,US,42.29485321,-71.77539062,2022-11-25 13:26:55
Denny's,3715 31st Street SW,,Great Falls,MT,59404,US,47.4703598,-111.35858917,2022-11-24 17:34:42
Denny's,160 Eastern Blvd.,,Canandaigua,NY,14424,US,42.87873077,-77.26329803,2022-11-25 09:27:16
Denny's,813 Canandaigua Rd,,Geneva,NY,14456,US,42.85626602,-77.01333618,2022-11-25 09:27:16
Denny's,3239 Macon Rd,,Columbus,GA,31907,US,,,2022-11-25 05:41:21
Denny's,1623 Oliver Road,,New Milford,PA,18834,US,41.82450867,-75.68195343,2022-11-25 06:48:33
Denny's,258 Retail Circle,,Morgantown,WV,26508,US,39.58044052,-79.95709229,2022-11-27 08:58:54
Denny's,2380 NW Hwy 19,,Crystal River,FL,34428,US,28.91855049,-82.61060333,2022-11-21 13:36:04
Denny's,1425 S. Nogales,,Rowland Heights,CA,91748,US,33.99148178,-117.88925171,2022-11-27 12:19:43
Denny's,3012 W Temple Ave,,Pomona,CA,91766,US,34.04104614,-117.79814148,2022-11-27 12:19:43
Denny's,1504 Gillette Rd,,Pomona,CA,91768,US,34.07377625,-117.778862,2022-11-27 12:19:43
Denny's,1401 Ripley Street,,Lake Station,IN,46405,US,41.58660126,-87.23908997,2022-11-27 02:46:45
Denny's,6171 Melton Dr,,Portage,IN,46368,US,41.59781265,-87.17465973,2022-11-27 02:46:45
Denny's,4355 Sonoma Blvd.,,Vallejo,CA,94589,US,38.13592148,-122.25655365,2022-11-27 12:02:17
Denny's,5525 N Sepulveda Blvd,,Sherman Oaks,CA,91411,US,34.17132187,-118.46665192,2022-11-27 12:02:22
Denny's,15540 Roscoe Boulevard,,Van Nuys,CA,91406,US,34.22113419,-118.47142029,2022-11-27 12:02:22
Denny's,16575 Sherman Way,,Van Nuys,CA,91406,US,34.20142746,-118.49428558,2022-11-27 11:47:55
Denny's,335 Tilton Rd,,Northfield,NJ,08225,US,39.38657761,-74.55638123,2022-11-26 13:18:32
Denny's,2297 N 2nd Street,,Millville,NJ,08332,US,39.42615509,-75.03921509,2022-11-26 13:18:32
Denny's,6241 Crawfordsville Rd,,Indianapolis,IN,46224,US,39.80042267,-86.26958466,2022-11-27 09:52:19
Denny's,4795 Kentucky Ave,,Indianapolis,IN,46221,US,39.6980629,-86.26499939,2022-11-27 09:52:19
Denny's,9769 East Us Highway 36,,Avon,IN,46123,US,39.76301956,-86.35002899,2022-11-27 09:52:19
Denny's,10367 Highway 59,,Wharton,TX,77488,US,29.32626152,-96.11975861,2022-11-25 02:08:06
Denny's,3944 Highway 17 S,,Richmond Hill,GA,31324,US,31.93053055,-81.32751465,2022-11-26 22:33:23
Denny's,4545 Frederica Street,,Owensboro,KY,42301,US,37.72652054,-87.12257385,2022-11-25 07:53:13
Denny's,1701 E. Monte Vista Ave,,Vacaville,CA,95688,US,38.37126541,-121.95928192,2022-11-26 13:18:48
Denny's,3500 Cheney Hwy,,Titusville,FL,32780,US,28.55437469,-80.84807587,2022-11-25 00:58:12
Denny's,1340 Tamiami Trail,,Port Charlotte,FL,33948,US,27.0129528,-82.1448288,2022-11-25 01:31:34
Denny's,1910 South McCall Rd.,,Englewood,FL,34223,US,26.93829727,-82.33511353,2022-11-25 01:31:34
Denny's,825 North Loop Drive,,Sullivan,MO,63080,US,38.22532272,-91.1587677,2022-11-27 11:28:44
Denny's,611 Gateway Avenue,,Mauston,WI,53948,US,43.7973938,-90.06110382,2022-11-25 05:10:55
Denny's,100 US Highway 79 S,,Henderson,TX,75652,US,32.15129471,-94.78665161,2022-11-25 13:26:15
Denny's,115 NE Morgan Lane,,Grants Pass,OR,97526,US,42.46207428,-123.32158661,2022-11-25 00:00:55
Denny's,200 S Hwy 49,,Jackson,CA,95642,US,38.34656906,-120.77182007,2022-11-24 17:12:02
Denny's,11107 N Oracle Road,,Oro Valley,AZ,85737,US,32.40775681,-110.94556427,2022-11-25 06:21:12
Denny's,4920 W Ina Rd,,Tucson,AZ,85741,US,,,2022-11-25 06:21:12
Denny's,315 W. Market Street,,Tiffin,OH,44883,US,41.11273956,-83.19123077,2022-11-24 14:12:24
Denny's,1310 24th St.,,Paso Robles,CA,93446,US,35.64178467,-120.6854248,2022-11-25 04:41:20
Denny's,1410 Seawall Blvd,,Galveston,TX,77550,US,29.29658699,-94.78053284,2022-11-27 02:16:25
Denny's,60 Ruby Drive,,Madisonville,KY,42431,US,37.32731628,-87.47907257,2022-11-27 10:13:11
Denny's,2059 E Main St,,Cortez,CO,81321,US,37.34852219,-108.55955505,2022-11-18 12:44:34
Denny's,224 Richmond Ave. E,,Mattoon,IL,61938,US,39.48540497,-88.3463974,2022-11-25 07:52:51
Denny's,2701 N. Atlantic Ave.,,Daytona Beach,FL,32118,US,29.26474953,-81.02735901,2022-11-26 23:06:48
Denny's,1641 Dunlawton Ave,,Port Orange,FL,32127,US,29.11655235,-81.02458954,2022-11-26 23:06:48
Denny's,110 Williamson Blvd,,Ormond Beach,FL,32174,US,29.25624275,-81.11367798,2022-11-26 23:06:48
Denny's,1830 STATE RD 44,,NEW SMYRNA BEACH,FL,32168,US,29.01388931,-80.94280243,2022-11-26 23:06:48
Denny's,480 Truck Inn Way,,Fernley,NV,89408,US,39.61500168,-119.21679688,2022-11-27 13:18:56
Denny's,246 Allegheny Blvd,,Brookville,PA,15825,US,41.17244339,-79.09631348,2022-11-25 02:09:01
Denny's,1501 Harrisburg Pike,,Carlisle,PA,17015,US,40.23508835,-77.12324524,2022-11-27 02:46:47
Denny's,4024 Vestal Parkway East,,Vestal,NY,13850,US,42.09538651,-75.97592926,2022-11-25 08:31:12
Denny's,1250 Upper Front St.,,Binghamton,NY,13901,US,42.15653992,-75.89489746,2022-11-25 08:31:12
Denny's,102 Fore Drive,,Wayland,MO,63472,US,40.39639664,-91.56996155,2022-11-25 02:21:57
Denny's,310 E Mccoy Blvd,,Tomah,WI,54660,US,44.01917648,-90.5029068,2022-11-20 02:03:52
Denny's,120 N Platinum Ave.,,Deming,NM,88030,US,32.26916885,-107.75637054,2022-11-20 03:17:12
Denny's,1000 Starlite Plaza,,Oakland,MD,21550,US,,,2022-11-27 09:25:11
Denny's,1129 Broadway,,King City,CA,93930,US,36.20499802,-121.13702393,2022-11-25 13:26:50
Denny's,2400 South 4th Route,,Sayre,OK,73662,US,35.26533127,-99.64073181,2022-11-20 05:37:30
Denny's,400 Transcon Lane,,Winslow,AZ,86047,US,35.01567459,-110.6735611,2022-11-20 07:10:28
Denny's,FM 1314,,Porter,TX,77365,US,,,2022-11-27 11:47:44
Denny's,104 China Lake Blvd,,Ridgecrest,CA,93555,US,35.62305069,-117.66931915,2022-11-24 12:57:11
Denny's,810 W Pierce St,,Carlsbad,NM,88220,US,32.43605042,-104.23634338,2022-11-24 19:11:42
Denny's,1014 N Main St,,Bishop,CA,93514,US,37.37174606,-118.39514923,2022-11-25 00:02:09
Denny's,2 Legacy Lane,,Tuba City,AZ,86045,US,,,2022-11-25 03:41:40
