company_name,address_line_1,address_line_2,city,state_alpha,postal_code,country_code,latitude,longitude,when_verified
Hardee's,1609 COLUMBIA AVENUE,,Franklin,TN,37064,US,35.90517044,-86.87464142,2022-11-30 14:43:30
Hardee's,1315 MURFREESBORO RD,,Franklin,TN,37064,US,35.91524887,-86.82646942,2022-11-30 14:43:30
Hardee's,4907 MAIN ST,,Spring Hill,TN,37174,US,35.77692032,-86.91587067,2022-11-30 14:43:30
Hardee's,7102 HIGHWAY 70 S,,Bellevue,TN,37221,US,36.07468033,-86.92218781,2022-11-30 14:43:30
Hardee's,4099 NOLENSVILLE ROAD,,Nashville,TN,37211,US,36.07992172,-86.72705078,2022-11-30 14:43:30
Hardee's,7003 CITY CENTER WAY,,Fairview,TN,37062,US,35.97351837,-87.12883759,2022-11-30 14:43:30
Hardee's,110 HAYWOOD LN,,Antioch,TN,37013,US,36.07051849,-86.68631744,2022-11-30 14:43:30
Hardee's,508 WALDRON ROAD,,La Vergne,TN,37086,US,35.99961853,-86.59705353,2022-11-30 14:43:30
Hardee's,2536 MURFREESBORO PIKE,,Nashville,TN,37217,US,36.07767868,-86.64135742,2022-11-30 14:43:30
Hardee's,1000 ACORN DRIVE,,Nashville,TN,37210,US,36.15060043,-86.69976807,2022-11-30 14:43:30
Hardee's,1865 S Crater Rd,,Petersburg,VA,23805,US,37.20635605,-77.38297272,2022-12-18 06:25:14
Hardee's,2135 COUNTY DRIVE,,PETERSBURG,VA,23803,US,37.2159462,-77.36605835,2022-12-18 06:25:14
Hardee's,NEC FOUNTAIN DRIVE AND COUNTY DRIVE,,DISPUTANTA,VA,23842,US,37.18212128,-77.31968689,2022-12-18 06:25:14
Hardee's,801 TEMPLE AVENUE,,COLONIAL HEIGHTS,VA,23834,US,37.25892639,-77.40061951,2022-12-18 06:25:14
Hardee's,1850 BOULEVARD,,COLONIAL HEIGHTS,VA,23834,US,37.2565155,-77.41169739,2022-12-18 06:25:14
Hardee's,5412 BOYDTON PLANK ROAD,,PETERSBURG,VA,23803,US,37.1979332,-77.46596527,2022-12-18 06:25:14
Hardee's,2915 OAK LAWN,,HOPEWELL,VA,23860,US,37.28188705,-77.30513763,2022-12-18 06:25:14
Hardee's,310 WEST RANDOLPH ROAD,,HOPEWELL,VA,23860,US,37.30323792,-77.2854538,2022-12-18 06:25:14
Hardee's,1901 WEST HUNDRED ROAD,,CHESTER,VA,23836,US,37.35310364,-77.39732361,2022-12-18 06:25:14
Hardee's,12401 JEFFERSON DAVIS HWY,,CHESTER,VA,23831-2320,US,37.3563118,-77.41298676,2022-12-18 06:25:14
Hardee's,12401 JEFFERSON DAVIS HWY,,CHESTER,VA,23831,US,37.3562851,-77.41300964,2022-12-18 06:25:14
Hardee's,239 SOUTH COUNTY DRIVE,,WAVERLY,VA,23890,US,37.03310776,-77.08803558,2022-12-18 06:25:15
Hardee's,4801 Jefferson Davis Hwy,,Richmond,VA,23234,US,37.46078873,-77.44180298,2022-12-18 06:25:07
Hardee's,10210 HULL STREET ROAD,,MIDLOTHIAN,VA,23112,US,37.44275284,-77.58546448,2022-12-18 06:25:12
Hardee's,13736 Hull Street Road,,Midlothian,VA,23112,US,37.40873337,-77.65600586,2022-12-18 06:25:12
Hardee's,4841 LABURNUM AVE,,RICHMOND,VA,23231,US,37.51898956,-77.35018921,2022-12-18 06:25:07
Hardee's,7917 Midlothian Turnpike,,Richmond,VA,23235,US,37.49735641,-77.54286194,2022-12-18 06:25:07
Hardee's,1120 E NINE MILE ROAD,,HIGHLAND SPRINGS,VA,23075,US,37.53800201,-77.31938171,2022-12-18 06:25:07
Hardee's,11121 MIDLOTHIAN TURNPIKE,,RICHMOND,VA,23235,US,37.50565338,-77.60219574,2022-12-18 06:25:12
Hardee's,921 MYERS STREET,,RICHMOND,VA,23230,US,37.56302643,-77.46923065,2022-12-18 06:25:07
Hardee's,347 N Main St,,Marion,VA,24354,US,36.83612823,-81.51633453,2022-12-18 06:25:14
Hardee's,506 WHITETOP RD,,CHILHOWIE,VA,24319,US,36.79391479,-81.67975616,2022-12-18 06:25:14
Hardee's,2136 FINCASTLE TURNPIKE,,TAZEWELL,VA,24651,US,37.13040924,-81.49278259,2022-12-18 06:25:16
Hardee's,131 CEDAR HILL LANE,,CEDAR BLUFF,VA,24609,US,37.08761597,-81.75900269,2022-12-18 06:25:16
Hardee's,SECOND ST,,RICHLANDS,VA,24641,US,37.08952713,-81.80719757,2022-12-18 06:25:16
Hardee's,1015 E MAIN ST,,WYTHEVILLE,VA,24382,US,36.95195007,-81.07283783,2022-12-18 06:25:15
Hardee's,602 Cummings St.,,Abingdon,VA,24210,US,36.70092392,-81.97423553,2022-12-18 06:25:14
Hardee's,799 E MAIN ST,,JEFFERSON,NC,28640,US,36.42061234,-81.45680237,2022-12-18 06:25:14
Hardee's,701 S College Ave,,Bluefield,VA,24605,US,37.24365234,-81.2633667,2022-12-18 06:25:16
Hardee's,141 PIONEER VILLAGE DR,,MOUNTAIN CITY,TN,37683-1843,US,36.46471024,-81.80205536,2022-12-06 10:04:05
Hardee's,1273 EAST MAIN STREET,,LEBANON,VA,24266,US,36.90501022,-82.05819702,2022-12-18 06:25:14
Hardee's,417 S Main ST ,,Sparta,NC,28675,US,36.50134277,-81.11553192,2022-12-18 06:25:14
Hardee's,901 BLUEFIELD AVE,,BLUEFIELD,WV,24701-2743,US,37.26487732,-81.23506927,2022-12-18 06:25:17
Hardee's,425 MAIN ST,,GALAX,VA,24333,US,36.65827179,-80.92248535,2022-12-18 06:25:15
Hardee's,1950 Lee Hwy,,Bristol,VA,24201,US,36.62317657,-82.16267395,2022-12-18 06:25:14
Hardee's,1306 STAFFORD DR,,PRINCETON,WV,24740-2468,US,37.36097717,-81.10062408,2022-12-06 10:04:05
Hardee's,1820 Euclid Avenue,,Bristol,VA,24201,US,36.59845734,-82.20243835,2022-12-18 06:25:14
Hardee's,115 N MAIN ST,,HILLSVILLE,VA,24343,US,36.76343155,-80.73462677,2022-12-18 06:25:15
Hardee's,1032 MAIN STREET,,PULASKI,VA,24301,US,37.04819107,-80.76140594,2022-12-18 06:25:17
Hardee's,170 Meadowfield Ln,,Princeton,WV,24740,US,37.36135483,-81.05513,2022-12-18 06:25:17
Hardee's,700 Western Blvd,,Tarboro,NC,27886,US,35.89288712,-77.55195618,2022-12-18 06:25:07
Hardee's,1200 E RALEIGH BLVD,,Rocky Mount,NC,27801,US,35.94498062,-77.77622986,2022-12-18 06:25:07
Hardee's,1831 N WESLEYAN BLVD,,ROCKY MOUNT,NC,27804,US,35.9851799,-77.78353882,2022-12-18 06:25:07
Hardee's,886 W RALEIGH BLVD,,ROCKY MOUNT,NC,27803,US,35.93240738,-77.81191254,2022-12-18 06:25:07
Hardee's,3651 N Hathaway Blvd,,Sharpsburg,NC,27878,US,35.86810684,-77.82901001,2022-12-18 06:25:07
Hardee's,600 N WESLEYAN BLVD,,ROCKY MOUNT,NC,27804,US,35.96234894,-77.82086945,2022-12-18 06:25:07
Hardee's,3525 SUNSET AVE,,ROCKY MOUNT,NC,27804,US,35.96321487,-77.84812164,2022-12-18 06:25:07
Hardee's,608 South Main Street,,Scotland Neck,NC,27874,US,36.12960052,-77.42024994,2022-12-18 07:39:41
Hardee's,7047 NC HIGHWAY 4,,BATTLEBORO,NC,27809,US,36.06116104,-77.81723022,2022-12-18 06:25:07
Hardee's,4891 SUNSET AVENUE,,ROCKY MOUNT,NC,27804,US,35.96944046,-77.89626312,2022-12-18 06:25:07
Hardee's,1300 N MEMORIAL DR,,GREENVILLE,NC,27834,US,35.63308334,-77.37781525,2022-12-18 06:25:09
Hardee's,105 SOUTH MCDANIEL STREET,,ENFIELD,NC,27823,US,36.17937469,-77.6641922,2022-12-18 06:25:07
Hardee's,361 W WASHINGTON ST,,NASHVILLE,NC,27856,US,35.97736359,-77.97206116,2022-12-18 06:25:09
Hardee's,2313 Forest Hills Road,,Wilson,NC,27893,US,35.73225784,-77.95267487,2022-12-18 06:25:21
Hardee's,3741 CHARLES BOULEVARD,,GREENVILLE,NC,27858,US,35.565979,-77.3496933,2022-12-18 06:25:09
Hardee's,2837 US HIGHWAY 301 SOUTH,,WILSON,NC,27893,US,35.69149399,-77.94355011,2022-12-18 06:25:21
Hardee's,1585 WASHINGTON ST,,WILLIAMSTON,NC,27892,US,35.83292389,-77.06638336,2022-12-18 07:39:41
Hardee's,1411 W 3RD ST,,AYDEN,NC,28513,US,35.47520065,-77.43430328,2022-12-18 06:25:13
Hardee's,6474 DEANS ST,,BAILEY,NC,27807,US,35.78081894,-78.11864471,2022-12-18 06:25:21
Hardee's,2427 W 5Th St,,Washington,NC,27889,US,35.5832901,-77.09415436,2022-12-18 06:25:13
Hardee's,1290 JOHN SMALL AVE,,WASHINGTON,NC,27889,US,35.54679871,-77.03238678,2022-12-18 06:25:13
Hardee's,US HWY 17 & FIRST STREET,,CHOCOWINITY,NC,27817,US,35.51331711,-77.10017395,2022-12-18 06:25:13
Hardee's,104 NC 561 EAST,,AHOSKIE,NC,27910,US,36.271595,-76.96945953,2022-12-18 07:39:41
Hardee's,870 Hwy 117 N,,Belhaven,NC,27810,US,35.54966354,-76.62936401,2022-12-18 06:25:13
Hardee's,200 Ocean Highway S.,,Hertford,NC,27944,US,36.17847061,-76.46219635,2022-12-18 07:39:41
Hardee's,875 GOLD HILL RD,,FORT MILL,SC,29708,US,35.06086731,-80.96264648,2022-12-18 06:25:09
Hardee's,101 TOM HALL ST,,FORT MILL,SC,29715,US,35.00845337,-80.94248199,2022-12-18 06:25:09
Hardee's,4201 EAST W.T.HARRIS BLVD,,CHARLOTTE,NC,28215,US,35.25798416,-80.73568726,2022-12-18 06:25:09
Hardee's,5024 SUNSET ROAD,,CHARLOTTE,NC,28269,US,35.30751038,-80.8438797,2022-12-18 06:25:09
Hardee's,8428 UNIVERSITY CITY BLVD,,CHARLOTTE,NC,28213,US,35.29555511,-80.74116516,2022-12-18 06:25:09
Hardee's,611 NORTH MAIN STREET,,BELMONT,NC,28012,US,35.25410843,-81.04359436,2022-12-18 06:25:09
Hardee's,2165 MANA COURT,,ROCK HILL,SC,29730,US,34.93922806,-80.96893311,2022-12-18 06:25:07
Hardee's,188 S HERLONG AVE,,ROCK HILL,SC,29732,US,34.95665359,-81.04769135,2022-12-18 06:25:07
Hardee's,716 MCADENVILLE RD,,LOWELL,NC,28098,US,35.26413727,-81.09163666,2022-12-18 06:25:09
Hardee's,4280 HWY 49 N,,HARRISBURG,NC,28075,US,35.32264328,-80.64807892,2022-12-18 06:25:09
Hardee's,14101 STATESVILLE RD,,HUNTERSVILLE,NC,28078,US,35.40830994,-80.85503387,2022-12-18 06:25:09
Hardee's,441 HIGHWAY 27 S,,STANLEY,NC,28164,US,35.35419846,-81.09020233,2022-12-18 06:25:11
Hardee's,1901 South York Road,,Gastonia,NC,28052,US,35.23834229,-81.19485474,2022-12-18 06:25:11
Hardee's,503 W ROOSEVELT BLVD,,Monroe,NC,28110,US,34.98694992,-80.53045654,2022-12-18 06:25:09
Hardee's,206 S MAIN ST,,CLOVER,SC,29710,US,35.1094017,-81.22944641,2022-12-18 06:25:07
Hardee's,2135 N CHESTER ST,,GASTONIA,NC,28052,US,35.28894424,-81.18850708,2022-12-18 06:25:11
Hardee's,1125 FILBERT HIGHWAY,,YORK,SC,29745,US,35.01742935,-81.25205994,2022-12-18 06:25:07
Hardee's,547 NORTH CHURCH STREET,,CONCORD,NC,28025,US,35.42501831,-80.59456635,2022-12-18 06:25:09
Hardee's,512 W Main St,,Locust,NC,28097,US,35.2582016,-80.43165588,2022-12-18 06:25:09
Hardee's,297 LANCASTER BYP E,,LANCASTER,SC,29720,US,34.73416901,-80.76926422,2022-12-18 06:25:09
Hardee's,1514 Sunset Ave,,Clinton,NC,28328,US,34.99239731,-78.35395813,2022-12-18 06:25:11
Hardee's,205 Hwy 24,,Roseboro,NC,28382,US,34.95656204,-78.50984192,2022-12-18 06:25:11
Hardee's,105 W Weeksdale Dr,,Newton Grove,NC,28366,US,35.2460289,-78.35502625,2022-12-18 06:25:07
Hardee's,Hwy 50 Limestone Rd,,Kenansville,NC,28349,US,34.96121216,-77.96173859,2022-12-18 06:25:11
Hardee's,205 W. NC HIGHWAY 55,,MOUNT OLIVE,NC,28365,US,35.21333313,-78.06931305,2022-12-18 06:25:07
Hardee's,5189 CLINTON RD,,STEDMAN,NC,28391,US,35.03513718,-78.75109863,2022-12-18 06:25:12
Hardee's,873 Long Branch Rd,,Dunn,NC,28334,US,35.27002716,-78.61493683,2022-12-18 06:25:07
Hardee's,807 N Norwood St,,Wallace,NC,28466,US,34.7445755,-77.99672699,2022-12-18 06:25:11
Hardee's,600 E Jackson Blvd,,Erwin,NC,28339,US,35.32296753,-78.64512634,2022-12-18 06:25:07
Hardee's,213 S. Poplar Street,,Elizabethtown,NC,28337,US,34.62636948,-78.60624695,2022-12-18 06:25:12
Hardee's,360 N EASTERN BLVD,,FAYETTEVILLE,NC,28301,US,35.05228806,-78.86380768,2022-12-18 06:25:21
Hardee's,14622 Nc Hwy 87 West,,Tar Heel,NC,28392,US,34.73421478,-78.79142761,2022-12-18 06:25:12
Hardee's,120 West Main Street,,Beulaville,NC,28518,US,34.92417908,-77.77449036,2022-12-18 06:25:11
Hardee's,6397 RAMSEY ST,,FAYETTEVILLE,NC,28311,US,35.15715408,-78.86986542,2022-12-16 15:27:47
Hardee's,220 E ASH ST,,GOLDSBORO,NC,27530,US,35.38451385,-77.99307251,2022-12-18 06:25:07
Hardee's,3405 MURCHISON ROAD,,FAYETTEVILLE,NC,28311,US,35.09727478,-78.91633606,2022-12-18 06:25:21
Hardee's,4260 LEGION ROAD,,HOPE MILLS,NC,28348,US,34.98249817,-78.93321228,2022-12-18 06:25:14
Hardee's,101 SMITH STREET,,PRINCETON,NC,27569,US,35.47075653,-78.15606689,2022-12-18 06:25:07
Hardee's,1109 11TH ST,,GOLDSBORO,NC,27534,US,35.39757919,-77.96659088,2022-12-18 06:25:11
Hardee's,459 NORTH MCKINLEY,,COATS,NC,27521,US,35.41437912,-78.67379761,2022-12-18 06:25:07
Hardee's,112 Fayetteville Road,,Raeford,NC,28376,US,34.97890854,-79.23601532,2022-12-18 06:25:21
Hardee's,610 E 4Th Ave,,Red Springs,NC,28377,US,34.81061172,-79.17427826,2022-12-18 06:25:14
Hardee's,5508 RAEFORD RD,,FAYETTEVILLE,NC,28304,US,35.04475021,-78.97665405,2022-12-18 06:25:21
Hardee's,2497 HOPE MILLS ROAD,,FAYETTEVILLE,NC,28304,US,35.0057106,-78.9666748,2022-12-18 06:25:21
Hardee's,3803 Morganton Road,,Fayetteville,NC,28314,US,35.06680679,-78.9512558,2022-12-18 06:25:21
Hardee's,2241 N Pinehurst St,,Aberdeen,NC,28315,US,35.12753677,-79.43638611,2022-12-18 06:25:21
Hardee's,1304 Sandhills Blvd N,,Aberdeen,NC,28315,US,35.14998245,-79.41794586,2022-12-18 06:25:21
Hardee's,507 W Broad St,,Saint Pauls,NC,28384,US,34.80701065,-78.97665405,2022-12-18 06:25:14
Hardee's,642 N Patterson Street,,Maxton,NC,28364,US,34.74646378,-79.34492493,2022-12-18 06:25:14
Hardee's,4480 BUFFALO LAKE RD,,CAMERON,NC,28326,US,35.27616119,-79.06884766,2022-12-16 15:27:42
Hardee's,317 W 3Rd Street,,Pembroke,NC,28372,US,34.68138123,-79.19706726,2022-12-18 06:25:14
Hardee's,1675 S. Main St,,Laurinburg,NC,28352,US,34.75391006,-79.47827148,2022-12-18 06:25:14
Hardee's,9760 Andrew Jackson Hwy,,Laurel Hill,NC,28351,US,34.80641174,-79.54456329,2022-12-18 06:25:14
Hardee's,101 JACKSON COURT,,LUMBERTON,NC,28358,US,34.66722107,-79.0038681,2022-12-18 06:25:14
Hardee's,1018 MONROE ST,,CARTHAGE,NC,28327,US,35.34089661,-79.40055847,2022-12-18 06:25:21
Hardee's,912 N W Broad Street,,Murfreesboro,TN,37129,US,35.85640717,-86.40319061,2022-12-18 06:25:07
Hardee's,1851 Memorial Blvd,,Murfreesboro,TN,37129,US,35.87232971,-86.385849,2022-12-18 06:25:07
Hardee's,2382 Old Fort Parkway,,Murfreesboro,TN,37128,US,35.84606552,-86.44116974,2022-12-18 06:25:07
Hardee's,1685 Middle Tennessee Blvd,,Murfreesboro,TN,37130,US,35.83520508,-86.37408447,2022-12-18 06:25:07
Hardee's,2983 S Church St,,Murfreesboro,TN,37127,US,35.78678131,-86.400177,2022-12-18 06:25:07
Hardee's,255 S Lowry St,,Smyrna,TN,37167,US,35.97600174,-86.5124054,2022-12-18 06:25:07
Hardee's,150 COUCHVILLE INDUSTRIAL PIKE,,MOUNT JULIET,TN,37122,US,36.067379,-86.42838287,2022-12-18 06:25:09
Hardee's,508 Waldron Road,,La Vergne,TN,37086,US,35.99958801,-86.59669495,2022-12-18 06:25:07
Hardee's,806 W Main St,,Woodbury,TN,37190,US,35.82829285,-86.07926178,2022-12-18 06:25:07
Hardee's,2536 Murfreesboro Pike,,Nashville,TN,37217,US,36.07766724,-86.64136505,2022-12-18 06:25:07
Hardee's,110 Haywood Ln,,Antioch,TN,37013,US,36.07040405,-86.68624878,2022-12-18 06:25:07
Hardee's,4099 Nolensville Road,,Nashville,TN,37211,US,36.07992172,-86.72705841,2022-12-18 06:25:09
Hardee's,701 S Cumberland,,Lebanon,TN,37087,US,36.18870544,-86.29605865,2022-12-18 06:25:14
Hardee's,1315 Murfreesboro Rd,,Franklin,TN,37064,US,35.91524887,-86.82645416,2022-12-18 06:25:07
Hardee's,5775 Old Hickory Blvd,,Hermitage,TN,37076,US,36.17210007,-86.60173798,2022-12-18 06:25:09
Hardee's,1039 W Main St,,Lebanon,TN,37087,US,36.21263123,-86.31859589,2022-12-18 06:25:14
Hardee's,1000 Acorn Drive,,Nashville,TN,37210,US,36.15066147,-86.70022583,2022-12-18 06:25:09
Hardee's,101 Lineberry Blvd,,Mount Juliet,TN,37122,US,36.23141098,-86.51022339,2022-12-18 06:25:09
Hardee's,1609 Columbia Avenue,,Franklin,TN,37064,US,35.90483856,-86.87481689,2022-12-18 06:25:07
Hardee's,310 Madison St,,Shelbyville,TN,37160,US,35.48839569,-86.45650482,2022-12-18 06:25:07
Hardee's,500 South Breiel Blvd,,Middletown,OH,45044,US,39.50527191,-84.35564423,2022-12-18 06:25:07
Hardee's,8209 Springboro Pike,,Miamisburg,OH,45342,US,39.63108826,-84.22618866,2022-12-18 06:25:07
Hardee's,2217  S EDWIN C MOSES BLVD,,DAYTON,OH,45417,US,39.73339844,-84.20877838,2022-12-18 06:25:07
Hardee's,W Eads Pkwy,,Lawrenceburg,IN,47025,US,39.08782196,-84.87706757,2022-12-18 07:39:41
Hardee's,4010 Colonel Glenn Hwy,,Beaver Creek,OH,45431,US,39.77495575,-84.08028412,2022-12-18 06:25:07
Hardee's,801 Arlington Road,,Brookville,OH,45309,US,39.84622574,-84.42570496,2022-12-18 06:25:07
Hardee's,2500 Needmore Rd,,Dayton,OH,45414,US,39.81938553,-84.18674469,2022-12-18 06:25:07
Hardee's,7508 Brandt Pike,,Huber Heights,OH,45424,US,39.86099243,-84.10389709,2022-12-18 06:25:07
Hardee's,1925 Chester Blvd,,Richmond,IN,47374,US,39.85876083,-84.88819885,2022-12-18 06:25:07
Hardee's,500 N Eastern Ave,,Connersville,IN,47331,US,39.64104843,-85.13750458,2022-12-18 06:25:07
Hardee's,13023 US HIGHWAY 35 NW,,JEFFERSONVILLE,OH,43128-9508,US,39.6207695,-83.61265564,2022-12-18 07:39:41
Hardee's,2698 US HIGHWAY 35 N,,RICHMOND,IN,47374-1380,US,39.87097168,-84.93328857,2022-12-18 06:25:07
Hardee's,2242 S Limestone St,,Springfield,OH,45505,US,39.89533615,-83.81104279,2022-12-18 06:25:07
Hardee's,26 Broadway,,New York,NY,10004,US,40.70520401,-74.01316833,2022-12-18 06:25:12
Hardee's,2715 TAYLOR RD,,MONTGOMERY,AL,36117-6849,US,32.34039307,-86.17861938,2022-12-18 06:25:20
Hardee's,5401 ATLANTA HWY,,MONTGOMERY,AL,36109-3325,US,32.38242722,-86.21337128,2022-12-18 06:25:20
Hardee's,906 ANN ST,,MONTGOMERY,AL,36107-2902,US,32.36989594,-86.27139282,2022-12-18 06:25:20
Hardee's,1115 COLISEUM BLVD,,MONTGOMERY,AL,36110-2446,US,32.4059639,-86.26582336,2022-12-18 06:25:20
Hardee's,1183 W SOUTH BLVD,,MONTGOMERY,AL,36105-3024,US,32.32758331,-86.34025574,2022-12-18 06:25:20
Hardee's,5091 US HIGHWAY 231,,WETUMPKA,AL,36092-3124,US,32.5260582,-86.20750427,2022-12-18 06:25:20
Hardee's,79 FOLMAR PKWY,,HOPE HULL,AL,36043,US,32.26839447,-86.35626221,2022-12-18 06:25:20
Hardee's,2525 COBBS FORD RD,,PRATTVILLE,AL,36066-7709,US,32.4607048,-86.3938446,2022-12-18 06:25:20
Hardee's,3691 HIGHWAY 14,,MILLBROOK,AL,36054-1842,US,32.51733398,-86.37617493,2022-12-18 06:25:20
Hardee's,706 EAST MAIN STREET,,PRATTVILE,AL,36067,US,32.45973206,-86.455513,2022-12-18 06:25:20
Hardee's,1300 GILMER AVE,,TALLASSEE,AL,36078-1026,US,32.55084991,-85.917099,2022-12-18 06:25:07
Hardee's,1249 CHEROKEE RD,,ALEXANDER CITY,AL,35010-3920,US,32.93083191,-85.94783783,2022-12-18 06:25:19
Hardee's,1102 HIGHWAY 231 S,,TROY,AL,36081-3002,US,31.78463554,-85.95910645,2022-12-18 06:25:19
Hardee's,800 Wire Rd,,Auburn,AL,36832,US,32.59320831,-85.50541687,2022-12-18 06:25:07
Hardee's,912 FORTDALE RD,,GREENVILLE,AL,36037-3611,US,31.84732246,-86.63950348,2022-12-18 06:25:20
Hardee's,742 S FOREST AVE,,LUVERNE,AL,36049-7015,US,31.70528793,-86.26456451,2022-12-18 06:25:19
Hardee's,2530 Pepperell Pkwy,,Opelika,AL,36801,US,32.63795471,-85.41421509,2022-12-18 06:25:07
Hardee's,499 W TROY ST,,BRUNDIDGE,AL,36010-1200,US,31.72000694,-85.82978058,2022-12-18 06:25:19
Hardee's,1201 HIGHLAND AVE,,SELMA,AL,36703,US,32.43177795,-87.02179718,2022-12-18 06:25:21
Hardee's,1533 E 162ND STREET,,SOUTH HOLLAND,IL,60473,US,41.60139847,-87.57959747,2022-12-18 06:25:12
Hardee's,5223 Franklin Street,,Michigan City,IN,46360,US,41.67237091,-86.89452362,2022-12-18 06:25:13
Hardee's,1575 Highway 20 W,,Mcdonough,GA,30253,US,33.41967773,-84.18914795,2022-12-18 07:39:41
Hardee's,182 Keys Ferry St,,Mcdonough,GA,30253,US,33.44730377,-84.14124298,2022-12-18 07:39:41
Hardee's,3056 Jodeco Rd,,Mcdonough,GA,30253,US,33.48193359,-84.2149353,2022-12-18 07:39:41
Hardee's,1619 N Expressway,,Griffin,GA,30223,US,33.27571106,-84.29187775,2022-12-18 06:25:11
Hardee's,2930 Highway 138 Sw,,Conyers,GA,30094,US,33.61846161,-84.08179474,2022-12-18 07:39:41
Hardee's,3062 Anvil Block Rd,,Ellenwood,GA,30294,US,33.63427734,-84.28965759,2022-12-18 07:39:41
Hardee's,975 N Glynn St,,Fayetteville,GA,30214,US,33.46939468,-84.44528961,2022-12-18 07:39:41
Hardee's,2516 Bouldercrest Rd Se,,Atlanta,GA,30316,US,33.68818283,-84.3102951,2022-12-18 07:39:41
Hardee's,3112 Hwy 278 W,,Covington,GA,30014,US,33.602314,-83.85977173,2022-12-18 06:25:11
Hardee's,7940 Senoia Rd,,Fairburn,GA,30213,US,33.53830338,-84.57620239,2022-12-18 07:39:41
Hardee's,5259 Stone Mountain Hwy,,Stone Mountain,GA,30087,US,33.82384872,-84.11203003,2022-12-18 07:39:41
Hardee's,1727 Mountain Industrial Blvd,,Tucker,GA,30083,US,33.83272171,-84.19802856,2022-12-18 07:39:41
Hardee's,323 College St,,Barnesville,GA,30204,US,33.05284882,-84.15371704,2022-12-18 06:25:11
Hardee's,4201 Sharpsburg Mccullum Rd,,Newnan,GA,30265,US,33.44229507,-84.69216156,2022-12-18 06:25:14
Hardee's,5335 Lawrenceville Hwy Nw,,Lilburn,GA,30047,US,33.8875885,-84.15775299,2022-12-18 07:39:41
Hardee's,260 N Lee St,,Forsyth,GA,31029,US,33.04092407,-83.93913269,2022-12-18 06:25:11
Hardee's,4360 Atlanta Hwy,,Loganville,GA,30052,US,33.83975983,-83.90450287,2022-12-18 07:39:41
Hardee's,940 Thornton Rd,,Lithia Springs,GA,30122,US,33.77916336,-84.60617065,2022-12-18 07:39:41
Hardee's,4850 Floyd Rd Sw,,Mableton,GA,30126,US,33.83621979,-84.57681274,2022-12-18 07:39:41
Hardee's,6671 Roswell Rd Ne,,Sandy Springs,GA,30328,US,33.93661499,-84.37718201,2022-12-18 07:39:41
Hardee's,701 College Rd,,Greensboro,NC,27410,US,36.08817291,-79.88887024,2022-12-18 07:39:41
Hardee's,2921 Randleman Rd,,Greensboro,NC,27406,US,36.01557922,-79.80400085,2022-12-18 07:39:41
Hardee's,1501 Westover Ter,,Greensboro,NC,27408,US,36.09238052,-79.81588745,2022-12-18 07:39:41
Hardee's,2850 N MAIN ST,,HIGH POINT,NC,27265-2827,US,35.99552155,-80.03170013,2022-12-18 07:39:41
Hardee's,10001 S Main St,,Archdale,NC,27263,US,35.90316772,-79.95182037,2022-12-18 07:39:41
Hardee's,813 S Main St,,Kernersville,NC,27284,US,36.11152649,-80.08668518,2022-12-18 07:39:41
Hardee's,704 W Academy St,,Randleman,NC,27317,US,35.82314301,-79.81967163,2022-12-18 06:25:21
Hardee's,1025 RANDOLPH STREET,,THOMASVILLE,NC,27360,US,35.86425018,-80.07186127,2022-12-18 07:39:41
Hardee's,3002 Old Hollow Rd,,Walkertown,NC,27051,US,36.16845703,-80.15083313,2022-12-18 07:39:41
Hardee's,10 E Clemmonsville Rd,,Winston Salem,NC,27127,US,36.04737091,-80.23822021,2022-12-18 07:39:41
Hardee's,3351 Sides Branch Rd,,Winston Salem,NC,27127,US,36.0307579,-80.26118469,2022-12-18 07:39:41
Hardee's,1590 First St,,Winston Salem,NC,27104,US,36.09277725,-80.26756287,2022-12-18 07:39:41
Hardee's,2756 ALAMANCE ROAD,,BURLINGTON,NC,27215,US,36.06314087,-79.46935272,2022-12-18 06:25:21
Hardee's,2124 WEST WEBB AVENUE,,BURLINGTON,NC,27217,US,36.11029053,-79.46733093,2022-12-18 06:25:21
Hardee's,1702 FREEWAY DRIVE,,REIDSVILLE,NC,27320,US,36.35259628,-79.69210815,2022-12-18 07:39:41
Hardee's,1074 N Main St,,Walnut Cove,NC,27052,US,36.31282043,-80.13845062,2022-12-18 07:39:41
Hardee's,2349 MAPLE AVENUE,,BURLINGTON,NC,27215,US,36.06627655,-79.43032074,2022-12-18 07:39:41
Hardee's,457 E Dixie Dr,,Asheboro,NC,27203,US,35.68930054,-79.81004333,2022-12-18 06:25:21
Hardee's,604 BURTON STREET,,MADISON,NC,27025,US,36.40216827,-79.9709549,2022-12-18 07:39:41
Hardee's,521 SALEM STREET,,LEXINGTON,NC,27292,US,35.83349991,-80.25302124,2022-12-18 07:39:41
Hardee's,1923 W PALMETTO ST,,FLORENCE,SC,29501-3916,US,34.18881226,-79.80701447,2022-12-18 06:25:16
Hardee's,2302 W LUCAS ST,,FLORENCE,SC,29501,US,34.23459625,-79.80723572,2022-12-18 06:25:16
Hardee's,1606 S IRBY ST,,Florence,SC,29505,US,34.16348648,-79.76474762,2022-12-18 06:25:16
Hardee's,217 S MAIN ST,,DARLINGTON,SC,29532,US,34.30023956,-79.86864471,2022-12-18 06:25:17
Hardee's,315 East Smith Street,,Timmonsville,SC,29161,US,34.13388443,-79.93651581,2022-12-18 06:25:16
Hardee's,6448 E Old Marion Hwy,,Florence,SC,29506,US,34.20087814,-79.59612274,2022-12-18 06:25:14
Hardee's,909 S FIFTH ST,,HARTSVILLE,SC,29550,US,34.36055374,-80.06732941,2022-12-18 06:25:17
Hardee's,115 S Ron Mcnair Blvd,,Lake City,SC,29560,US,33.87507629,-79.76016235,2022-12-18 06:25:16
Hardee's,216 S Main St,,Bishopville,SC,29010,US,34.21608734,-80.25231934,2022-12-18 06:25:16
Hardee's,2680 E Highway 76,,Mullins,SC,29574,US,34.18783188,-79.34159088,2022-12-18 06:25:14
Hardee's,301 N 2Nd St,,Dillon,SC,29536,US,34.41877365,-79.36985779,2022-12-18 06:25:14
Hardee's,801 MARKET ST,,CHERAW,SC,29520,US,34.69075394,-79.89546204,2022-12-18 06:25:18
Hardee's,493 N GUIGNARD DR,,SUMTER,SC,29150,US,33.93239594,-80.36860657,2022-12-18 06:25:16
Hardee's,215 W Main St,,Kingstree,SC,29556,US,33.66270065,-79.8328476,2022-12-18 06:25:16
Hardee's,301 S Main St,,Hemingway,SC,29554,US,33.75070572,-79.44803619,2022-12-18 06:25:16
Hardee's,2784 Highway 501 E,,Aynor,SC,29511,US,33.99419022,-79.20334625,2022-12-18 06:25:14
Hardee's,102 Sunset Drive,,Manning,SC,29102,US,33.69004059,-80.21413422,2022-12-18 06:25:16
Hardee's,4305 WRIGHTSBORO ROAD,,GROVETOWN,GA,30813,US,33.47490692,-82.1295166,2022-12-18 07:39:41
Hardee's,4360 WASHINGTON RD,,Evans,GA,30809,US,33.54045486,-82.1337738,2022-12-18 07:39:41
Hardee's,3309 Peach Orchard Rd,,Augusta,GA,30906,US,33.40470886,-82.02672577,2022-12-18 07:39:41
Hardee's,3696 WINDSOR SPRING RD,,HEPHZIBAH,GA,30815,US,33.37771606,-82.07082367,2022-12-18 07:39:41
Hardee's,313 EDGEFIELD RD,,NORTH AUGUSTA,SC,29841,US,33.52855682,-81.94730377,2022-12-18 07:39:41
Hardee's,4445 JEFFERSON DAVIS HWY,,CLEARWATER,SC,29822,US,33.50317001,-81.90106201,2022-12-18 07:39:41
Hardee's,310 Milledgeville Road,,Harlem,GA,30814,US,33.41629028,-82.31742096,2022-12-18 07:39:41
Hardee's,1733 WHISKEY RD,,AIKEN,SC,29803,US,33.52633286,-81.7218399,2022-12-18 07:39:41
Hardee's,2648 COLUMBIA HIGHWAY N,,AIKEN,SC,29805,US,33.6631012,-81.6737442,2022-12-18 07:39:41
Hardee's,112 ELM STREET,,LINCOLNTON,GA,30817,US,33.78872299,-82.47973633,2022-12-18 07:39:41
Hardee's,101 S MINE ST,,MC CORMICK,SC,29835,US,33.91094208,-82.29528046,2022-12-18 07:39:41
Hardee's,12733 Main St,,Williston,SC,29853,US,33.39991379,-81.41931915,2022-12-18 07:39:41
Hardee's,143 East Church Street,,Batesburg-Leesville,SC,29070,US,33.91555405,-81.5267334,2022-12-18 07:39:41
Hardee's,10262 Dunbarton Blvd,,Barnwell,SC,29812,US,33.24517822,-81.37278748,2022-12-18 07:39:41
Hardee's,130 MAIN ST E,,NINETY SIX,SC,29666-1004,US,34.17486191,-82.02187347,2022-12-18 07:39:41
Hardee's,630 BYPASS 25 NE,,GREENWOOD,SC,29646,US,34.20216751,-82.13396454,2022-12-18 07:39:41
Hardee's,5870 Wall Triana Hwy,,Madison,AL,35758,US,34.75154877,-86.75024414,2022-12-18 06:25:19
Hardee's,8827 Madison Blvd,,Madison,AL,35758,US,34.6774025,-86.74835205,2022-12-18 06:25:19
Hardee's,3751 Al Highway 53,,Huntsville,AL,35806,US,34.79240799,-86.66911316,2022-12-18 06:25:19
Hardee's,2015 Drake Ave,,Huntsville,AL,35801,US,34.70495224,-86.59128571,2022-12-18 06:25:19
Hardee's,300 Andrew Jackson Way,,Huntsville,AL,35801,US,34.73914719,-86.57637024,2022-12-18 06:25:19
Hardee's,1110 S Jefferson St,,Athens,AL,35611,US,34.79063416,-86.97220612,2022-12-18 06:25:19
Hardee's,11909 Highway 231 431 N,,Meridianville,AL,35759,US,34.85908127,-86.57189941,2022-12-18 06:25:19
Hardee's,104 Green Cove Rd Se,,Huntsville,AL,35803,US,34.59565735,-86.56129456,2022-12-18 06:25:19
Hardee's,810 6Th Ave Northeast,,Decatur,AL,35601,US,34.60826492,-86.97837067,2022-12-18 06:25:19
Hardee's,2515 Mountain Cove Dr,,Owens Cross Roads,AL,35763,US,34.66044998,-86.48555756,2022-12-18 06:25:19
Hardee's,3241 Point Mallard Pkwy Se,,Decatur,AL,35603,US,34.53609848,-86.91040039,2022-12-18 06:25:19
Hardee's,1708 Beltline Rd,,Decatur,AL,35601,US,34.57089615,-87.01242065,2022-12-18 06:25:19
Hardee's,26094 MAIN ST,,ARDMORE,TN,38449-3158,US,34.99401093,-86.85363007,2022-12-18 06:25:19
Hardee's,5975 HIGHWAY 72 E,,GURLEY,AL,35748,US,34.70029449,-86.38411713,2022-12-18 06:25:19
Hardee's,10139 HIGHWAY 431 S,,NEW HOPE,AL,35760-9390,US,34.5503273,-86.43197632,2022-12-18 06:25:19
Hardee's,680 Highway 31 Sw,,Hartselle,AL,35640,US,34.43899918,-86.94071198,2022-12-18 06:25:19
Hardee's,1116 HUNTSVILLE HWY,,FAYETTEVILLE,TN,37334-3616,US,35.14110565,-86.56785583,2022-12-18 06:25:07
Hardee's,16191 Highway 72,,Rogersville,AL,35652,US,34.82483673,-87.29481506,2022-12-18 06:25:19
Hardee's,3541 CATHEDRAL CAVERNS HWY,,GRANT,AL,35747,US,34.50113678,-86.26231384,2022-12-18 06:25:19
Hardee's,11838 Al  Hwy 157,,Moulton,AL,35650,US,34.48722839,-87.27523804,2022-12-18 06:25:19
Hardee's,7961 EAST BRAINERD ROAD,,CHATTANOOGA,TN,37421-3221,US,35.0054512,-85.1521759,2022-12-18 06:25:17
Hardee's,6013 SHALLOWFORD ROAD,,CHATTANOOGA,TN,37421-1612,US,35.0542717,-85.18656921,2022-12-18 06:25:17
Hardee's,6305 RINGGOLD ROAD,,CHATTANOOGA,TN,37412-3833,US,34.98998642,-85.21083832,2022-12-18 06:25:17
Hardee's,4831 HWY 58,,CHATTANOOGA,TN,37416-1826,US,35.09206009,-85.1842804,2022-12-18 06:25:17
Hardee's,9201 LEE HIGHWAY,,OOLTEWAH,TN,37363-8828,US,35.08490753,-85.06287384,2022-12-18 06:25:17
Hardee's,1086 BATTLEFIELD PARKWAY,,FT OGLETHORPE,GA,30742-3884,US,34.95242691,-85.24642181,2022-12-18 06:25:17
Hardee's,300 MCFARLAND AVE,,ROSSVILLE,GA,30741-1200,US,34.9822731,-85.28701019,2022-12-18 06:25:17
Hardee's,5486 ALABAMA HWY,,RINGGOLD,GA,30736,US,34.91206741,-85.12619019,2022-12-18 06:25:17
Hardee's,5525 HIXSON PIKE,,HIXSON,TN,37343-3240,US,35.14582443,-85.2233963,2022-12-18 06:25:17
Hardee's,4007 MCCAHILL ROAD,,CHATTANOOGA,TN,37415-2741,US,35.12185669,-85.29346466,2022-12-18 06:25:17
Hardee's,220 BROWNS FERRY RD,,CHATTANOOGA,TN,37419-1722,US,35.02653503,-85.36338806,2022-12-18 06:25:17
Hardee's,12876 N. HIGHWAY 27,,CHICKAMAUGA,GA,30707,US,34.88339233,-85.26933289,2022-12-18 06:25:17
Hardee's,9398 RECO DR,,SODDY DAISY,TN,37379-4811,US,35.23627472,-85.19710541,2022-12-18 06:25:17
Hardee's,2410 BLUE SPRINGS RD SE,,CLEVELAND,TN,37311-0911,US,35.13483429,-84.88892365,2022-12-18 06:25:21
Hardee's,2005 SPRING PLACE ROAD,,CLEVELAND,TN,37323,US,35.13130188,-84.85707855,2022-12-18 06:25:21
Hardee's,1651 25TH STREET NW,,CLEVELAND,TN,37311-3612,US,35.19060898,-84.88436127,2022-12-18 06:25:21
Hardee's,1301 GLENWOOD AVE,,DALTON,GA,30721-2605,US,34.79671478,-84.96290588,2022-12-18 06:25:17
Hardee's,110 BERNHAM DR N W,,CLEVELAND,TN,37312-2978,US,35.21299744,-84.87023926,2022-12-18 06:25:21
Hardee's,580 E WALNUT AVE,,DALTON,GA,30721,US,34.76124191,-84.96047211,2022-12-18 06:25:17
Hardee's,813 N Main St,,La Fayette,GA,30728,US,34.71982956,-85.28031158,2022-12-18 06:25:17
Hardee's,1331 RED WOLF BLVD,,JONESBORO,AR,72401-4580,US,35.82954788,-90.6692276,2022-12-18 06:25:07
Hardee's,301 LINWOOD,,PARAGOULD,AR,72450,US,36.05381393,-90.50468445,2022-12-18 06:25:07
Hardee's,1700 MALCOLM,,NEWPORT,AR,72112,US,35.60535431,-91.25845337,2022-12-18 06:25:07
Hardee's,3783 E HIGHWAY 18,,BLYTHEVILLE,AR,72315,US,35.92830276,-89.87054443,2022-12-18 06:25:07
Hardee's,950 EAST MAIN,,PIGGOTT,AR,72454,US,36.38212967,-90.17887878,2022-12-18 06:25:07
Hardee's,9111 Merrill Road,,Jacksonville,FL,32225,US,30.35291481,-81.55058289,2022-12-16 15:27:42
Hardee's,12771 Atlantic Blvd,,Jacksonville,FL,32225,US,30.31946945,-81.47187805,2022-12-16 15:27:42
Hardee's,9210 Baymeadows Rd,,Jacksonville,FL,32256,US,30.220438,-81.56697083,2022-12-16 15:27:42
Hardee's,6914 Norwood Avenue,,Jacksonville,FL,32208,US,30.3805294,-81.67128754,2022-12-16 15:27:42
Hardee's,498 Busch Dr,,Jacksonville,FL,32218,US,30.42948151,-81.65300751,2022-12-16 15:27:42
Hardee's,675 Nautica Dr,,Jacksonville,FL,32218,US,30.47922516,-81.63651276,2022-12-16 15:27:42
Hardee's,11191 San Jose Blvd,,Jacksonville,FL,32223,US,30.17165756,-81.62847137,2022-12-18 06:25:18
Hardee's,873 Lane Ave S,,Jacksonville,FL,32205,US,30.30979347,-81.75147247,2022-12-18 06:25:20
Hardee's,6680 Commonwealth Ave,,Jacksonville,FL,32254,US,30.33528137,-81.75868225,2022-12-18 06:25:20
Hardee's,6852 Wilson Ave,,Jacksonville,FL,32210,US,30.26955986,-81.75750732,2022-12-18 06:25:20
Hardee's,8040 Normandy Blvd,,Jacksonville,FL,32221,US,30.29151917,-81.78225708,2022-12-18 06:25:20
Hardee's,542309 Us Hwy 1,,Callahan,FL,32011,US,30.56278038,-81.8292923,2022-12-16 15:27:42
Hardee's,1323 N Orange Ave,,Green Cove Springs,FL,32043,US,30.00723457,-81.69376373,2022-12-18 06:25:18
Hardee's,2730 Blanding Blvd,,Middleburg,FL,32068,US,30.06137466,-81.87687683,2022-12-18 06:25:18
Hardee's,2605 OSBORNE RD,,SAINT MARYS,GA,31558,US,30.74720001,-81.57275391,2022-12-16 15:27:44
Hardee's,2605 OSBORNE RD,,SAINT MARYS,GA,31558-8905,US,30.75162506,-81.57671356,2022-12-16 15:27:44
Hardee's,1490 S 6Th St,,Macclenny,FL,32063,US,30.26231384,-82.12335205,2022-12-18 06:25:17
Hardee's,435 S Temple Ave,,Starke,FL,32091,US,29.9413662,-82.11157227,2022-12-18 06:25:17
Hardee's,241 US Hwy 17 S,,East Palatka,FL,32131,US,29.64330864,-81.6101532,2022-12-18 06:25:18
Hardee's,7401 State Rd 21,,Keystone Heights,FL,32656,US,29.79158211,-82.02613068,2022-12-18 06:25:18
Hardee's,7102 Highway 70 S,,Bellevue,TN,37221,US,36.0747261,-86.92221832,2022-12-18 06:25:09
Hardee's,650 Gallatin Pike South,,Madison,TN,37115,US,36.25596619,-86.71502686,2022-12-18 06:25:09
Hardee's,1436 Robinson Road,,Old Hickory,TN,37138,US,36.25619888,-86.65518188,2022-12-18 06:25:09
Hardee's,400 S Cartwright,,Goodlettsville,TN,37072,US,36.32253647,-86.70780182,2022-12-18 06:25:09
Hardee's,4907 Main St,,Spring Hill,TN,37174,US,35.77696609,-86.91588593,2022-12-18 06:25:07
Hardee's,420 S Main St,,Ashland City,TN,37015,US,36.27127075,-87.06123352,2022-12-18 06:25:09
Hardee's,23240 JOHN R RD,,HAZEL PARK,MI,48030-1474,US,42.46337891,-83.10372925,2022-12-18 06:25:13
Hardee's,1609 NADEAU ROAD,,FRENCHTOWN,MI,48162,US,41.96513748,-83.34522247,2022-12-18 07:39:41
Hardee's,14137 PLANK ROAD,,MILAN,MI,48160,US,42.07646179,-83.66809082,2022-12-18 07:39:41
Hardee's,35155 MOUND RD,,STERLING HEIGHTS,MI,48310-4716,US,42.55181122,-83.04928589,2022-12-18 06:25:13
Hardee's,3342 VIRGINIA BEACH BLVD,,VIRGINIA BEACH,VA,23452,US,36.84225464,-76.08892059,2022-12-18 06:25:21
Hardee's,4261 HOLLAND RD,,VIRGINIA BEACH,VA,23452,US,36.81990814,-76.12164307,2022-12-18 06:25:21
Hardee's,3252 HOLLAND ROAD,,VIRGINIA BEACH,VA,23453,US,36.79697418,-76.0832901,2022-12-18 06:25:21
Hardee's,1951 LYNNHAVEN PARKWAY,,VIRGINIA BEACH,VA,23453,US,36.7942276,-76.11870575,2022-12-18 06:25:21
Hardee's,2248 VIRGINIA BEACH BLVD,,VIRGINIA BEACH,VA,23454,US,36.84215927,-76.04751587,2022-12-18 06:25:21
Hardee's,701 INDEPENDENCE BLVD,,VIRGINIA BEACH,VA,23455,US,36.86266327,-76.13285828,2022-12-16 15:27:47
Hardee's,305 DORSET AVENUE,,VIRGINIA BEACH,VA,23462,US,36.8446312,-76.15244293,2022-12-18 06:25:21
Hardee's,836 KEMPSVILLE ROAD,,VIRGINIA BEACH,VA,23464,US,36.81538391,-76.16499329,2022-12-18 06:25:21
Hardee's,2188 GREAT NECK SQUARE,,VIRGINIA BEACH,VA,23454,US,36.87437439,-76.03813171,2022-12-18 06:25:15
Hardee's,1494 GENERAL BOOTH BLVD,,VIRGINIA BEACH,VA,23454,US,36.78904343,-75.99671173,2022-12-18 06:25:21
Hardee's,6075 INDIAN RIVER RD,,VIRGINIA BEACH,VA,23464,US,36.81137466,-76.2044754,2022-12-18 06:25:21
Hardee's,5859 E VIRGINIA BEACH BLVD,,NORFOLK,VA,23502,US,36.8550415,-76.20379639,2022-12-18 06:25:13
Hardee's,1201 BAKER ROAD,,VIRGINIA BEACH,VA,23455,US,36.88378525,-76.18385315,2022-12-18 06:25:13
Hardee's,3908 PRINCESS ANNE ROAD,,NORFOLK,VA,23502,US,36.86668015,-76.23658752,2022-12-18 06:25:13
Hardee's,1506 MOUNT PLEASANT ROAD,,CHESAPEAKE,VA,23322,US,36.71489716,-76.18432617,2022-12-18 06:25:11
Hardee's,2301 E LITTLE CREEK RD,,NORFOLK,VA,23518,US,36.91470718,-76.22026825,2022-12-18 06:25:13
Hardee's,377 CAMPOSTELLA ROAD,,NORFOLK,VA,23523,US,36.83633423,-76.26409149,2022-12-18 06:25:13
Hardee's,1029 BATTLEFIELD BLVD NORTH,,CHESAPEAKE,VA,23320,US,36.75754547,-76.24850464,2022-12-18 06:25:11
Hardee's,4006 BAINBRIDGE BLVD,,CHESAPEAKE,VA,23324,US,36.78613281,-76.28232574,2022-12-18 06:25:11
Hardee's,7480 TIDEWATER DRIVE,,NORFOLK,VA,23505,US,36.91174316,-76.25517273,2022-12-18 06:25:13
Hardee's,905 BIG BETHEL ROAD,,HAMPTON,VA,23666-1901,US,37.04310989,-76.42855835,2022-12-18 06:25:13
Hardee's,905 BIG BETHEL ROAD,,HAMPTON,VA,23666,US,37.04310608,-76.42860413,2022-12-18 06:25:13
Hardee's,306 ABERDEEN RD,,HAMPTON,VA,23661,US,37.00770187,-76.40175629,2022-12-18 06:25:13
Hardee's,8104 NEW MARKET DR,,HAMPTON,VA,23605,US,37.02083588,-76.43835449,2022-12-18 06:25:13
Hardee's,63 EAST MERCURY BLVD,,HAMPTON,VA,23669,US,37.04388046,-76.34125519,2022-12-18 06:25:13
Hardee's,11017 Jefferson Avenue,,Newport News,VA,23601,US,37.05517197,-76.46420288,2022-12-18 06:25:13
Hardee's,11014 WARWICK BLVD,,NEWPORT NEWS,VA,23601,US,37.04498672,-76.47309875,2022-12-18 06:25:13
Hardee's,241 SOUTH MALLORY STREET,,HAMPTON,VA,23663-1841,US,37.01649094,-76.32495117,2022-12-18 06:25:13
Hardee's,241 SOUTH MALLORY STREET,,HAMPTON,VA,23663,US,37.01648712,-76.32496643,2022-12-18 06:25:13
Hardee's,5001 VICTORY BLVD,,YORKTOWN,VA,23693,US,37.11600876,-76.46424103,2022-12-18 06:25:13
Hardee's,5408 GEORGE WASHINGTON HY,,GRAFTON,VA,23692,US,37.15927887,-76.46268463,2022-12-18 06:25:15
Hardee's,8405 HAMPTON BLVD,,NORFOLK,VA,23505,US,36.92945099,-76.31834412,2022-12-18 06:25:13
Hardee's,430 DENBIGH BLVD,,NEWPORT NEWS,VA,23608,US,37.130867,-76.5326767,2022-12-18 06:25:16
Hardee's,13165 JEFFERSON AVE,,NEWPORT NEWS,VA,23608,US,37.16488647,-76.54140472,2022-12-18 06:25:15
Hardee's,5900 W HIGH STREET,,PORTSMOUTH,VA,23703,US,36.86112976,-76.39594269,2022-12-18 06:25:13
Hardee's,1909 S CHURCH ST,,SMITHFIELD,VA,23430,US,36.96320724,-76.60536957,2022-12-18 06:25:20
Hardee's,505 WEST 21ST STREET,,NORFOLK,VA,23517,US,36.86885834,-76.29241943,2022-12-18 06:25:13
Hardee's,1941 Madison Street,,Clarksville,TN,37043,US,36.5149498,-87.29941559,2022-12-18 06:25:17
Hardee's,1480 Tiny Town Rd,,Clarksville,TN,37042,US,36.62644196,-87.37314606,2022-12-18 06:25:17
Hardee's,1580 Fort Campbell Blvd,,Clarksville,TN,37042,US,36.57273102,-87.40718842,2022-12-18 06:25:17
Hardee's,11700 FORT CAMPBELL BLVD.,,HOPKINSVILLE,KY,42262,US,36.70940018,-87.45555115,2022-12-18 06:25:17
Hardee's,6503 Highway 41-A,,Pleasant View,TN,37146,US,36.39894485,-87.03078461,2022-12-18 06:25:09
Hardee's,3050 Fort Campbell Blvd,,Hopkinsville,KY,42240,US,36.83731461,-87.47697449,2022-12-18 06:25:17
Hardee's,2002 Memorial Blvd,,Springfield,TN,37172,US,36.49544144,-86.87931824,2022-12-18 06:25:09
Hardee's,501 Hester Drive,,White House,TN,37188,US,36.46840668,-86.67821503,2022-12-18 06:25:09
Hardee's,100 Suzanne Dr,,Dickson,TN,37055,US,36.02293396,-87.33693695,2022-12-18 06:25:15
Hardee's,807 S Main St,,Franklin,KY,42134,US,36.70918274,-86.57583618,2022-12-18 06:25:17
Hardee's,7003 City Center Way,,Fairview,TN,37062,US,35.97352219,-87.12882233,2022-12-18 06:25:09
Hardee's,411 S Broadway St,,Portland,TN,37148,US,36.57164383,-86.51278687,2022-12-18 06:25:17
Hardee's,840 N MAIN ST,,GREENVILLE,KY,42345-1762,US,37.22661972,-87.16793823,2022-12-18 06:25:17
Hardee's,3444 South High Street,,Columbus,OH,43207,US,39.89158249,-82.99624634,2022-12-18 07:39:41
Hardee's,6023 ALUM CREEK DR,,OBETZ,OH,43207,US,39.84489441,-82.9376297,2022-12-18 07:39:41
Hardee's,9901 SCHUSTER WAY,,ETNA,OH,43018,US,39.94486618,-82.67850494,2022-12-18 07:39:41
Hardee's,300 W Main St,,Circleville,OH,43113,US,39.6034584,-82.94882965,2022-12-18 07:39:41
Hardee's,2001 State Route 540,,BELLEFONTAINE,OH,43311,US,40.37129211,-83.7260437,2022-12-18 06:25:07
Hardee's,2404 Central Ave,,Billings,MT,59102,US,45.76932144,-108.57681274,2022-12-18 06:25:07
Hardee's,608 N 27Th St,,Billings,MT,59101,US,45.78721237,-108.50959778,2022-12-18 06:25:07
Hardee's,548 Main St,,Billings,MT,59105,US,45.80923462,-108.47342682,2022-12-18 06:25:07
Hardee's,1270 N Highway 47,,Hardin,MT,59034,US,45.74973297,-107.6115799,2022-12-18 06:25:20
Hardee's,1240 CEDAR ROAD,,CHESAPEAKE,VA,23322,US,36.7172966,-76.28370667,2022-12-18 07:39:41
Hardee's,109 S GEORGE WASHINGTON,,CHESAPEAKE,VA,23323,US,36.74001694,-76.34371948,2022-12-18 07:39:41
Hardee's,864 N. George Washington Hwy,,Chesapeake,VA,23323,US,36.77046967,-76.34552765,2022-12-18 07:39:41
Hardee's,1433 George Washington,,Chesapeake,VA,23323,US,36.792202,-76.32880402,2022-12-18 06:25:11
Hardee's,850 LONDON BLVD,,PORTSMOUTH,VA,23704,US,36.8372612,-76.30814362,2022-12-18 06:25:13
Hardee's,5705 PORTSMOUTH BLVD,,PORTSMOUTH,VA,23701,US,36.81948471,-76.38169098,2022-12-18 07:39:41
Hardee's,410 CARATOKE HWY,,MOYOCK,NC,27958,US,36.53027725,-76.18437958,2022-12-18 07:39:41
Hardee's,3401 Plantation Road NE,,Roanoke,VA,24012,US,37.30678558,-79.93140411,2022-12-18 06:25:13
Hardee's,4201 WILLIAMSON ROAD NW,,ROANOKE,VA,24012,US,37.31123352,-79.94980621,2022-12-18 06:25:13
Hardee's,2301 ORANGE AVENUE NE,,ROANOKE,VA,24012,US,37.29050064,-79.90909576,2022-12-18 06:25:13
Hardee's,3011 HERSHBERGER ROAD,,ROANOKE,VA,24017,US,37.30472565,-79.98022461,2022-12-18 06:25:13
Hardee's,605 9TH STREET SE,,ROANOKE,VA,24013,US,37.26879501,-79.92918396,2022-12-18 06:25:13
Hardee's,7404 WILLIAMSON ROAD,,ROANOKE,VA,24019-4239,US,37.34814835,-79.95269775,2022-12-18 06:25:13
Hardee's,2398 PETERS CREEK RD NW,,ROANOKE,VA,24017,US,37.31524658,-80.00565338,2022-12-18 06:25:13
Hardee's,1557 E. MAIN STREET,,SALEM,VA,24153,US,37.29849625,-80.02809906,2022-12-18 06:25:13
Hardee's,2860 LEE HIGHWAY SOUTH,,TROUTVILLE,VA,24175,US,37.38754272,-79.90171051,2022-12-18 06:25:13
Hardee's,1255 ELECTRIC ROAD,,SALEM,VA,24153,US,37.27529144,-80.03749084,2022-12-18 06:25:13
Hardee's,4060 ELECTRIC ROAD,,ROANOKE,VA,24018,US,37.22518158,-79.98258209,2022-12-18 06:25:13
Hardee's,3729 BRAMBLETON AVE SW,,ROANOKE,VA,24018,US,37.2352829,-80.00572205,2022-12-18 06:25:13
Hardee's,2038 W. MAIN ST,,SALEM,VA,24153,US,37.28726959,-80.09430695,2022-12-18 06:25:13
Hardee's,505 E MAIN ST,,BEDFORD,VA,24523,US,37.33354187,-79.51876068,2022-12-18 06:25:13
Hardee's,2347 ROANOKE STREET,,CHRISTIANSBURG,VA,24073,US,37.13568878,-80.36295319,2022-12-18 06:25:13
Hardee's,904 PRICES FORK ROAD,,BLACKSBURG,VA,24060,US,37.23196411,-80.4338913,2022-12-18 06:25:13
Hardee's,2880 MARKET STREET,,CHRISTIANSBURG,VA,24073,US,37.16878128,-80.42087555,2022-12-18 06:25:13
Hardee's,103 ROANOKE ST,,CHRISTIANSBURG,VA,24073,US,37.13003922,-80.40523529,2022-12-18 06:25:13
Hardee's,1122 S ALLEGHANY AVENUE,,COVINGTON,VA,24426,US,37.78179932,-79.98642731,2022-12-18 06:25:13
Hardee's,402 W MAIN ST,,FLOYD,VA,24091,US,36.91202164,-80.31678772,2022-12-18 06:25:14
Hardee's,2520 Delk Rd Se,,Marietta,GA,30067,US,33.92206192,-84.48046875,2022-12-18 07:39:41
Hardee's,3069 Cobb Pkwy,,Kennesaw,GA,30152,US,34.02856445,-84.64884949,2022-12-18 07:39:41
Hardee's,891 Holcomb Bridge Rd,,Roswell,GA,30075,US,34.02837372,-84.33656311,2022-12-18 07:39:41
Hardee's,1097 Highway 92,,Acworth,GA,30102,US,34.08105087,-84.65473938,2022-12-18 06:25:13
Hardee's,1266 Merchants Dr,,Dallas,GA,30132,US,33.9103241,-84.79977417,2022-12-18 07:39:41
Hardee's,161 Marietta Hwy,,Canton,GA,30114,US,34.24246597,-84.49505615,2022-12-18 06:25:13
Hardee's,104 S Tennesee St,,Cartersville,GA,30120,US,34.16545868,-84.79319,2022-12-18 06:25:18
Hardee's,161 Commerce Dr,,Villa Rica,GA,30180,US,33.72558594,-84.94084167,2022-12-18 06:25:18
Hardee's,630 Buford Dr,,Lawrenceville,GA,30046,US,33.97566223,-83.98693085,2022-12-18 07:39:41
Hardee's,150 N Cedar Bluff Road,,Knoxville,TN,37923,US,35.91378784,-84.08712769,2022-12-18 06:25:11
Hardee's,3718 Western Ave,,Knoxville,TN,37921,US,35.97421265,-83.97331238,2022-12-18 06:25:09
Hardee's,6760 Clinton Hwy,,Knoxville,TN,37912,US,36.00755692,-84.02653503,2022-12-18 06:25:09
Hardee's,609 Campbell Station Rd,,Knoxville,TN,37934,US,35.89459991,-84.17463684,2022-12-18 06:25:12
Hardee's,2919 Tazewell Pike,,Knoxville,TN,37918,US,36.02509308,-83.92375946,2022-12-18 06:25:09
Hardee's,2105 E Broadway,,Maryville,TN,37804,US,35.77889633,-83.9519043,2022-12-18 06:25:17
Hardee's,1575 Robert C. Jackson Dr.,,Maryville,TN,37801,US,35.75460052,-84.0134964,2022-12-18 06:25:17
Hardee's,7437 Maynardville Pike,,Knoxville,TN,37938,US,36.08833313,-83.92401886,2022-12-18 06:25:09
Hardee's,1516 E Lamar Alexander Pkwy,,Maryville,TN,37804,US,35.75473785,-83.95093536,2022-12-18 06:25:17
Hardee's,210 Clinch Ave,,Clinton,TN,37716,US,36.091465,-84.13020325,2022-12-18 06:25:09
Hardee's,2601 Us Highway 411 S,,Maryville,TN,37801,US,35.71621704,-84.01667786,2022-12-18 06:25:17
Hardee's,541 HWY 321 N,,LENOIR CITY,TN,37771,US,35.80875015,-84.262146,2022-12-18 06:25:17
Hardee's,107 Buffalo Rd,,Clinton,TN,37716,US,36.16483307,-84.08358765,2022-12-18 06:25:09
Hardee's,528 E Tri County Blvd,,Oliver Springs,TN,37840,US,36.03480911,-84.32788849,2022-12-18 06:25:12
Hardee's,2825 Maynardville Hwy,,Maynardville,TN,37807,US,36.22846222,-83.84212494,2022-12-18 06:25:09
Hardee's,2212 HWY 72 NORTH,,LOUDON,TN,37774-5718,US,35.72040558,-84.36496735,2022-12-18 06:25:17
Hardee's,334 West Main Street,,Sevierville,TN,37862,US,35.87140274,-83.57316589,2022-12-18 06:25:11
Hardee's,1001 HIGHWAY 411,,VONORE,TN,37885-2442,US,35.59104919,-84.23404694,2022-12-18 06:25:17
Hardee's,1260 Parkway (Us441),,Sevierville,TN,37862,US,35.84341812,-83.57128143,2022-12-18 06:25:11
Hardee's,935 N Kentucky St,,Kingston,TN,37763,US,35.87851715,-84.50939941,2022-12-18 06:25:12
Hardee's,11705 E Us Highway 92,,Seffner,FL,33584,US,28.00146484,-82.30170441,2022-12-18 06:25:18
Hardee's,36502 State Rd 54,,Zephyrhills,FL,33541,US,28.22953033,-82.21286774,2022-12-18 06:25:18
Hardee's,1713 James Redman Pkwy,,Plant City,FL,33563,US,27.99755859,-82.12203979,2022-12-18 06:25:18
Hardee's,3795 34Th St N,,Saint Petersburg,FL,33713,US,27.80622673,-82.67894745,2022-12-18 06:25:18
Hardee's,8407 Us Highway 19,,Port Richey,FL,34668,US,28.27920532,-82.71875763,2022-12-18 06:25:18
Hardee's,402 S Tamiami Trail,,Ruskin,FL,33570,US,27.71556282,-82.4334259,2022-12-18 06:25:18
Hardee's,2050 W Memorial Blvd,,Lakeland,FL,33815,US,28.05416489,-81.98979187,2022-12-18 06:25:19
Hardee's,515 E Canal St,,Mulberry,FL,33860,US,27.89443016,-81.96905518,2022-12-18 06:25:18
Hardee's,6292 COMMERCIAL WAY,,WEEKI WACHEE,FL,34613-6329,US,28.52156067,-82.56952667,2022-12-18 06:25:19
Hardee's,1685 W Jefferson St,,Brooksville,FL,34601,US,28.5519886,-82.42028046,2022-12-18 06:25:19
Hardee's,300 E Van Fleet Drive,,Bartow,FL,33830,US,27.90448189,-81.84148407,2022-12-18 06:25:19
Hardee's,126 Magnolia Ave,,Auburndale,FL,33823,US,28.05902863,-81.78508759,2022-12-18 06:25:19
Hardee's,342 Shinn Blvd,,Lake Alfred,FL,33850,US,28.08891869,-81.73062134,2022-12-18 06:25:20
Hardee's,28199 Hwy 27,,Dundee,FL,33838,US,28.01826477,-81.63168335,2022-12-18 06:25:20
Hardee's,39837 Us Hwy 27,,Davenport,FL,33837,US,28.17781639,-81.63906097,2022-12-18 06:25:20
Hardee's,266 W Broad St,,Groveland,FL,34736,US,28.56074715,-81.8571167,2022-12-18 06:25:19
Hardee's,2370 RUSSELLVILLE RD,,BOWLING GREEN,KY,42101,US,36.96844482,-86.47987366,2022-12-18 06:25:17
Hardee's,127 CUMBERLAND TRACE RD,,BOWLING GREEN,KY,42103,US,36.93297195,-86.41578674,2022-12-18 06:25:17
Hardee's,592 INTERSTATE DRIVE,,BOWLING GREEN,KY,42101,US,37.00888443,-86.37428284,2022-12-18 06:25:17
Hardee's,241 BRENNER ST,,BOWLING GREEN,KY,42101,US,37.03574371,-86.33843231,2022-12-18 06:25:17
Hardee's,127 VETERANS WAY,,MORGANTOWN,KY,42261-8842,US,37.22903442,-86.69219971,2022-12-18 06:25:17
Hardee's,240 S L ROGER WELLS BLVD,,GLASGOW,KY,42141,US,36.99640656,-85.9312973,2022-12-18 06:25:13
Hardee's,2000 EDMONTON ROAD,,GLASGOW,KY,42141,US,37.01011276,-85.88075256,2022-12-18 06:25:13
Hardee's,5213 Highway 31 E,,Westmoreland,TN,37186,US,36.55176926,-86.23684692,2022-12-18 06:25:14
Hardee's,406 S MAIN ST,,LEITCHFIELD,KY,42754-1024,US,37.47456741,-86.29496002,2022-12-18 06:25:13
Hardee's,417 Highway 52 Byp W,,Lafayette,TN,37083,US,36.52019501,-86.0368042,2022-12-18 06:25:14
Hardee's,1808 MAIN ST,,BEAVER DAM,KY,42320-9500,US,37.4314537,-86.88469696,2022-12-18 06:25:17
Hardee's,452 E Main Street,,Gallatin,TN,37066,US,36.39093399,-86.43675995,2022-12-18 06:25:17
Hardee's,325 S 2Nd St,,Coshocton,OH,43812,US,40.27069092,-81.86953735,2022-12-18 07:39:41
Hardee's,2333 E High St,,New Philadelphia,OH,44663,US,40.46194458,-81.40684509,2022-12-18 07:39:41
Hardee's,815 S Parker St,,Olathe,KS,66061,US,38.87149811,-94.83501434,2022-12-18 06:25:09
Hardee's,10500 Metcalf Ave,,Overland Park,KS,66212,US,38.93804169,-94.66816711,2022-12-18 06:25:09
Hardee's,12113 Blue Ridge Extension,,Grandview,MO,64030,US,38.90468216,-94.52838135,2022-12-18 06:25:11
Hardee's,5373 East Bannister Road,,Kansas City,MO,64137,US,38.95270538,-94.52695465,2022-12-18 06:25:11
Hardee's,8021 State Ave,,Kansas City,KS,66112,US,39.11595917,-94.76644897,2022-12-18 06:25:09
Hardee's,1100 Sw 3Rd St,,Lees Summit,MO,64081,US,38.91176987,-94.39646912,2022-12-18 06:25:11
Hardee's,6323 Independence Ave,,Kansas City,MO,64125,US,39.1044693,-94.50786591,2022-12-18 06:25:09
Hardee's,4011 S Noland Rd,,Independence,MO,64055,US,39.0483551,-94.41448975,2022-12-18 06:25:11
Hardee's,6250 N Oak Trfy,,Gladstone,MO,64118,US,39.2074852,-94.57691193,2022-12-18 06:25:09
Hardee's,16800 E Gudgell Rd,,Independence,MO,64055,US,39.07258606,-94.37941742,2022-12-18 06:25:11
Hardee's,8170 Nw Prairie View Rd,,Kansas City,MO,64151,US,39.24261856,-94.65927124,2022-12-18 06:25:09
Hardee's,17701 E Us Highway 24,,Independence,MO,64056,US,39.12089157,-94.36894226,2022-12-18 06:25:11
Hardee's,4925 S 4Th St,,Leavenworth,KS,66048,US,39.27022552,-94.89933777,2022-12-18 06:25:09
Hardee's,910 Sw Missouri Route 7,,Blue Springs,MO,64014,US,39.00824356,-94.27201843,2022-12-18 06:25:11
Hardee's,914 South  291 Hwy,,Liberty,MO,64068,US,39.23719406,-94.43496704,2022-12-18 06:25:09
Hardee's,203 E 27TH AVE,,OTTAWA,KS,66067-3821,US,38.57280731,-95.26548004,2022-12-18 06:25:11
Hardee's,401 S. Broadway,,Oak Grove,MO,64075,US,39.01251221,-94.12825012,2022-12-18 06:25:13
Hardee's,E Topeka Service Area 2-8000 Se I 70 Tpke,,Tecumseh,KS,66542,US,39.01953125,-95.50881958,2022-12-18 06:25:09
Hardee's,2300 Nw Topeka Blvd,,Topeka,KS,66608,US,39.08897781,-95.66413879,2022-12-18 06:25:09
Hardee's,587 Carrollton Rd,,Temple,GA,30179,US,33.72159195,-85.02929688,2022-12-18 06:25:18
Hardee's,125 W Maple St,,Cumming,GA,30040,US,34.2064209,-84.14126587,2022-12-18 06:25:13
Hardee's,110 S BRICKETT BLVD,,LOUISBURG,NC,27549,US,36.0959816,-78.29721832,2022-12-18 06:25:11
Hardee's,607 W GANNON ST,,ZEBULON,NC,27597,US,35.82000351,-78.32888031,2022-12-18 06:25:21
Hardee's,221 E MAIN ST,,LITTLETON,NC,27850,US,36.43586731,-77.90756989,2022-12-18 06:25:07
Hardee's,2888 WENDELL BOULEVARD,,WENDELL,NC,27591,US,35.79302216,-78.37923431,2022-12-18 06:25:07
Hardee's,1711 JULIAN R ALLSBROOK HWY,,ROANOKE RAPIDS,NC,27870,US,36.43234253,-77.63486481,2022-12-18 07:39:41
Hardee's,307 Smokey Park Hwy,,Asheville,NC,28806,US,35.56030655,-82.63792419,2022-12-18 06:25:16
Hardee's,71 Hendersonville Rd,,Asheville,NC,28803,US,35.56616211,-82.54373932,2022-12-18 06:25:13
Hardee's,65 weaver blvd,,Weaverviller,NC,28787,US,35.70394897,-82.56615448,2022-12-18 06:25:15
Hardee's,6001 Asheville Hwy,,Hendersonville,NC,28791,US,35.40098953,-82.50957489,2022-12-18 06:25:13
Hardee's,16 New Clyde Hwy,,Canton,NC,28716,US,35.53307343,-82.85383606,2022-12-18 06:25:16
Hardee's,1807 Four Seasons Blvd,,Hendersonville,NC,28792,US,35.3360672,-82.44724274,2022-12-18 06:25:13
Hardee's,437 RUSS AVE,,WAYNESVILLE,NC,28786-2933,US,35.49938965,-82.98684692,2022-12-18 06:25:22
Hardee's,437 Russ Ave,,Waynesville,NC,28786,US,35.49919891,-82.98683929,2022-12-18 06:25:22
Hardee's,2010 S. Main St,,Waynesville,NC,28786,US,35.46729279,-83.00680542,2022-12-16 15:27:40
Hardee's,307 S Catawba Ave,,Old Fort,NC,28762,US,35.62467957,-82.18067169,2022-12-18 06:25:13
Hardee's,318 W US Highway 19E BYP,,Burnsville,NC,28714,US,35.91540146,-82.30376434,2022-12-18 06:25:13
Hardee's,1194 N Main St.,,Marion,NC,28752,US,35.69536591,-82.02336121,2022-12-18 06:25:13
Hardee's,475 E. Main St,,SYLVA,NC,28779,US,35.37181473,-83.20514679,2022-12-18 06:25:17
Hardee's,3240 HIGHWAY 226 S,,MARION,NC,28752-8740,US,35.6592598,-81.96451569,2022-12-18 06:25:12
Hardee's,3240 Highway 226 S,,Marion,NC,28752,US,35.65925217,-81.96450043,2022-12-18 06:25:12
Hardee's,6187 Hwy 19E N,,Spruce Pine,NC,28777,US,35.92226791,-82.05091095,2022-12-18 06:25:13
Hardee's,116 College Ave,,Rutherfordton,NC,28139,US,35.36266327,-81.94268799,2022-12-18 06:25:12
Hardee's,633 Asheville Highway,,Greeneville,TN,37743,US,36.1439476,-82.84761047,2022-12-18 06:25:15
Hardee's,816 Cosby Hwy,,Newport,TN,37821,US,35.95076752,-83.20029449,2022-12-18 06:25:20
Hardee's,North Main St Rt 1  Box 1237,,Erwin,TN,37650,US,36.15991211,-82.39859009,2022-12-18 06:25:15
Hardee's,1375 S Park St,,Carrollton,GA,30117,US,33.55514908,-85.0742569,2022-12-18 06:25:20
Hardee's,515 Alabama Ave S,,Bremen,GA,30110,US,33.7150383,-85.14293671,2022-12-18 06:25:18
Hardee's,231 Temple Ave,,Newnan,GA,30263,US,33.38670731,-84.81848145,2022-12-18 06:25:20
Hardee's,2154 Franklin Parkway,,Franklin,GA,30217,US,33.27983475,-85.10549927,2022-12-18 06:25:20
Hardee's,3110 Cedartown Hwy Sw,,Rome,GA,30161,US,34.17403412,-85.20836639,2022-12-18 06:25:18
Hardee's,612 NORTHSIDE DR E,,STATESBORO,GA,30458-4842,US,32.43839645,-81.76315308,2022-12-18 06:25:12
Hardee's,612 NORTHSIDE DR E,,STATESBORO,GA,30458,US,32.43801117,-81.76251221,2022-12-18 06:25:12
Hardee's,501 S MAIN ST,,SWAINSBORO,GA,30401,US,32.58634949,-82.32161713,2022-12-18 06:25:12
Hardee's,100 GOVERNOR TREUTLEN RD,,POOLER,GA,31322,US,32.11265564,-81.2403183,2022-12-18 06:25:09
Hardee's,SONNY PERDUE DR. AND DEAN FORREST RD,,GARDEN CITY,GA,31408,US,32.10243988,-81.19429779,2022-12-18 06:25:09
Hardee's,1 GATEWAY BLVD S,,SAVANNAH,GA,31419,US,32.00665665,-81.27987671,2022-12-18 06:25:09
Hardee's,9878 FORD AVE,,RICHMOND HILL,GA,31324,US,31.94562531,-81.30858612,2022-12-18 06:25:15
Hardee's,601 Railroad Avenue,,Allendale,SC,29810,US,33.00929642,-81.30841827,2022-12-18 07:39:41
Hardee's,1005 Elm St W,,Hampton,SC,29924,US,32.8745575,-81.11824799,2022-12-18 06:25:09
Hardee's,419 Hwy 43 S,,Tuscumbia,AL,35674,US,34.71152496,-87.66698456,2022-12-18 06:25:07
Hardee's,102 S Military St #C157,,Loretto,TN,38469,US,35.07780838,-87.43627167,2022-12-18 06:25:19
Hardee's,1610 1ST American Dr,,Iuka,MS,38852,US,34.80410385,-88.20628357,2022-12-18 06:25:07
Hardee's,1411 North Locust,,Lawrenceburg,TN,38464,US,35.258564,-87.32518005,2022-12-18 06:25:19
Hardee's,180 MAIN STREET,,SAVANNAH,TN,38372,US,35.22486877,-88.24539185,2022-12-18 06:25:07
Hardee's,985 E College St,,Pulaski,TN,38478,US,35.19334793,-87.01482391,2022-12-18 06:25:19
Hardee's,84 Dixon Springs Hwy,,Carthage,TN,37030,US,36.26683426,-85.95877075,2022-12-18 06:25:14
Hardee's,113 Bear Creek Pike,,Columbia,TN,38401,US,35.63598251,-87.01615143,2022-12-18 06:25:07
Hardee's,1117 Hampshire Pike,,Columbia,TN,38401,US,35.61716843,-87.06363678,2022-12-18 06:25:07
Hardee's,348 E MAIN ST,,HOHENWALD,TN,38462,US,35.54879379,-87.54449463,2022-12-18 06:25:15
Hardee's,524 EASTERN BYPASS,,RICHMOND,KY,40475-2328,US,37.73535156,-84.31008148,2022-12-18 06:25:13
Hardee's,103 S KEENELAND DR,,RICHMOND,KY,40475-3225,US,37.77543259,-84.31929016,2022-12-05 19:41:07
Hardee's,903 S MAIN ST,,NICHOLASVILLE,KY,40356-2151,US,37.86750031,-84.57863617,2022-12-18 07:39:41
Hardee's,98 RICHMOND ROAD,,IRVINE,KY,40336-7209,US,37.69643021,-83.97853088,2022-12-18 07:39:41
Hardee's,1466 W LEXINGTON AVE,,WINCHESTER,KY,40391-1164,US,38.00566101,-84.20862579,2022-12-18 07:39:41
Hardee's,2990 RICHMOND RD,,LEXINGTON,KY,40509-1713,US,38.00555801,-84.45136261,2022-12-18 07:39:41
Hardee's,1125 WINCHESTER RD,,LEXINGTON,KY,40505-4028,US,38.04283524,-84.4621048,2022-12-18 07:39:41
Hardee's,202 W NEW CIRCLE RD,,LEXINGTON,KY,40505-1426,US,38.06776047,-84.47355652,2022-12-18 07:39:41
Hardee's,RT 25,,MT VERNON,KY,40456,US,37.38056564,-84.33090973,2022-12-18 06:25:13
Hardee's,220 S MAIN ST,,STANTON,KY,40380-2376,US,37.84222412,-83.85769653,2022-12-18 07:39:41
Hardee's,100 SHELBY JUNCTION LANE,,JUNCTION CITY,KY,40440,US,37.58230972,-84.78582764,2022-12-18 06:25:13
Hardee's,215 INDIAN MOUND DRIVE,,MOUNT STERLING,KY,40353-1015,US,38.07398605,-83.9520874,2022-12-18 07:39:41
Hardee's,1411 MAIN ST,,PARIS,KY,40361-1201,US,38.20542526,-84.25727844,2022-12-18 07:39:41
Hardee's,5705 N Highway 27,,Science Hill,KY,42553,US,37.17339325,-84.62579346,2022-12-18 06:25:15
Hardee's,1248 US HIGHWAY 127 S,,FRANKFORT,KY,40601-4361,US,38.16952515,-84.9005661,2022-12-18 07:39:41
Hardee's,705 SCHENKEL LN,,FRANKFORT,KY,40601-1401,US,38.21650314,-84.84134674,2022-12-18 07:39:41
Hardee's,681 US HWY 27 S,,CYNTHIANA,KY,41031-6006,US,38.38127899,-84.30690765,2022-12-18 07:39:41
Hardee's,815 N WALLACE WILKINSON BLVD,,LIBERTY,KY,42539,US,37.32498932,-84.92414856,2022-12-18 06:25:13
Hardee's,814 S MAIN ST,,LONDON,KY,40741-1901,US,37.12265396,-84.07785034,2022-12-18 06:25:09
Hardee's,1974 WEST HIGHWAY 192,,LONDON,KY,40741,US,37.11103439,-84.09751129,2022-12-18 06:25:09
Hardee's,10 Centre On The Lake,,Lake Saint Louis,MO,63367,US,38.80253983,-90.77124023,2022-12-18 06:25:07
Hardee's,501 Mid Rivers Mall Dr,,Saint Peters,MO,63376,US,38.78793716,-90.62644958,2022-12-18 06:25:07
Hardee's,1944 Wentzville Parkway,,Wentzville,MO,63385,US,38.81480789,-90.8753891,2022-12-18 06:25:07
Hardee's,2023 Zumbehl Rd,,Saint Charles,MO,63303,US,38.78352356,-90.53305054,2022-12-18 06:25:07
Hardee's,17368 Chesterfield Airport Rd,,Chesterfield,MO,63005,US,38.66777039,-90.60469055,2022-12-18 06:25:07
Hardee's,2701 Mo-94 N.,,Saint Charles,MO,63301,US,38.80792999,-90.47524261,2022-12-18 06:25:07
Hardee's,11938 Dorsett Rd,,Saint Louis,MO,63043,US,38.71452713,-90.43572235,2022-12-18 06:25:07
Hardee's,12004 Lackland Rd,,Saint Louis,MO,63146,US,38.69722748,-90.44091034,2022-12-18 06:25:07
Hardee's,231 E Highway 47,,Troy,MO,63379,US,38.98724365,-90.9677887,2022-12-18 06:25:07
Hardee's,850 Meramec Station Rd,,Valley Park,MO,63088,US,38.56681442,-90.49626923,2022-12-18 06:25:07
Hardee's,902 Meramec Station Rd,,Valley Park,MO,63088,US,38.53612137,-90.49656677,2022-12-18 06:25:07
Hardee's,1212 W Osage,,Pacific,MO,63069,US,38.4839592,-90.75522614,2022-12-18 06:25:07
Hardee's,10224 Big Bend Rd,,Crestwood,MO,63122,US,38.56765747,-90.3962326,2022-12-18 06:25:07
Hardee's,228 W 5Th St,,Washington,MO,63090,US,38.55503845,-91.01077271,2022-12-18 06:25:07
Hardee's,545 Main Street,,Fenton,MO,63026,US,38.5137558,-90.4391861,2022-12-18 06:25:07
Hardee's,2110 Hampton Ave,,Saint Louis,MO,63139,US,38.61727905,-90.28668213,2022-12-18 06:25:07
Hardee's,4699 Gravois Rd,,House Springs,MO,63051,US,38.4128418,-90.58127594,2022-12-18 06:25:18
Hardee's,10858 Lilac Ave,,Saint Louis,MO,63137,US,38.76520538,-90.20277405,2022-12-18 06:25:07
Hardee's,4321 Butler Hill Rd,,Saint Louis,MO,63128,US,38.48621368,-90.35839844,2022-12-18 06:25:16
Hardee's,2580 Lemay Ferry Rd,,Lemay,MO,63125,US,38.51986313,-90.30431366,2022-12-18 06:25:16
Hardee's,2232 FAIR ROAD,,ABILENE,KS,67410,US,38.93350601,-97.25846863,2022-12-18 06:25:11
Hardee's,2400 E KANSAS AVE,,MCPHERSON,KS,67460-4004,US,38.37000275,-97.61515808,2022-12-18 06:25:12
Hardee's,1520 Buford Hwy,,Buford,GA,30518,US,34.09693527,-84.01314545,2022-12-18 06:25:13
Hardee's,2686 Hamilton Mill Rd,,Buford,GA,30519,US,34.07954788,-83.92055511,2022-12-18 06:25:13
Hardee's,1205 E Main Street,,Lake Butler,FL,32054,US,30.02371979,-82.32321167,2022-12-18 06:25:17
Hardee's,5212 SILVER STAR RD,,ORLANDO,FL,32808-4402,US,28.57759285,-81.45232391,2022-12-18 06:25:19
Hardee's,10840 West Colonial Dr,,Ocoee,FL,34761,US,28.55117226,-81.53973389,2022-12-18 06:25:19
Hardee's,810 N US Hwy 27,,Minneola,FL,34715,US,28.5904007,-81.75192261,2022-12-18 06:25:19
Hardee's,5690 W State Road 46,,Sanford,FL,32771,US,28.81228256,-81.36243439,2022-12-18 06:25:18
Hardee's,400 Welcome Center Drive,,Deltona,FL,32725,US,28.8724308,-81.27854156,2022-12-18 06:25:18
Hardee's,301 E Burleigh Blvd,,Tavares,FL,32778,US,28.81669426,-81.72600555,2022-12-18 06:25:18
Hardee's,4440 HWY. 46,,MIMS,FL,32754,US,28.66711998,-80.87362671,2022-12-18 06:25:18
Hardee's,802 S 14Th St,,Leesburg,FL,34748,US,28.80352783,-81.88717651,2022-12-18 06:25:18
Hardee's,43 E C 470,,Lake Panasoffkee,FL,33538,US,28.75403786,-82.10340881,2022-12-18 06:25:19
Hardee's,404 S Main St,,Wildwood,FL,34785,US,28.85733986,-82.04312134,2022-12-18 06:25:18
Hardee's,549 State Highway 44,,Wildwood,FL,34785,US,28.87362862,-82.09437561,2022-12-18 06:25:18
Hardee's,5741 Se Abshier Blvd,,Belleview,FL,34420,US,29.05945778,-82.05361176,2022-12-18 06:25:18
Hardee's,1449 MONTGOMERY HWY,,VESTAVIA HILLS,AL,35216-3606,US,33.41997147,-86.79936218,2022-12-18 06:25:19
Hardee's,2162 VALLEYDALE RD,,HOOVER,AL,35244,US,33.36044312,-86.77111053,2022-12-18 06:25:19
Hardee's,228 OXMOOR BLVD,,HOMEWOOD,AL,35209,US,33.46319962,-86.82765961,2022-12-18 06:25:19
Hardee's,9400 Parkway East,,Birmingham,AL,35215,US,33.59148026,-86.69724274,2022-12-18 06:25:19
Hardee's,611 Bessemer Super Hwy,,Midfield,AL,35228,US,33.4637146,-86.91048431,2022-12-18 06:25:19
Hardee's,1616 Decatur Hwy,,Fultondale,AL,35068,US,33.60953903,-86.79735565,2022-12-18 06:25:19
Hardee's,9940 HWY 119,,ALABASTER,AL,35007,US,33.22306061,-86.82295227,2022-12-18 06:25:19
Hardee's,917 ALLISON-BONNETT MEMORIAL DR,,HUEYTOWN,AL,35023,US,33.45690536,-86.96367645,2022-12-18 06:25:19
Hardee's,8441 HWY 31 S,,CALERA,AL,35040,US,33.1002655,-86.75259399,2022-12-18 06:25:19
Hardee's,280 Warrior Jasper Rd,,Warrior,AL,35180,US,33.81054688,-86.82164764,2022-12-18 06:25:19
Hardee's,42471 Us Hwy 280,,Sylacauga,AL,35150,US,33.15727997,-86.27017975,2022-12-18 06:25:19
Hardee's,2176 Highway 78,,Sumiton,AL,35148,US,33.7562561,-87.06228638,2022-12-18 06:25:19
Hardee's,303 HIGHWAY 78 W,,JASPER,AL,35501,US,33.84919739,-87.27764893,2022-12-18 06:25:19
Hardee's,1535 County Rd 437,,Cullman,AL,35055,US,34.11678314,-86.86206818,2022-12-18 06:25:19
Hardee's,12 W NORTHBROOK DR,,DWIGHT,IL,60420,US,41.11349487,-88.4152298,2022-12-18 06:25:14
Hardee's,2625 Columbus St,,Ottawa,IL,61350,US,41.36954498,-88.83654022,2022-12-18 06:25:18
Hardee's,1810 South Main Street,,Joplin,MO,64801,US,37.07105637,-94.51438904,2022-12-18 06:25:12
Hardee's,818 Rangeline,,Joplin,MO,64801,US,37.08140945,-94.47789001,2022-12-18 06:25:12
Hardee's,1641 W 7th Street,,Joplin,MO,64801,US,37.08482361,-94.53291321,2022-12-18 07:39:41
Hardee's,4013 HWY 43,,JOPLIN,MO,64804-9001,US,37.01330948,-94.54425049,2022-12-18 07:39:41
Hardee's,2516 South Grand,,Carthage,MO,64836,US,37.14517593,-94.31000519,2022-12-18 06:25:12
Hardee's,530 S Neosho Blvd,,Neosho,MO,64850,US,36.86371613,-94.38219452,2022-12-18 06:25:12
Hardee's,1015 S Broadway ST,,Pittsburg,KS,66762,US,37.39866257,-94.70445251,2022-12-18 07:39:41
Hardee's,2010 South Elliott Avenue,,Aurora,MO,65605,US,36.95067215,-93.71806335,2022-12-18 06:25:14
Hardee's,1118 LOWE GROUT RD,,IOWA,LA,70647-3759,US,30.25304031,-93.01306915,2022-12-18 06:25:09
Hardee's,2403 N Salisbury Blvd,,Salisbury,MD,21801,US,38.4026413,-75.56860352,2022-12-18 07:39:41
Hardee's,1301 S Salisbury Blvd,,Salisbury,MD,21801,US,38.34399033,-75.60321045,2022-12-18 07:39:41
Hardee's,9521 OCEAN HWY,,DELMAR,MD,21875,US,38.45353699,-75.55778503,2022-12-18 07:39:41
Hardee's,30759 SUSSEX HWY,,LAUREL,DE,19956,US,38.56050873,-75.55612183,2022-12-18 07:39:41
Hardee's,30362 Mt Vernon Rd,,Princess Anne,MD,21853,US,38.21416473,-75.69893646,2022-12-18 06:25:11
Hardee's,328 W Stein Hwy,,Seaford,DE,19973,US,38.6466217,-75.62248993,2022-12-18 07:39:41
Hardee's,28552 Dupont Blvd,,Millsboro,DE,19966,US,38.58148956,-75.29225159,2022-12-18 07:39:41
Hardee's,125 Pocomoke Marketplace,,Pocomoke City,MD,21851,US,38.06370544,-75.54801941,2022-12-18 06:25:11
Hardee's,20598 Dupont Blvd,,Georgetown,DE,19947,US,38.69887543,-75.40153503,2022-12-18 07:39:41
Hardee's,800 Woods Rd,,Cambridge,MD,21613,US,38.55794144,-76.0606308,2022-12-18 07:39:41
Hardee's,8335 Ocean Gtwy,,Easton,MD,21601,US,38.77794647,-76.05963135,2022-12-18 07:39:41
Hardee's,7237 Milford Harrington Hwy,,Harrington,DE,19952,US,38.92368317,-75.56719971,2022-12-18 07:39:41
Hardee's,698 N Dupont Blvd,,Milford,DE,19963,US,38.91897964,-75.43917084,2022-12-18 07:39:41
Hardee's,25048 LANKFORD HWY,,ONLEY,VA,23418,US,37.70127869,-75.71286774,2022-12-18 06:25:11
Hardee's,313 PORTER RD,,SADIEVILLE,KY,40370,US,38.37988663,-84.57263947,2022-12-18 07:39:41
Hardee's,1927 Midland Trail,,Shelbyville,KY,40065,US,38.21324158,-85.25328827,2022-12-18 06:25:07
Hardee's,11201 Oscar Road,,Louisville,KY,40241,US,38.30067062,-85.54347992,2022-12-18 06:25:07
Hardee's,801 BARDSTOWN ROAD,,SPRINGFIELD,KY,40069,US,37.69057846,-85.2334671,2022-12-18 06:25:13
Hardee's,707 N 3Rd St,,Bardstown,KY,40004,US,37.82014847,-85.46273804,2022-12-18 06:25:13
Hardee's,2909 Fern Valley Rd,,Louisville,KY,40213,US,38.15755844,-85.70933533,2022-12-18 06:25:07
Hardee's,50 CORPORATE DR,,LEBANON,KY,40033,US,37.57625961,-85.23550415,2022-12-18 06:25:13
Hardee's,2740 ALLISON LANE,,JEFFERSONVILLE,IN,47130,US,38.32073975,-85.71054077,2022-12-18 06:25:07
Hardee's,3911 N Belt Hwy,,Saint Joseph,MO,64506,US,39.80524063,-94.81443787,2022-12-18 06:25:09
Hardee's,1102 Memorial Blvd,,Picayune,MS,39466,US,30.51718521,-89.66651917,2022-12-18 06:25:11
Hardee's,300 Cumberland St,,Bogalusa,LA,70427,US,30.79025459,-89.86346436,2022-12-18 07:39:41
Hardee's,1016 S Main St,,Poplarville,MS,39470,US,30.83671761,-89.53240204,2022-12-18 06:25:11
Hardee's,12219 HWY 49 N,,GULFPORT,MS,39503-2742,US,30.46286011,-89.10166168,2022-12-18 06:25:11
Hardee's,1801 Pulaski Hwy,,Bear,DE,19701,US,39.6108284,-75.70620728,2022-12-18 07:39:41
Hardee's,881 E Pulaski Hwy,,Elkton,MD,21921,US,39.60230255,-75.80150604,2022-12-18 07:39:41
Hardee's,340 Dove Run Dr,,Middletown,DE,19709,US,39.45245361,-75.68966675,2022-12-18 07:39:41
Hardee's,7353 Lee Highway,,Radford,VA,24141,US,37.14691162,-80.58551788,2022-12-18 06:25:14
Hardee's,208 COLLEGE AVENUE,,DUBLIN,VA,24084,US,37.09952545,-80.69127655,2022-12-18 06:25:17
Hardee's,528 N MAIN STREET,,PEARISBURG,VA,24134,US,37.33132935,-80.74017334,2022-12-18 06:25:19
Hardee's,5184 NC 87 N,,SANFORD,NC,27332,US,35.37985611,-79.10884857,2022-12-16 15:27:42
Hardee's,1102 S MAIN ST,,LILLINGTON,NC,27546,US,35.39556503,-78.81804657,2022-12-18 06:25:07
Hardee's,2475 N Roberts Avenue,,Lumberton,NC,28358,US,34.64022064,-79.00671387,2022-12-18 06:25:14
Hardee's,1450 Ribaut Rd,,Port Royal,SC,29935,US,32.39485168,-80.68637085,2022-12-18 06:25:09
Hardee's,3992 S BABCOCK ST,,MELBOURNE,FL,32901-8212,US,28.0514164,-80.62213898,2022-12-18 06:25:18
Hardee's,200 S KINGS HWY,,FORT PIERCE,FL,34945,US,27.44540787,-80.39795685,2022-12-16 15:27:39
Hardee's,611 15TH ST E,,Tuscaloosa,AL,35401,US,33.19664383,-87.52764893,2022-12-18 06:25:19
Hardee's,929 Skyland Blvd E,,Tuscaloosa,AL,35405,US,33.1675148,-87.52378082,2022-12-18 06:25:19
Hardee's,6718 HWY 69 S,,TUSCALOOSA,AL,35405,US,33.14624405,-87.5447998,2022-12-18 06:25:19
Hardee's,2515 Paul Bryant Dr,,Tuscaloosa,AL,35401,US,33.20396042,-87.5684967,2022-12-18 06:25:19
Hardee's,5525 MCFARLAND BLVD,,NORTHPORT,AL,35476-2379,US,33.23508835,-87.60969543,2022-12-18 06:25:19
Hardee's,1284 East Ash St,,Piqua,OH,45356,US,40.15114975,-84.21128845,2022-12-18 06:25:07
Hardee's,699 Wagner Ave,,Greenville,OH,45331,US,40.12111664,-84.62168121,2022-12-18 06:25:07
Hardee's,2241 FAIR ROAD,,SIDNEY,OH,45365,US,40.26594543,-84.18566132,2022-12-18 06:25:07
Hardee's,2952 GARY DRIVE SUITE 101,,PLYMOUTH,IN,46563,US,41.36231232,-86.34919739,2022-12-18 06:25:13
Hardee's,207 W Ireland Rd,,South Bend,IN,46614,US,41.6293602,-86.25284576,2022-12-18 06:25:13
Hardee's,734 S 11Th St,,Niles,MI,49120,US,41.81995773,-86.24771881,2022-12-18 06:25:15
Hardee's,9790 ADAMS ST,,HOLLAND,MI,49423,US,42.7827034,-86.02296448,2022-12-18 06:25:21
Hardee's,107 2Nd St,,Coralville,IA,52241,US,41.66969681,-91.56617737,2022-12-18 07:39:41
Hardee's,102 Highway 1 S,,Mount Vernon,IA,52314,US,41.91531754,-91.42304993,2022-12-18 07:39:41
Hardee's,3505 29Th Ave Sw,,Cedar Rapids,IA,52404,US,41.94888687,-91.71750641,2022-12-18 07:39:41
Hardee's,1519 6Th St Sw,,Cedar Rapids,IA,52404,US,41.96211243,-91.67663574,2022-12-18 07:39:41
Hardee's,3214 1ST AVE NE,,CEDAR RAPIDS,IA,52402-6002,US,42.01005936,-91.6349411,2022-12-18 07:39:41
Hardee's,1981 Blairs Ferry Rd,,Cedar Rapids,IA,52402,US,42.0343399,-91.66763306,2022-12-18 07:39:41
Hardee's,601 Cedar St.,,Tipton,IA,52772,US,41.77125168,-91.12896729,2022-12-18 07:39:41
Hardee's,705 Grandview Ave,,Muscatine,IA,52761,US,41.4093895,-91.06338501,2022-12-18 07:39:41
Hardee's,2301 16Th Street,,Moline,IL,61265,US,41.48939133,-90.51393127,2022-12-18 07:39:41
Hardee's,4008 Kennedy Dr,,East Moline,IL,61244,US,41.49198151,-90.45565796,2022-12-18 06:25:11
Hardee's,425 55TH ST,,MOLINE,IL,61265-1730,US,41.51258087,-90.46112823,2022-12-18 06:25:11
Hardee's,425 55Th St,,Moline,IL,61265,US,41.51266098,-90.46111298,2022-12-18 06:25:11
Hardee's,1419 38Th St,,Rock Island,IL,61201,US,41.49666214,-90.54724121,2022-12-18 07:39:41
Hardee's,1930 State St,,Bettendorf,IA,52722,US,41.52559662,-90.50507355,2022-12-18 07:39:41
Hardee's,Us 67 & 3rd Avenue,,Milan,IL,61264,US,41.45129013,-90.56704712,2022-12-18 07:39:41
Hardee's,1715 Division St,,Davenport,IA,52804,US,41.53739548,-90.60076904,2022-12-18 07:39:41
Hardee's,5232 Brady Street,,Davenport,IA,52806,US,41.57415009,-90.57029724,2022-12-18 07:39:41
Hardee's,105 S 9Th Ave,,Eldridge,IA,52748,US,41.65422821,-90.57124329,2022-12-18 07:39:41
Hardee's,2163 S Oakwood Ave,,Geneseo,IL,61254,US,41.43328476,-90.15736389,2022-12-18 07:39:41
Hardee's,117 S 2nd St,,Clinton,IA,52732,US,41.84482574,-90.18780518,2022-12-18 06:25:11
Hardee's,913 East Main,,Galesburg,IL,61401,US,40.94784546,-90.35641479,2022-12-18 07:39:41
Hardee's,1413 Knox Highway 9,,Galesburg,IL,61401,US,40.91945267,-90.29424286,2022-12-18 07:39:41
Hardee's,503 First Ave,,Rock Falls,IL,61071,US,41.77946854,-89.68900299,2022-12-18 06:25:11
Hardee's,6501 State Park Road,,Travelers Rest,SC,29690,US,34.963871,-82.43248749,2022-12-18 06:25:07
Hardee's,665 S Broadway St,,Forest City,NC,28043,US,35.31854248,-81.85765076,2022-12-18 06:25:12
Hardee's,11960 Asheville Hwy,,Inman,SC,29349,US,35.04205322,-82.08917999,2022-12-18 06:25:07
Hardee's,409 YEMASSEE HWY,,YEMASSEE,SC,29945,US,32.70561981,-80.87471008,2022-12-18 06:25:09
Hardee's,503 N Jefferies Blvd,,Walterboro,SC,29488,US,32.90762711,-80.66735077,2022-12-18 06:25:09
Hardee's,195 Walmart Circle,,Sandersville,GA,31082,US,32.95243073,-82.80950165,2022-12-18 06:25:13
Hardee's,341 Broad St,,Hawkinsville,GA,31036,US,32.2818222,-83.47452545,2022-12-18 06:25:16
Hardee's,99 Sandy Run Rd.,,Bonaire,GA,31005,US,32.56863403,-83.59326172,2022-12-18 06:25:16
Hardee's,421 N Davis Dr,,Warner Robins,GA,31093,US,32.62876892,-83.61343384,2022-12-18 06:25:16
Hardee's,2829 Watson Blvd,,Warner Robins,GA,31093,US,32.61795425,-83.68133545,2022-12-18 06:25:16
Hardee's,1014 Gray Highway,,Macon,GA,31211,US,32.85406494,-83.6193161,2022-12-18 06:25:11
Hardee's,1504 Sam Nunn Boulevard,,Perry,GA,31069,US,32.47362137,-83.74488068,2022-12-18 06:25:17
Hardee's,242 Hwy 49,,Byron,GA,31008,US,32.65732193,-83.74707794,2022-12-18 06:25:17
Hardee's,21 E Coffee St,,Hazlehurst,GA,31539,US,31.8694706,-82.59536743,2022-12-18 06:25:12
Hardee's,1090 North 1st St,,Jesup,GA,31545,US,31.61611748,-81.87444305,2022-12-18 06:25:12
Hardee's,4428 NEW JESUP HWY,,BRUNSWICK,GA,31520,US,31.20497322,-81.50852966,2022-12-18 06:25:20
Hardee's,653 South Main St,,Baxley,GA,31513,US,31.76933289,-82.3518219,2022-12-18 06:25:12
Hardee's,2901 N Ashley St,,Valdosta,GA,31602,US,30.87038994,-83.28793335,2022-12-18 06:25:17
Hardee's,816 S Patterson St,,Valdosta,GA,31601,US,30.82069016,-83.27374268,2022-12-18 06:25:17
Hardee's,7212 LAKES BLVD,,LAKE PARK,GA,31636,US,30.67926407,-83.22445679,2022-12-18 06:25:17
Hardee's,1300 W Screven St,,Quitman,GA,31643,US,30.78564835,-83.57032013,2022-12-18 06:25:17
Hardee's,603 S Valdosta Rd,,Lakeland,GA,31635,US,31.0350399,-83.07252502,2022-12-18 06:25:17
Hardee's,807 W 4Th St,,Adel,GA,31620,US,31.13399124,-83.43431854,2022-12-18 06:25:17
Hardee's,620 South Davis,,Nashville,GA,31639,US,31.19928169,-83.25066376,2022-12-18 06:25:17
Hardee's,1616 US Highway 41 NW,,Jasper,FL,32052,US,30.52389717,-82.96115112,2022-12-18 06:25:17
Hardee's,1729 1St Ave Se,,Moultrie,GA,31768,US,31.17722702,-83.76244354,2022-12-18 06:25:14
Hardee's,1440 Remington Ave,,Thomasville,GA,31792,US,30.85171318,-83.94856262,2022-12-18 06:25:17
Hardee's,178 SOUTHWELL BLVD,,TIFTON,GA,31794-9683,US,31.41571999,-83.50305176,2022-12-18 06:25:17
Hardee's,203 N Main St,,Pearson,GA,31642,US,31.29886055,-82.85282898,2022-12-18 06:25:17
Hardee's,318 S Virginia Ave,,Tifton,GA,31794,US,31.45094299,-83.52852631,2022-12-18 06:25:17
Hardee's,608 Ohio Ave S,,Live Oak,FL,32064,US,30.29197884,-82.98730469,2022-12-18 06:25:17
Hardee's,24 Pafford RD,,Lamont,FL,32336,US,30.4732666,-83.89139557,2022-12-18 06:25:19
Hardee's,2410 Apalachee Pkwy,,Tallahassee,FL,32301,US,30.42933464,-84.24084473,2022-12-18 06:25:19
Hardee's,1829 Capital Circle Ne,,Tallahassee,FL,32308,US,30.46788406,-84.22966766,2022-12-18 06:25:19
Hardee's,1942 N MONROE ST,,TALLAHASSEE,FL,32303,US,30.46626091,-84.28469849,2022-12-18 06:25:19
Hardee's,1942 N Monroe St,,Tallahassee,FL,32303,US,30.46622276,-84.28472137,2022-12-18 06:25:19
Hardee's,5818 N Monroe St,,Tallahassee,FL,32303,US,30.53342247,-84.36392212,2022-12-18 06:25:18
Hardee's,2994 Crawfordville Hwy,,Crawfordville,FL,32327,US,30.17835999,-84.37562561,2022-12-18 06:25:20
Hardee's,100 W Jefferson St,,Quincy,FL,32351,US,30.58843422,-84.57843018,2022-12-18 06:25:18
Hardee's,98 U S Highway 84,,Cairo,GA,39828,US,30.88588333,-84.20692444,2022-12-18 06:25:14
Hardee's,1000 E Shotwell St,,Bainbridge,GA,39819,US,30.90344238,-84.56322479,2022-12-18 06:25:14
Hardee's,651 West Washington St,,Chattahoochee,FL,32324,US,30.70401001,-84.85178375,2022-12-18 06:25:18
Hardee's,2046 S BYRON BUTLER PKWY,,PERRY,FL,32348-5512,US,30.0991993,-83.58381653,2022-12-18 06:25:17
Hardee's,135 Curry St Ne,,Pelham,GA,31779,US,31.12900162,-84.15119934,2022-12-18 06:25:14
Hardee's,723 2Nd Ave Nw,,Cullman,AL,35055,US,34.18358994,-86.84952545,2022-12-18 06:25:19
Hardee's,749 GOODMAN RD WEST,,HORN LAKE,MS,38637,US,34.96216202,-90.00346375,2022-12-18 06:25:19
Hardee's,7015 HACKS CROSS ROAD,,OLIVE BRANCH,MS,38654,US,34.96291733,-89.7961731,2022-12-18 06:25:15
Hardee's,4628 SUMMER AVE,,MEMPHIS,TN,38122,US,35.1490593,-89.90666962,2022-12-18 06:25:19
Hardee's,2005 WHITTEN ROAD,,MEMPHIS,TN,38133,US,35.18017578,-89.83687592,2022-12-18 06:25:16
Hardee's,8523 N US HWY 51,,MILLINGTON,TN,38053,US,35.3592186,-89.89356995,2022-12-18 06:25:16
Hardee's,693 HWY 6 EAST,,BATESVILLE,MS,38606,US,34.31041336,-89.93185425,2022-12-18 06:25:21
Hardee's,2740 Allison Lane,,Jeffersonville,IN,47130,US,38.32076645,-85.71044159,2022-12-18 06:25:07
Hardee's,301 W Court Ave,,Jeffersonville,IN,47130,US,38.27258682,-85.74481964,2022-12-18 06:25:07
Hardee's,240 S INDIANA AVE,,SELLERSBURG,IN,47172,US,38.39718246,-85.75794983,2022-12-18 06:25:07
Hardee's,3459 Taylor Blvd,,Louisville,KY,40215,US,38.19676971,-85.78240204,2022-12-18 06:25:07
Hardee's,5352 Dixie Hwy,,Louisville,KY,40216,US,38.15787506,-85.8345108,2022-12-18 06:25:07
Hardee's,1128 W Mcclain Ave,,Scottsburg,IN,47170,US,38.6858902,-85.78382874,2022-12-18 06:25:07
Hardee's,330 Clifty Drive,,Madison,IN,47250,US,38.77549362,-85.39329529,2022-12-18 06:25:07
Hardee's,1706 N Dixie Hwy,,Elizabethtown,KY,42701,US,37.73279953,-85.88711548,2022-12-18 06:25:13
Hardee's,104 Buffalo Creek Dr,,Elizabethtown,KY,42701,US,37.71331406,-85.83281708,2022-12-18 06:25:13
Hardee's,6582 S. State Road 66,,LEAVENWORTH,IN,47137,US,38.24417114,-86.35817719,2022-12-18 06:25:07
Hardee's,601 SOUTH RING ROAD,,ELIZABETHTOWN,KY,42701,US,37.65476227,-85.88704681,2022-12-18 06:25:13
Hardee's,411 E TIPTON ST,,SEYMOUR,IN,47274,US,38.9581871,-85.88352203,2022-12-18 06:25:07
Hardee's,2695 Gilchrist Rd,,Akron,OH,44305,US,41.06438065,-81.4292984,2022-12-18 06:25:19
Hardee's,6134 State Hwy 14,,Ravenna,OH,44266,US,41.15746307,-81.21844482,2022-12-18 06:25:19
Hardee's,1395 S Arlington St,,Akron,OH,46305,US,41.03433609,-81.49095154,2022-12-18 06:25:19
Hardee's,4898 Shuffel St. NW,,NORTH CANTON,OH,44720,US,40.89876938,-81.4368515,2022-12-18 06:25:19
Hardee's,8750 Wooster Pike,,Seville,OH,44273,US,41.03497696,-81.86499786,2022-12-18 06:25:19
Hardee's,709 E Lincoln Way,,Minerva,OH,44657,US,40.73366928,-81.09448242,2022-12-18 07:39:41
Hardee's,10145 AVON LAKE RD,,BURBANK,OH,44214-9618,US,40.99624252,-81.99516296,2022-12-18 06:25:07
Hardee's,36900 Vine St,,Willoughby,OH,44094,US,41.64207458,-81.42347717,2022-12-18 06:25:19
Hardee's,782 S Wooster Avenue,,Strasburg,OH,44680,US,40.58846664,-81.52513885,2022-12-18 07:39:41
Hardee's,2620 Cassopolis St,,Elkhart,IN,46514,US,41.72084427,-85.97232056,2022-12-18 06:25:14
Hardee's,1213 47Th Street,,Grand Forks,ND,58201,US,47.9322052,-97.09696198,2022-12-18 06:25:11
Hardee's,1235 S. Green Bay,,Racine,WI,53406,US,42.71807861,-87.8458786,2022-12-18 06:25:07
Hardee's,400 STEWARD RD,,ROCHELLE,IL,61068,US,41.89805222,-89.06672668,2022-12-18 06:25:15
Hardee's,4628 S MAIN ST,,ROCKFORD,IL,61101,US,42.21572113,-89.10749054,2022-12-18 07:39:41
Hardee's,100 E. COMMERCE CT,,ELKHORN,WI,53121,US,42.65302277,-88.54273224,2022-12-18 07:39:41
Hardee's,13477 QUALITY DR,,ROSCOE,IL,61073-9762,US,42.45596695,-88.99812317,2022-12-18 07:39:41
Hardee's,912 N Market,,Waterloo,IL,62298,US,38.35725784,-90.15392303,2022-12-18 07:39:41
Hardee's,1305 Veterans Blvd,,Festus,MO,63028,US,38.21356201,-90.40843201,2022-12-18 06:25:16
Hardee's,10610 Business 21,,Hillsboro,MO,63050,US,38.23168945,-90.56227875,2022-12-18 06:25:16
Hardee's,1617 N Belt West,,Belleville,IL,62226,US,38.54192734,-90.00159454,2022-12-18 07:39:41
Hardee's,2 S Belt E,,Belleville,IL,62220,US,38.50247574,-89.98339844,2022-12-18 07:39:41
Hardee's,8850 Petroff Dr,,Caseyville,IL,62232,US,38.61542511,-90.04515076,2022-12-18 07:39:41
Hardee's,12974 Highway 21,,De Soto,MO,63020,US,38.14296341,-90.57894897,2022-12-18 06:25:16
Hardee's,2424 Sw 6Th Ave,,Topeka,KS,66606,US,39.05908585,-95.70560455,2022-12-18 06:25:09
Hardee's,1055 DAVE WARD DR,,CONWAY,AR,72034,US,35.06655884,-92.44023132,2022-12-18 06:25:13
Hardee's,4901 JOHN F KENNEDY BLVD,,NORTH LITTLE ROCK,AR,72116,US,34.80068588,-92.25546265,2022-12-18 06:25:13
Hardee's,2201 NORTH 2ND STREET,,CABOT,AR,72023,US,34.98942566,-91.99760437,2022-12-18 06:25:13
Hardee's,21 US HWY 64,,BEEBE,AR,72012,US,35.06860352,-91.92068481,2022-12-18 06:25:13
Hardee's,11700 INTERSTATE 30,,LITTLE ROCK,AR,72210,US,34.65694427,-92.41298676,2022-12-18 06:25:13
Hardee's,1221 W SOUTH STREET,,BENTON,AR,72015,US,34.56451797,-92.60112762,2022-12-18 06:25:13
Hardee's,3095 E MAIN ST,,RUSSELLVILLE,AR,72802,US,35.27836609,-93.09455109,2022-12-18 06:25:13
Hardee's,2505 QUEENSWAY ST,,SEARCY,AR,72143,US,35.21895981,-91.71624756,2022-12-18 06:25:18
Hardee's,2997 E RACE AVE,,SEARCY,AR,72143,US,35.25010681,-91.70124054,2022-12-18 06:25:07
Hardee's,1344 Highway 258 S,,Kinston,NC,28504,US,35.24420929,-77.58629608,2022-12-18 06:25:11
Hardee's,4171 W VERNON AVENUE,,KINSTON,NC,28504,US,35.26256943,-77.64580536,2022-12-18 06:25:11
Hardee's,5040 Hwy 117 N,,Pikeville,NC,27863,US,35.49746323,-77.98133087,2022-12-18 06:25:07
Hardee's,7946 VILLAGE CENTER NORTH,,SHERRILLS FORD,NC,28673,US,35.58546448,-80.98813629,2022-12-18 06:25:22
Hardee's,6090 N HIGHWAY 16,,DENVER,NC,28037,US,35.5577507,-81.06284332,2022-12-18 06:25:21
Hardee's,1205 E GARNER BAGNAL BLVD,,STATESVILLE,NC,28677,US,35.77246475,-80.86171722,2022-12-18 06:25:21
Hardee's,255 N CENTER ST,,STATESVILLE,NC,28677,US,35.78768158,-80.89050293,2022-12-18 06:25:21
Hardee's,140 DALE EARNHARDT BLVD,,KANNAPOLIS,NC,28081,US,35.49995041,-80.63124084,2022-12-18 06:25:21
Hardee's,509 HWY 29 NORTH,,CHINA GROVE,NC,28023,US,35.56930542,-80.5817337,2022-12-18 06:25:21
Hardee's,3099 WEST MAIN STREET,,CLAREMONT,NC,28610,US,35.71350098,-81.15224457,2022-12-18 06:25:21
Hardee's,609 CONOVER BOULEVARD W,,CONOVER,NC,28613,US,35.69605255,-81.22772217,2022-12-18 06:25:21
Hardee's,5860 STARTOWN ROAD,,MAIDEN,NC,28650,US,35.59123993,-81.25525665,2022-12-18 06:25:22
Hardee's,1102 East Main St,,Lincolnton,NC,28092,US,35.47528076,-81.24343109,2022-12-18 06:25:22
Hardee's,726 E INNES ST,,SALISBURY,NC,28144,US,35.66143417,-80.46269989,2022-12-18 06:25:21
Hardee's,1760 SOUTHFORK DRIVE,,NEWTON,NC,28658,US,35.63571167,-81.30101776,2022-12-18 06:25:21
Hardee's,8440 Highway 49 N,,Mount Pleasant,NC,28124,US,35.4103775,-80.43497467,2022-12-18 06:25:09
Hardee's,507 W MAIN ST,,ROCKWELL,NC,28138,US,35.55452347,-80.41207123,2022-12-18 06:25:21
Hardee's,2109 Savannah Hwy,,Charleston,SC,29414,US,32.79048157,-80.03627014,2022-12-18 06:25:09
Hardee's,2563 Ashley River Rd,,Charleston,SC,29414,US,32.83280182,-80.04499817,2022-12-18 06:25:09
Hardee's,2490 Clements Ferry Rd,,Wando,SC,29492,US,32.89575195,-79.922966,2022-12-18 06:25:22
Hardee's,5201 Ashley Phosphate Rd,,North Charleston,SC,29418,US,32.91460037,-80.10610962,2022-12-18 06:25:09
Hardee's,1506 Redbank Rd,,Goose Creek,SC,29445,US,32.96906662,-80.00644684,2022-12-18 06:25:16
Hardee's,6320 Savannah Hwy,,Ravenel,SC,29470,US,32.776577,-80.24872589,2022-12-18 06:25:09
Hardee's,10005 Dorchester Rd,,Summerville,SC,29485,US,32.95186615,-80.16329956,2022-12-18 06:25:09
Hardee's,201 N Goose Creek Blvd,,Goose Creek,SC,29445,US,33.00162125,-80.03862762,2022-12-18 06:25:11
Hardee's,2187 N Main St.,,Summerville,SC,29483,US,33.04697037,-80.10721588,2022-12-18 06:25:11
Hardee's,1402 N Main St.,,Summerville,SC,29483,US,33.03689575,-80.15299988,2022-12-18 06:25:11
Hardee's,422 N Highway 52,,Moncks Corner,SC,29461,US,33.20402527,-79.98731232,2022-12-18 06:25:16
Hardee's,8545 Old State Road,,Holly Hill,SC,29059,US,33.32229996,-80.41233063,2022-12-18 06:25:11
Hardee's,6002 W Jim Bilton Blvd,,Saint George,SC,29477,US,33.19533539,-80.60092163,2022-12-18 06:25:11
Hardee's,4538 Oakwood Rd,,Oakwood,GA,30566,US,34.22585297,-83.86745453,2022-12-18 06:25:13
Hardee's,100 Hazel Mosley Rd,,Jasper,GA,30143,US,34.45637894,-84.45271301,2022-12-18 06:25:13
Hardee's,113 N Broad St,,Winder,GA,30680,US,33.99403,-83.71710968,2022-12-18 06:25:11
Hardee's,1700 Old Pendergrass Rd,,Jefferson,GA,30549,US,34.12332916,-83.60704803,2022-12-18 06:25:14
Hardee's,315 S Broad St,,Monroe,GA,30655,US,33.79128647,-83.71215057,2022-12-18 06:25:11
Hardee's,701 Highway 53 Se,,Calhoun,GA,30701,US,34.47248077,-84.92311096,2022-12-18 06:25:18
Hardee's,2284 Us 41 Hwy Nw,,Calhoun,GA,30701,US,34.5605011,-84.93750763,2022-12-18 06:25:17
Hardee's,101 Princeton Blvd,,Adairsville,GA,30103,US,34.37639999,-84.91397858,2022-12-18 06:25:18
Hardee's,1204 Turner Mccall Blvd,,Rome,GA,30161,US,34.25584793,-85.16482544,2022-12-18 06:25:18
Hardee's,1099 NORTH THIRD ST,,CHATSWORTH,GA,30705-2117,US,34.78564453,-84.77194214,2022-12-18 06:25:17
Hardee's,1208 Industrial Blvd,,East Ellijay,GA,30540,US,34.68470001,-84.47439575,2022-12-18 06:25:21
Hardee's,4096 S Ridgewood Ave,,Port Orange,FL,32127,US,29.14230156,-80.98737335,2022-12-18 06:25:18
Hardee's,1098 W International Speedway Blvd,,Volusia,FL,32720,US,29.20094299,-81.04631042,2022-12-18 06:25:18
Hardee's,7561 MESOPOTAMIA ST,,EUTAW,AL,35462,US,32.8669014,-87.92263794,2022-12-18 06:25:18
Hardee's,970 Gilbert Ferry Rd Se,,Attalla,AL,35954,US,33.99668121,-86.09406281,2022-12-18 06:25:19
Hardee's,1771 Us Highway 431,,Boaz,AL,35957,US,34.21134949,-86.15605164,2022-12-18 06:25:20
Hardee's,1790 SIMPSON HIGHWAY 49,,MAGEE,MS,39111,US,31.87479973,-89.75563049,2022-12-18 06:25:12
Hardee's,3005 W 86TH ST,,INDIANAPOLIS,IN,46268-3602,US,39.91133118,-86.21308136,2022-12-18 06:25:17
Hardee's,3005 W 86TH ST,,INDIANAPOLIS,IN,46268,US,39.91128922,-86.21311188,2022-12-18 06:25:17
Hardee's,1426 E 86TH ST,,INDIANAPOLIS,IN,46240,US,39.91297913,-86.13520813,2022-12-18 06:25:09
Hardee's,2525 N HIGH SCHOOL RD,,INDIANAPOLIS,IN,46224,US,39.80218506,-86.26929474,2022-12-18 06:25:14
Hardee's,4915 E. 56TH STREET,,INDIANAPOLIS,IN,46220-5719,US,39.85480881,-86.08744049,2022-12-18 06:25:13
Hardee's,8601 ALLISONVILLE RD,,INDIANAPOLIS,IN,46250,US,39.91293335,-86.0739975,2022-12-18 06:25:09
Hardee's,4915 E. 56TH STREET,,INDIANAPOLIS,IN,46220,US,39.85480118,-86.08738708,2022-12-18 06:25:13
Hardee's,144 W 16TH ST,,INDIANAPOLIS,IN,46202-2343,US,39.78869247,-86.16053009,2022-12-18 06:25:14
Hardee's,144 W 16TH ST,,Indianapolis,IN,46202,US,39.78868103,-86.16051483,2022-12-18 06:25:14
Hardee's,710 W 10TH ST,,INDIANAPOLIS,IN,46202,US,39.78121567,-86.17098236,2022-12-18 06:25:14
Hardee's,11660 ALLISONVILLE RD,,FISHERS,IN,46038,US,39.95770264,-86.04017639,2022-12-18 06:25:09
Hardee's,921 E WASHINGTON ST,,INDIANAPOLIS,IN,46202,US,39.76652145,-86.14193726,2022-12-18 06:25:14
Hardee's,4401 E 10TH STREET,,INDIANAPOLIS,IN,46201,US,39.77936172,-86.09528351,2022-12-18 06:25:14
Hardee's,6313 W WASHINGTON ST,,INDIANAPOLIS,IN,46241,US,39.74592209,-86.27114868,2022-12-18 06:25:14
Hardee's,8009 PENDLETON PIKE,,INDIANAPOLIS,IN,46226,US,39.83612823,-86.02658844,2022-12-18 06:25:09
Hardee's,5950 BROOKVILLE RD,,INDIANAPOLIS,IN,46219,US,39.75842285,-86.06486511,2022-12-18 06:25:14
Hardee's,9020 E 21ST ST,,INDIANAPOLIS,IN,46229,US,39.79706192,-86.00852966,2022-12-18 06:25:13
Hardee's,5016 HARDING LN,,INDIANAPOLIS,IN,46217,US,39.69207764,-86.186203,2022-12-18 06:25:14
Hardee's,2500 CONNER ST,,NOBLESVILLE,IN,46060,US,40.04602051,-85.99662781,2022-12-18 06:25:07
Hardee's,143 N WASHINGTON POINTE DR,,CUMBERLAND,IN,46229-2636,US,39.77582932,-85.97991943,2022-12-18 06:25:13
Hardee's,3401 N Ballard Rd,,Appleton,WI,54911,US,44.29515076,-88.37573242,2022-12-18 06:25:14
Hardee's,902 S Green Bay Road,,Neenah,WI,54956,US,44.17642975,-88.48454285,2022-12-18 06:25:14
Hardee's,409 ALGOMA ST,,OSHKOSH,WI,54901,US,44.02006531,-88.54305267,2022-12-18 06:25:14
Hardee's,2100 S KOELLER STREET,,OSHKOSH,WI,54902,US,43.99393082,-88.57836914,2022-12-18 06:25:14
Hardee's,"2611 West Mason Street Packerland, WI",,Green Bay,WI,54303,US,44.52336884,-88.10011292,2022-12-18 06:25:09
Hardee's,1593 E Mason St,,Green Bay,WI,54302,US,44.4979744,-87.99106598,2022-12-18 06:25:14
Hardee's,2690 Eaton Rd,,Bellevue,WI,54311,US,44.46478271,-87.94862366,2022-12-18 06:25:14
Hardee's,759 W JOHNSON ST,,FOND DU LAC,WI,54935-2015,US,43.78488159,-88.47458649,2022-12-18 06:25:14
Hardee's,640 W FULTON ST,,WAUPACA,WI,54981-1428,US,44.35822296,-89.09679413,2022-12-18 06:25:11
Hardee's,1120 East Green Bay St,,Shawano,WI,54166,US,44.78178406,-88.58940125,2022-12-18 06:25:09
Hardee's,4409 State Highway 42 North,,Sheboygan,WI,53083,US,43.79151154,-87.76084137,2022-12-18 06:25:14
Hardee's,6710 S BUSINESS DRIVE,,SHEBOYGAN,WI,53081,US,43.6771965,-87.75791931,2022-12-18 06:25:14
Hardee's,1510 Belknap Ave,,Superior,WI,54880,US,46.72029114,-92.10036469,2022-12-18 06:25:15
Hardee's,2328 Humes Rd,,Janesville,WI,53545,US,42.7189064,-88.99443817,2022-12-18 07:39:41
Hardee's,619 S Galena St,,Dixon,IL,61021,US,41.8381424,-89.48082733,2022-12-18 06:25:14
Hardee's,1806 W Bradley Ave,,Champaign,IL,61821,US,40.12784195,-88.27823639,2022-12-18 07:39:41
Hardee's,309 N Market St,,Monticello,IL,61856,US,40.0272789,-88.57310486,2022-12-18 07:39:41
Hardee's,809 MOORE AVE,,TUSCOLA,IL,61953,US,39.79254913,-88.2660675,2022-12-18 07:39:41
Hardee's,17919 NEWTON ROAD,,OAKWOOD,IL,61858,US,40.13056183,-87.77729797,2022-12-18 07:39:41
Hardee's,451 W Ottawa Rd,,Paxton,IL,60957,US,40.45563126,-88.10621643,2022-12-18 07:39:41
Hardee's,15 W Fairchild St,,Danville,IL,61832,US,40.13892746,-87.63117218,2022-12-18 07:39:41
Hardee's,307 S Grant St,,Clinton,IL,61727,US,40.15013885,-88.96446228,2022-12-18 06:25:17
Hardee's,203 W Jackson,,Sullivan,IL,61951,US,39.60043716,-88.60997772,2022-12-18 06:25:16
Hardee's,1080 W Eldorado St,,Decatur,IL,62522,US,39.84588242,-88.97244263,2022-12-18 06:25:17
Hardee's,3925 COUNTY FAIR DRIVE,,DECATUR,IL,62526,US,39.89253998,-89.00286102,2022-12-18 06:25:17
Hardee's,1117 Lakeland Blvd,,Mattoon,IL,61938,US,39.47156143,-88.37689972,2022-12-18 06:25:13
Hardee's,316 S Main St,,Paris,IL,61944,US,39.60841751,-87.69443512,2022-12-18 07:39:41
Hardee's,1523 E College Ave,,Normal,IL,61761,US,40.50989914,-88.95758057,2022-12-18 06:25:15
Hardee's,401 S THOMPSON ST,,SPRINGDALE,AR,72764-4242,US,36.18213654,-94.13819122,2022-12-18 06:25:15
Hardee's,1625 HWY 412 W,,SILOAM SPRINGS,AR,72761-4557,US,36.17663956,-94.55744934,2022-12-18 06:25:14
Hardee's,4123 GRAND AVE,,FORT SMITH,AR,72904-7023,US,35.38570023,-94.3864212,2022-12-18 06:25:15
Hardee's,2720 ROGERS AVE,,FORT SMITH,AR,72901,US,35.37535858,-94.40261078,2022-12-18 06:25:15
Hardee's,2635 Annapolis Rd,,Hanover,MD,21076,US,39.13086319,-76.73980713,2022-12-18 06:25:07
Hardee's,1699 Crain Hwy S,,Glen Burnie,MD,21061,US,39.14331818,-76.63114166,2022-12-18 06:25:07
Hardee's,718 Nursery Rd,,Linthicum,MD,21090,US,39.22478104,-76.65924835,2022-12-18 06:25:07
Hardee's,4111 Mountain Rd,,Pasadena,MD,21122,US,39.12213898,-76.51535797,2022-12-18 06:25:11
Hardee's,20 Prosperity Rd,,Stafford,VA,22556,US,38.47087097,-77.41333008,2022-12-18 06:25:07
Hardee's,1157 Shopping Center Rd,,Stevensville,MD,21666,US,38.9753418,-76.29827881,2022-12-18 07:39:41
Hardee's,567 WARRENTON ROAD,,FALMOUTH,VA,22406,US,38.34465408,-77.49900818,2022-12-18 06:25:07
Hardee's,1700 PRINCESS ANNE ST,,FREDERICKSBURG,VA,22401,US,38.31006241,-77.4654007,2022-12-18 06:25:07
Hardee's,11825 TIDEWATER TRAIL,,FREDERICKSBURG,VA,22408,US,38.2816658,-77.45326233,2022-12-18 06:25:07
Hardee's,501 Church Hill Rd,,Centreville,MD,21617,US,39.04867554,-76.06214905,2022-12-18 07:39:41
Hardee's,646 Main Street,,Mcsherrystown,PA,17344,US,39.80710983,-77.01114655,2022-12-18 06:25:07
Hardee's,10706 Patriot Highway,,Fredericksburg,VA,22408,US,38.25613785,-77.4980011,2022-12-18 06:25:07
Hardee's,9811 COURTHOUSE RD,,SPOTSYLVANIA,VA,22553,US,38.23367691,-77.55820465,2022-12-18 06:25:07
Hardee's,413 EAST MAIN,,LOUISA,VA,23093,US,38.02046585,-77.99308777,2022-12-18 06:25:12
Hardee's,194 MADISON RD,,ORANGE,VA,22960,US,38.24824905,-78.11292267,2022-12-18 06:25:09
Hardee's,106 N Washington Hwy,,Ashland,VA,23005,US,37.75928879,-77.47212219,2022-12-18 06:25:07
Hardee's,110 W GORDON AVENUE,,GORDONSVILLE,VA,22942,US,38.14229965,-78.19017792,2022-12-18 06:25:09
Hardee's,4733 RICHMOND ROAD,,WARSAW,VA,22572,US,37.96201706,-76.77677917,2022-12-18 06:25:07
Hardee's,8211 BROOK ROAD,,Richmond,VA,23227,US,37.63599777,-77.45883942,2022-12-18 06:25:07
Hardee's,3201 E. PARHAM ROAD,,RICHMOND,VA,23228,US,37.63260269,-77.50691986,2022-12-18 06:25:07
Hardee's,1945 SANDY HOOK RD,,GOOCHLAND,VA,23063,US,37.69937515,-77.88822174,2022-12-18 06:25:12
Hardee's,6302 LAKESIDE AVENUE,,RICHMOND,VA,23228,US,37.61297607,-77.47032928,2022-12-18 06:25:07
Hardee's,LESTER SQUARE RD,,SOPHIA,WV,25921-1303,US,37.77722931,-81.21779633,2022-12-18 06:25:17
Hardee's,19 RITTER DR,,BEAVER,WV,25813,US,37.74953842,-81.13643646,2022-12-18 06:25:17
Hardee's,Route 60 West,,Rainelle,WV,25962,US,37.96881866,-80.7670517,2022-12-18 06:25:19
Hardee's,10401 Maccorkle Ave,,Marmet,WV,25315,US,38.24154282,-81.56230164,2022-12-18 06:25:17
Hardee's,122 Huff Creek Hwy,,Man,WV,25635,US,37.72972488,-81.87038422,2022-12-18 06:25:16
Hardee's,1401 Webster Road,,Summersville,WV,26651,US,38.28393936,-80.8446579,2022-12-18 06:25:19
Hardee's,2029 N Jefferson St,,Lewisburg,WV,24901,US,37.81342697,-80.43151093,2022-12-18 06:25:18
Hardee's,1506 Bigley Ave,,Charleston,WV,25302,US,38.36103821,-81.62240601,2022-12-18 06:25:18
Hardee's,4400 Pennsylvania Avenue,,Big Chimney,WV,25302,US,38.4066124,-81.54125977,2022-12-18 06:25:18
Hardee's,300 MAIN ST,,CHAPMANVILLE,WV,25508,US,37.97410202,-82.01664734,2022-12-18 06:25:16
Hardee's,612 Mac Corkle Ave,,South Charleston,WV,25303,US,38.36713409,-81.68547058,2022-12-18 06:25:18
Hardee's,9 Alvon Rd,,White Sulphur Spring,WV,24986,US,37.8031044,-80.28549957,2022-12-18 06:25:18
Hardee's,4607 S ALSTON AVE,,DURHAM,NC,27713,US,35.90026474,-78.88846588,2022-12-18 07:39:41
Hardee's,5639 HILLSBOROUGH ST,,RALEIGH,NC,27606,US,35.78595352,-78.72267914,2022-12-18 07:39:41
Hardee's,5601 CREEDMOOR RD,,Raleigh,NC,27612,US,35.85817719,-78.68103027,2022-12-18 07:39:41
Hardee's,2304 GORMAN ST,,Raleigh,NC,27606,US,35.76743698,-78.69460297,2022-12-18 07:39:41
Hardee's,6116 FARRINGTON ROAD,,CHAPEL HILL,NC,27517,US,35.91083908,-78.98445892,2022-12-18 07:39:41
Hardee's,2721 CHAPEL HILL RD,,DURHAM,NC,27707,US,35.97522736,-78.936203,2022-12-18 07:39:41
Hardee's,10544 US Hwy 64,,Apex,NC,27523,US,35.73615646,-79.00086212,2022-12-18 07:39:41
Hardee's,1800 CHAPEL HILL-DURHAM,,CHAPEL HILL,NC,27514-2201,US,35.94464111,-79.01155853,2022-12-18 07:39:41
Hardee's,1800 CHAPEL HILL-DURHAM,,CHAPEL HILL,NC,27514,US,35.94462204,-79.0115509,2022-12-18 07:39:41
Hardee's,8000 FAYETTEVILLE ROAD,,RALEIGH,NC,27603,US,35.66544724,-78.69998932,2022-12-18 06:25:07
Hardee's,100 VANDORA SPRINGS RD,,GARNER,NC,27529,US,35.71252441,-78.62103271,2022-12-18 07:39:41
Hardee's,3912 NORTH DUKE STREET,,DURHAM,NC,27704,US,36.05376434,-78.90378571,2022-12-18 07:39:41
Hardee's,1560 NORTH BROAD STREET,,FUQUAY VARINA,NC,27526,US,35.60449219,-78.80353546,2022-12-18 06:25:07
Hardee's,403 SOUTH MAIN STREET,,ROLESVILLE,NC,27571,US,35.91810226,-78.46487427,2022-12-18 07:39:41
Hardee's,28 EAST ST,,PITTSBORO,NC,27312,US,35.71984863,-79.17552948,2022-12-18 07:39:41
Hardee's,380 SOUTH CHURTON STREET,,HILLSBOROUGH,NC,27278,US,36.05826187,-79.10426331,2022-12-18 07:39:41
Hardee's,12872 US 70 HWY W,,CLAYTON,NC,27520,US,35.66612244,-78.49706268,2022-12-18 06:25:07
Hardee's,2568 W LYON STATION RD,,CREEDMOOR,NC,27522,US,36.14938354,-78.72523499,2022-12-18 07:39:41
Hardee's,36 SPRINGBROOK AVE,,CLAYTON,NC,27520,US,35.62828827,-78.50489044,2022-12-18 06:25:07
Hardee's,253 N RALEIGH STREET,,ANGIER,NC,27501,US,35.51089478,-78.74104309,2022-12-18 06:25:07
Hardee's,1217 TROLLINGWOOD HAWFIELDS RD,,MEBANE,NC,27302,US,36.06777573,-79.31346893,2022-12-18 07:39:41
Hardee's,303 N MADISON BOULEVARD,,ROXBORO,NC,27573,US,36.3978157,-78.9834137,2022-12-18 07:39:41
Hardee's,620 LEWIS STREET,,OXFORD,NC,27565,US,36.29553986,-78.60216522,2022-12-18 07:39:41
Hardee's,3257 U.S. Highway 1,,Franklinton,NC,27525,US,36.09675217,-78.46973419,2022-12-18 07:39:41
Hardee's,104 Mccurdy Ave S,,Rainsville,AL,35986,US,34.4932518,-85.84728241,2022-12-18 06:25:18
Hardee's,624 N Church St,,Thomaston,GA,30286,US,32.90074921,-84.32850647,2022-12-18 06:25:19
Hardee's,1702 E 16Th Ave,,Cordele,GA,31015,US,31.96025848,-83.75566864,2022-12-18 06:25:17
Hardee's,220 Tripp St,,Americus,GA,31709,US,32.07159042,-84.21707153,2022-12-18 06:25:11
Hardee's,436 N Slappey Blvd,,Albany,GA,31701,US,31.58241653,-84.17578125,2022-12-18 06:25:11
Hardee's,2324 E Oglethorpe Blvd,,Albany,GA,31705,US,31.57403374,-84.09506989,2022-12-18 06:25:14
Hardee's,258 Us 19 S,,Leesburg,GA,31763,US,31.7213707,-84.17279816,2022-12-18 06:25:11
Hardee's,899 Forrester Dr Se,,Dawson,GA,39842,US,31.76110077,-84.43772125,2022-12-18 06:25:11
Hardee's,226 W Crawford St,,Colquitt,GA,39837,US,31.17180634,-84.73708344,2022-12-18 06:25:11
Hardee's,2501 Airport Thruway,,Columbus,GA,31904,US,32.52036667,-84.95798492,2022-12-18 06:25:07
Hardee's,1300 280 Byp,,Phenix City,AL,36867,US,32.47202682,-85.02883148,2022-12-18 06:25:07
Hardee's,3848 St Marys Rd,,Columbus,GA,31906,US,32.44668579,-84.92884827,2022-12-18 06:25:07
Hardee's,7000 Ruffie Way,,Midland,GA,31820,US,32.53910446,-84.86841583,2022-12-18 06:25:07
Hardee's,1902 Marvyn Pkwy,,Opelika,AL,36804,US,32.62997437,-85.37249756,2022-12-18 06:25:07
Hardee's,3194 S EUFAULA AVE,,EUFAULA,AL,36027-4406,US,31.84345245,-85.16802216,2022-12-18 06:25:07
Hardee's,4624 W. Main Street,,Dothan,AL,36305,US,31.23781776,-85.46219635,2022-12-18 06:25:17
Hardee's,1086 Ross Clark Cir,,Dothan,AL,36303,US,31.2176857,-85.36168671,2022-12-18 06:25:11
Hardee's,2727 S Oates St,,Dothan,AL,36301,US,31.18775558,-85.40085602,2022-12-18 06:25:17
Hardee's,16832 Us Hwy 431 South,,Headland,AL,36345,US,31.35244942,-85.32789612,2022-12-18 06:25:11
Hardee's,1333 Andrews Ave,,Ozark,AL,36360,US,31.44849014,-85.65679169,2022-12-18 06:25:19
Hardee's,110 S State Highway 167,,Hartford,AL,36344,US,31.096035,-85.70890045,2022-12-18 06:25:19
Hardee's,5425 Cotton St,,Graceville,FL,32440,US,30.96292114,-85.51694489,2022-12-18 06:25:18
Hardee's,650 Ozark Rd,,Abbeville,AL,36310,US,31.55136681,-85.28358459,2022-12-18 06:25:11
Hardee's,911 Fort Rucker Blvd,,Enterprise,AL,36330,US,31.32384491,-85.82919312,2022-12-18 06:25:19
Hardee's,1301 Maple Ave,,Geneva,AL,36340,US,31.04701614,-85.89323425,2022-12-18 06:25:20
Hardee's,1212 Main St,,Chipley,FL,32428,US,30.76647949,-85.54060364,2022-12-18 06:25:18
Hardee's,2633 Highway 231,,Cottondale,FL,32431,US,30.75817871,-85.38024139,2022-12-18 06:25:18
Hardee's,310 E 3Rd St,,Donalsonville,GA,39845,US,31.04079819,-84.87800598,2022-12-18 06:25:14
Hardee's,4652 E Highway 90,,Marianna,FL,32446,US,30.77071381,-85.20741272,2022-12-18 06:25:18
Hardee's,2111 S Waukesha St,,Bonifay,FL,32425,US,30.76838493,-85.68527985,2022-12-18 06:25:18
Hardee's,803 FLORALA HWY,,OPP,AL,36467-3311,US,31.27359009,-86.24859619,2022-12-18 06:25:20
Hardee's,2439 West Main Street,,Tupelo,MS,38801,US,34.25517654,-88.74545288,2022-12-18 06:25:07
Hardee's,5016 Raymond St,,Tupelo,MS,38801,US,34.27806473,-88.73136139,2022-12-18 06:25:07
Hardee's,477 E Main St,,Tupelo,MS,38804,US,34.25795746,-88.69573212,2022-12-18 06:25:07
Hardee's,112 WILLOW BROOK DR,,Saltillo,MS,38866,US,34.37413788,-88.69992828,2022-12-18 06:25:07
Hardee's,124 HWY 15 NORTH,,Pontotoc,MS,38863,US,34.25093842,-89.01739502,2022-12-18 06:25:12
Hardee's,600 South Adams St,,Fulton,MS,38843,US,34.26755524,-88.40344238,2022-12-18 06:25:07
Hardee's,909 HWY 278 ST EAST,,Amory,MS,38821,US,33.98089981,-88.4761734,2022-12-18 06:25:07
Hardee's,444 N Jackson Street,,Houston,MS,38851,US,33.89990616,-88.9997406,2022-12-18 06:25:12
Hardee's,1202 N 2ND ST,,Booneville,MS,38829,US,34.67921448,-88.55996704,2022-12-18 06:25:07
Hardee's,261 Bexar Ave E,,Hamilton,AL,35570,US,34.14217377,-87.98557281,2022-12-18 06:25:07
Hardee's,6757 Hwy 45 South,,West Point,MS,39773,US,33.57892609,-88.65931702,2022-12-18 06:25:12
Hardee's,4945 S EMERSON AVE,,INDIANAPOLIS,IN,46203,US,39.6951828,-86.08184814,2022-12-18 06:25:14
Hardee's,8015 S MERIDIAN ST,,INDIANAPOLIS,IN,46217,US,39.65078735,-86.15782928,2022-12-18 06:25:14
Hardee's,1001 N US HIGHWAY 31,,NEW WHITELAND,IN,46184,US,39.55810547,-86.09526062,2022-12-18 06:25:14
Hardee's,5160 SOUTHPORT ROAD,,INDIANAPOLIS,IN,46237,US,39.66078568,-86.24808502,2022-12-18 06:25:14
Hardee's,143 N Washington Pointe Drive,,Cumberland,IN,46229,US,39.77583313,-85.97988892,2022-12-18 06:25:14
Hardee's,1630 E MAIN ST,,PLAINFIELD,IN,46168,US,39.71025085,-86.3793869,2022-12-18 06:25:17
Hardee's,2201 CR 17,,GOSHEN,IN,46528-7103,US,41.66579056,-85.88886261,2022-12-18 06:25:14
Hardee's,3360 Lake City Hwy,,Warsaw,IN,46580,US,41.23368454,-85.80665588,2022-12-18 06:25:14
Hardee's,3443 W MAUMEE ST,,ANGOLA,IN,46703-3400,US,41.63380814,-85.05031586,2022-12-18 06:25:11
Hardee's,5918 LIMA RD,,FORT WAYNE,IN,46818,US,41.13286209,-85.15996552,2022-12-18 06:25:11
Hardee's,1731 APPLE GLEN BLVD,,FORT WAYNE,IN,46804,US,41.07158661,-85.20023346,2022-12-18 06:25:07
Hardee's,369 Hamline Ave N,,Saint Paul,MN,55104,US,44.95242691,-93.15769196,2022-12-18 07:39:41
Hardee's,I-35 & HWY 97,,COLUMBUS,MN,55025,US,45.2497406,-93.02272034,2022-12-18 07:39:41
Hardee's,12520 Fremont Ave,,Zimmerman,MN,55398,US,45.4431076,-93.58613586,2022-12-18 06:25:15
Hardee's,7099 11Th St N,,Oakdale,MN,55128,US,44.9643631,-92.96266174,2022-12-18 07:39:41
Hardee's,925 1St St E,,Milaca,MN,56353,US,45.7563591,-93.63916779,2022-12-18 06:25:17
Hardee's,151 County Road 120,,St. Cloud,MN,56303,US,45.59226227,-94.19252777,2022-12-18 06:25:15
Hardee's,8708 Crossing Dr.,,ROCKVILLE,MN,56301,US,45.51131058,-94.28607178,2022-12-18 06:25:15
Hardee's,1106 N Carbon St,,Marion,IL,62959,US,37.73732376,-88.94837952,2022-12-18 06:25:09
Hardee's,615 S Park Ave,,Herrin,IL,62948,US,37.79720688,-89.02806854,2022-12-18 06:25:09
Hardee's,1308 S Division St,,Carterville,IL,62918,US,37.74630356,-89.07668304,2022-12-18 06:25:09
Hardee's,1105 W Main St,,West Frankfort,IL,62896,US,37.89822769,-88.94158936,2022-12-18 06:25:09
Hardee's,629 W Main St,,Benton,IL,62812,US,37.99705887,-88.92823029,2022-12-18 07:39:41
Hardee's,340 Walnut St,,Murphysboro,IL,62966,US,37.76499176,-89.32733154,2022-12-18 07:39:41
Hardee's,700 E Poplar,,Harrisburg,IL,62946,US,37.73855591,-88.53330231,2022-12-18 06:25:17
Hardee's,322 S Washington St,,Du Quoin,IL,62832,US,38.00666046,-89.23574829,2022-12-18 07:39:41
Hardee's,140 E Vienna St,,Anna,IL,62906,US,37.45996475,-89.24476624,2022-12-18 06:25:09
Hardee's,1205 Us Highway 45 N,,Eldorado,IL,62930,US,37.80651855,-88.44094086,2022-12-18 06:25:11
Hardee's,4333 Broadway St,,Mount Vernon,IL,62864,US,38.31280899,-88.94651031,2022-12-18 07:39:41
Hardee's,1600 Broadway St,,Mount Vernon,IL,62864,US,38.31676102,-88.91028595,2022-12-18 07:39:41
Hardee's,601 Ferry St,,Metropolis,IL,62960,US,37.15240479,-88.73118591,2022-12-18 06:25:17
Hardee's,2115 William St,,Cape Girardeau,MO,63703,US,37.302742,-89.54935455,2022-12-18 06:25:09
Hardee's,421 E JACKSON BLVD,,JACKSON,MO,63755-2423,US,37.3757782,-89.66446686,2022-12-18 06:25:09
Hardee's,421 E Jackson Blvd,,Jackson,MO,63755,US,37.37571716,-89.66444397,2022-12-18 06:25:09
Hardee's,5104 HINKLEVILLE RD,,PADUCAH,KY,42001-9132,US,37.0760498,-88.68672943,2022-12-18 06:25:17
Hardee's,5104 Hinkleville Rd,,Paducah,KY,42001,US,37.0760994,-88.68674469,2022-12-18 06:25:17
Hardee's,180 S Mill St,,Nashville,IL,62263,US,38.3429985,-89.38020325,2022-12-18 07:39:41
Hardee's,217 W Holmes St,,Chester,IL,62233,US,37.91478348,-89.82215118,2022-12-18 07:39:41
Hardee's,3249 W Chain Of Rocks,,Granite City,IL,62040,US,38.76150513,-90.12380981,2022-12-18 06:25:16
Hardee's,2720 Godfrey Rd,,Godfrey,IL,62035,US,38.92355347,-90.19221497,2022-12-18 06:25:07
Hardee's,1099 Edwardsville Rd.,,Wood River,IL,62095,US,38.86434555,-90.07939148,2022-12-18 06:25:16
Hardee's,"4207 S, Il-159",,Glen Carbon,IL,62034,US,38.77326965,-89.95719147,2022-12-18 06:25:16
Hardee's,519 Belt Line Rd,,Collinsville,IL,62234,US,38.69135284,-89.98021698,2022-12-18 07:39:41
Hardee's,528 S State St,,Jerseyville,IL,62052,US,39.11460495,-90.32414246,2022-12-18 06:25:07
Hardee's,1820 PHOENIX AV,,FORT SMITH,AR,72901,US,35.33856201,-94.41565704,2022-12-18 06:25:15
Hardee's,2102 E CHEROKEE AVE,,SALLISAW,OK,74955,US,35.45664597,-94.76792145,2022-12-18 06:25:14
Hardee's,2500 CLARK RD,,CLARKSVILLE,AR,72830,US,35.4646492,-93.518013,2022-12-18 06:25:15
Hardee's,1600 Earl L Core Rd,,Morgantown,WV,26505,US,39.62617111,-79.92602539,2022-12-18 06:25:11
Hardee's,124 E Roy Furman Hwy,,Waynesburg,PA,15370,US,39.89606476,-80.16120911,2022-12-18 07:39:41
Hardee's,405 Main St,,Kingwood,WV,26537,US,39.47022629,-79.67367554,2022-12-18 06:25:11
Hardee's,2649 White Hall Blvd,,Fairmont,WV,26554,US,39.42818069,-80.18809509,2022-12-18 06:25:11
Hardee's,1201 NORTH AVE,,MILLVALE,PA,15209,US,40.49308395,-79.97557831,2022-12-18 07:39:41
Hardee's,3815 MECHANICSVILLE PIKE,,RICHMOND,VA,23223,US,37.5784874,-77.3942337,2022-12-18 06:25:07
Hardee's,1035 BETHANIA RD,,RURAL HALL,NC,27045-9552,US,36.21274948,-80.30155182,2022-12-18 07:39:41
Hardee's,1350 HIGHWAY 601 SOUTH,,MOCKSVILLE,NC,27028,US,35.86971664,-80.55187988,2022-12-18 06:25:21
Hardee's,2898 Cornwallis Rd,,Garner,NC,27529,US,35.58240128,-78.54118347,2022-12-18 06:25:07
Hardee's,11959 NC 210,,BENSON,NC,27504,US,35.51594543,-78.55421448,2022-12-18 06:25:07
Hardee's,1262 N BRIGHTLEAF BLVD,,SMITHFIELD,NC,27577,US,35.51912689,-78.31222534,2022-12-18 06:25:07
Hardee's,437 US HWY 70,,SELMA,NC,27576,US,35.5209465,-78.29203796,2022-12-18 06:25:07
Hardee's,2518 Carolina Beach Rd,,Wilmington,NC,28401,US,34.19250107,-77.9354248,2022-12-16 15:27:37
Hardee's,1970 S 17Th St,,Wilmington,NC,28401,US,34.21072006,-77.92538452,2022-12-18 06:25:12
Hardee's,1420 Floral Pkwy,,Wilmington,NC,28403,US,34.21515274,-77.90158844,2022-12-16 15:27:37
Hardee's,101 Village Rd Ne,,Leland,NC,28451,US,34.2326889,-77.99588013,2022-12-18 06:25:12
Hardee's,1900 Castle Hayne Rd,,Wilmington,NC,28401,US,34.27324677,-77.92565155,2022-12-18 06:25:12
Hardee's,254 Lake Park Blvd,,Carolina Bch,NC,28428,US,34.03583908,-77.89344025,2022-12-16 15:27:38
Hardee's,5601 Castle Hayne Rd,,Castle Hayne,NC,28429,US,34.3531723,-77.90139008,2022-12-18 06:25:12
Hardee's,3678 Maco Road,,Northwest,NC,28451,US,34.28544235,-78.13860321,2022-12-18 06:25:12
Hardee's,1616 N Howe ST,,Southport,NC,28461,US,33.94009399,-78.02651978,2022-12-16 15:27:38
Hardee's,14535 US HWY 17 SOUTH,,HAMPSTEAD,NC,28443,US,34.36576462,-77.71317291,2022-12-18 06:25:12
Hardee's,8081 Us Highway 117 S,,Rocky Point,NC,28457,US,34.44100952,-77.88069916,2022-12-18 06:25:12
Hardee's,5 Ocean Hwy E,,Supply,NC,28462,US,34.01789856,-78.27308655,2022-12-16 15:27:38
Hardee's,418 ROLAND AVENUE,,SURF CITY,NC,28445,US,34.42873383,-77.546875,2022-12-16 15:27:37
Hardee's,500 US HIGHWAY 117,,BURGAW,NC,28425,US,34.55973816,-77.91931152,2022-12-18 06:25:12
Hardee's,4414 Main Street,,Shallotte,NC,28470,US,33.98595047,-78.36462402,2022-12-18 06:25:21
Hardee's,968 NC HWY 210,,SNEADS FERRY,NC,28460,US,34.54837036,-77.43427277,2022-12-18 06:25:22
Hardee's,1651 SEASIDE ROAD SW,,OCEAN ISLE BEACH,NC,28469,US,33.89878845,-78.48742676,2022-12-18 06:25:21
Hardee's,265 Washington Street,,Whiteville,NC,28472,US,34.33862305,-78.70806885,2022-12-18 06:25:14
Hardee's,3001 RICHLANDS HIGHWAY,,JACKSONVILLE,NC,28540,US,34.75516891,-77.47051239,2022-12-18 06:25:13
Hardee's,952 S State St,,Yadkinville,NC,27055,US,36.11619186,-80.66028595,2022-12-18 06:25:21
Hardee's,3020 NC HWY 127 S,,HICKORY,NC,28602,US,35.77212906,-81.32952881,2022-12-18 06:25:15
Hardee's,1110 LENOIR RHYNE BLVD,,HICKORY,NC,28602,US,35.74710083,-81.36287689,2022-12-18 06:25:21
Hardee's,1901 Addison Ave,,Wilkesboro ,NC,28697,US,36.14961624,-81.19468689,2022-12-18 06:25:14
Hardee's,27 PINEWOOD RD,,GRANITE FALLS,NC,28630,US,35.81030655,-81.43221283,2022-12-18 06:25:15
Hardee's,3 Pelham Rd,,Greenville,SC,29615,US,34.86888885,-82.35457611,2022-12-18 06:25:07
Hardee's,1213 Woodruff Rd,,Greenville,SC,29616,US,34.82315063,-82.28862,2022-12-18 06:25:07
Hardee's,3203 Wade Hampton Blvd,,Taylors,SC,29687,US,34.91536713,-82.31990051,2022-12-18 06:25:07
Hardee's,201 Rutherford Street,,Greenville,SC,29609,US,34.86099625,-82.40499115,2022-12-18 06:25:07
Hardee's,115 Main St South,,Mauldin,SC,29662,US,34.77766418,-82.30840302,2022-12-18 06:25:07
Hardee's,451 Mills Ave # 29,,Greenville,SC,29605,US,34.82584381,-82.41059113,2022-12-18 06:25:07
Hardee's,14520 E Wade Hampton Blvd,,Greer,SC,29651,US,34.94849396,-82.21891785,2022-12-18 06:25:07
Hardee's,1008 Ne Main Street,,Simpsonville,SC,29681,US,34.75682068,-82.26847076,2022-12-18 06:25:07
Hardee's,6133 Augusta Road,,Greenville,SC,29605,US,34.77073669,-82.38565826,2022-12-18 06:25:07
Hardee's,2306 W Parker Rd,,Greenville,SC,29617,US,34.88119888,-82.45410156,2022-12-18 06:25:07
Hardee's,1397 E Main St,,Duncan,SC,29334,US,34.91668701,-82.10993958,2022-12-18 06:25:07
Hardee's,12209 Greenville Hwy 29,,Lyman,SC,29365,US,34.9550705,-82.1294632,2022-12-18 06:25:07
Hardee's,100 Chevy Drive,,Fountain Inn,SC,29644,US,34.69012833,-82.21736145,2022-12-18 06:25:07
Hardee's,904 Anderson St,,Piedmont,SC,29673,US,34.70107651,-82.47580719,2022-12-18 06:25:07
Hardee's,5279 Calhoun Memorial Hwy,,Easley,SC,29640,US,34.8252449,-82.56315613,2022-12-18 06:25:07
Hardee's,2451 Reidville Road,,Spartanburg,SC,29301,US,34.91960526,-81.99538422,2022-12-18 06:25:07
Hardee's,421 W Main St,,Easley,SC,29640,US,34.8285675,-82.61058807,2022-12-18 06:25:07
Hardee's,2499 Blackstock Road,,Roebuck,SC,29376,US,34.87266541,-81.95955658,2022-12-18 06:25:07
Hardee's,509 E KING ST,,KINGS MOUNTAIN,NC,28086,US,35.2413826,-81.33328247,2022-12-18 06:25:07
Hardee's,1791 J A COCHRAN BYP,,CHESTER,SC,29706,US,34.70531845,-81.19139099,2022-12-18 06:25:07
Hardee's,4900 Palm Beach Blvd,,Fort Myers,FL,33905,US,26.67961311,-81.80580902,2022-12-18 06:25:19
Hardee's,101 Lincoln Dr,,Hodgenville,KY,42748,US,37.55049133,-85.73390961,2022-12-18 06:25:13
Hardee's,1504 Us Highway 68,,Maysville,KY,41056,US,38.63131714,-83.79553986,2022-12-18 07:39:41
Hardee's,2720 MAPLECREST ROAD,,FORT WAYNE,IN,46815,US,41.10243225,-85.05984497,2022-12-18 06:25:11
Hardee's,116 W. RUDISILL BLVD.,,FORT WAYNE,IN,46807,US,41.05037689,-85.13794708,2022-12-18 06:25:07
Hardee's,240 N 13TH ST,,DECATUR,IN,46733,US,40.83061981,-84.9372406,2022-12-18 06:25:07
Hardee's,2209 NORTH JEFFERSON STREET,,HUNTINGTON,IN,46750,US,40.89644241,-85.50790405,2022-12-18 06:25:07
Hardee's,211 N Main St,,Bluffton,IN,46714,US,40.74119186,-85.17095947,2022-12-18 06:25:07
Hardee's,4950 Beaner Blvd,,Gas City,IN,46933,US,40.48091507,-85.55120087,2022-12-18 06:25:07
Hardee's,3808 S Western Ave,,Marion,IN,46953,US,40.52225876,-85.67415619,2022-12-18 06:25:07
Hardee's,2205 Hall Ave,,Marinette,WI,54143,US,45.09913635,-87.63694,2022-12-18 06:25:09
Hardee's,100 Jimmy Dr,,Smyrna,DE,19977,US,39.28505707,-75.59500885,2022-12-18 07:39:41
Hardee's,519 S Bay Rd,,Dover,DE,19901,US,39.15659332,-75.50862885,2022-12-18 07:39:41
Hardee's,50 Greentree Dr,,Dover,DE,19904,US,39.15951157,-75.55471039,2022-12-18 07:39:41
Hardee's,1804 West Trindle Road,,Carlisle,PA,17013,US,40.19953918,-77.15532684,2022-12-18 06:25:11
Hardee's,724 Allegheny St,,Dauphin,PA,17018,US,40.3687439,-76.93962097,2022-12-18 06:25:12
Hardee's,2203 Paxton St,,Harrisburg,PA,17111,US,40.25473785,-76.84844971,2022-12-18 06:25:09
Hardee's,230 Nissley St,,Middletown,PA,17057,US,40.19776535,-76.73521423,2022-12-18 07:39:41
Hardee's,500 North Main Street,,Spring Grove,PA,17362,US,39.88641739,-76.86151123,2022-12-18 06:25:11
Hardee's,2020 West Market Street,,York,PA,17404,US,39.95206451,-76.77165985,2022-12-18 07:39:41
Hardee's,1617 North George Street,,York,PA,17404,US,39.98417282,-76.73452759,2022-12-18 07:39:41
Hardee's,625 Lincoln Way East,,Chambersburg,PA,17201,US,39.93381119,-77.64844513,2022-12-18 06:25:07
Hardee's,820 East Main Street,,Dallastown,PA,17313,US,39.8967514,-76.62428284,2022-12-18 07:39:41
Hardee's,1527 East Main Street,,Waynesboro,PA,17268,US,39.74470901,-77.55352783,2022-12-18 06:25:07
Hardee's,30 S Antrim Way,,Greencastle,PA,17225,US,39.79080963,-77.73184204,2022-12-18 06:25:07
Hardee's,198 W Lincoln Avenue,,Myerstown,PA,17067,US,40.37770462,-76.30949402,2022-12-18 07:39:41
Hardee's,1416 W Main St,,Waynesboro,VA,22980,US,38.07190704,-78.90029144,2022-12-18 06:25:09
Hardee's,2578 STUARTS DRAFT HWY,,STUARTS DRAFT,VA,24477,US,38.03381348,-79.03843689,2022-12-18 06:25:09
Hardee's,277 Laurel Hill,,Verona,VA,24482,US,38.1937027,-79.00123596,2022-12-18 06:25:09
Hardee's,241 N CENTRAL AVENUE,,STAUNTON,VA,24401,US,38.15283585,-79.07361603,2022-12-18 06:25:09
Hardee's,1150 5TH ST SW,,CHARLOTTESVILLE,VA,22902-6449,US,38.01219177,-78.50183868,2022-12-18 06:25:09
Hardee's,785 MARTIN LUTHER KING WAY,,HARRISONBUG,VA,22801,US,38.44035721,-78.85736084,2022-12-18 06:25:09
Hardee's,2801 Beech Avenue,,Buena Vista,VA,24416,US,37.74209976,-79.35546875,2022-12-18 06:25:15
Hardee's,76 E. Midland Trail,,Lexington,VA,24450,US,37.7753334,-79.43318176,2022-12-18 06:25:15
Hardee's,114 AMBRIAR PLAZA,,AMHERST,VA,24521,US,37.56345749,-79.06465912,2022-12-18 06:25:15
Hardee's,14078 TIMBERWAY,,TIMBERVILLE,VA,22853,US,38.62880707,-78.77796936,2022-12-18 06:25:09
Hardee's,161 LAKEVIEW DR,,MADISON HEIGHTS,VA,24572,US,37.44203186,-79.12098694,2022-12-18 06:25:15
Hardee's,2231 LANGHORNE RD,,LYNCHBURG,VA,24501,US,37.41236877,-79.17343903,2022-12-18 06:25:15
Hardee's,7551 Richmond Hwy,,Appomattox,VA,24522,US,37.36352158,-78.85044861,2022-12-18 06:25:12
Hardee's,607 EAST MAIN STREET,,LURAY,VA,22835,US,38.66572952,-78.44981384,2022-12-18 06:25:09
Hardee's,2210 Highway 601N,,PAGELAND,SC,29728,US,34.7983017,-80.40599823,2022-12-18 06:25:09
Hardee's,705 LEONARD AVE,,ALBEMARLE,NC,28001,US,35.34281921,-80.17614746,2022-12-18 06:25:21
Hardee's,1205 BURKEMONT AVE,,MORGANTON,NC,28655,US,35.71780396,-81.69408417,2022-12-18 06:25:13
Hardee's,863 N GREEN ST,,MORGANTON,NC,28655,US,35.75214767,-81.71354675,2022-12-18 06:25:13
Hardee's,670 MORGANTON BLVD,,LENOIR,NC,28645,US,35.90714645,-81.53232574,2022-12-18 06:25:14
Hardee's,324 S CENTER ST,,HILDEBRAN,NC,28637,US,35.70744705,-81.42337036,2022-12-18 06:25:13
Hardee's,570 Pineola ST,,Newland,NC,28657,US,36.08285904,-81.92963409,2022-12-18 06:25:14
Hardee's,1325 DUTCH FORK RD,,IRMO,SC,29063-8788,US,34.12405014,-81.23600769,2022-12-18 06:25:17
Hardee's,1325 Dutch Fork Rd,,Irmo,SC,29063,US,34.12405014,-81.2359848,2022-12-18 06:25:17
Hardee's,496 Piney Grove Rd,,Columbia,SC,29210,US,34.06780243,-81.13938904,2022-12-18 06:25:16
Hardee's,1105 W Main St,,Lexington,SC,29072,US,33.98353195,-81.25484467,2022-12-18 07:39:41
Hardee's,1425 Chapin Road,,Chapin,SC,29036,US,34.16730499,-81.35843658,2022-12-18 06:25:17
Hardee's,2499 Augusta Rd,,West Columbia,SC,29169,US,33.98152161,-81.10224915,2022-12-18 06:25:16
Hardee's,5801 Fairfield Road,,Columbia,SC,29203,US,34.06378555,-81.02351379,2022-12-18 06:25:16
Hardee's,1910 S Lake Dr,,Lexington,SC,29073,US,33.90694046,-81.22328949,2022-12-18 07:39:41
Hardee's,3014 Charleston Hwy,,West Columbia,SC,29172,US,33.92934799,-81.07748413,2022-12-18 06:25:16
Hardee's,100 Creech Rd,,Blythewood,SC,29016,US,34.21356964,-80.98087311,2022-12-18 06:25:13
Hardee's,3852 Rosewood Dr,,Columbia,SC,29205,US,33.98740768,-80.98678589,2022-12-18 06:25:16
Hardee's,120 Veterans Rd,,Columbia,SC,29209,US,33.97399902,-80.95735168,2022-12-18 06:25:16
Hardee's,7942 Garners Ferry Rd,,Columbia,SC,29209,US,33.95375443,-80.9217453,2022-12-18 06:25:16
Hardee's,1242 Wilson Rd,,Newberry,SC,29108,US,34.2840004,-81.59663391,2022-12-18 06:25:07
Hardee's,105 N Church St,,Swansea,SC,29160,US,33.73862076,-81.09954071,2022-12-18 07:39:41
Hardee's,486 Us Highway 601 South,,Lugoff,SC,29078,US,34.19474792,-80.68694305,2022-12-18 06:25:17
Hardee's,401 S HARRY C RAYSOR DR,,SAINT MATTHEWS,SC,29135,US,33.66398621,-80.77701569,2022-12-18 06:25:11
Hardee's,3694 St Matthews Road,,Orangeburg,SC,29118,US,33.55508804,-80.82519531,2022-12-18 06:25:11
Hardee's,1109 John C Calhoun Dr,,Orangeburg,SC,29115,US,33.48595428,-80.86299133,2022-12-18 06:25:11
Hardee's,44 Homer Rd,,Commerce,GA,30529,US,34.2064209,-83.46179199,2022-12-18 06:25:14
Hardee's,3075 Atlanta Highway,,Athens,GA,30606,US,33.94286728,-83.44120026,2022-12-18 07:39:41
Hardee's,1500 MONTICELLO RD,,MADISON,GA,30650,US,33.56254959,-83.4968338,2022-12-18 07:39:41
Hardee's,13151 N HICKORY ST,,LOXLEY,AL,36551-3151,US,30.64865685,-87.76126862,2022-12-18 06:25:18
Hardee's,565 GOVERNMENT ST,,MOBILE,AL,36602-2019,US,30.68748474,-88.04836273,2022-12-18 06:25:18
Hardee's,3715 MOFFAT RD,,MOBILE,AL,36618-1207,US,30.70929909,-88.12693787,2022-12-18 06:25:18
Hardee's,3225 ST STEPHENS RD,,MOBILE,AL,36612,US,30.74926376,-88.11448669,2022-12-18 06:25:18
Hardee's,1016 HIGHWAY 43,,SARALAND,AL,36571-3611,US,30.79782677,-88.07147217,2022-12-18 06:25:18
Hardee's,5796 TWIN OAKS COURT,,THEODORE,AL,36582,US,30.55644608,-88.17319489,2022-12-18 06:25:20
Hardee's,701 DOLIVE ST,,BAY MINETTE,AL,36507-3125,US,30.87832451,-87.78219604,2022-12-18 06:25:18
Hardee's,930 SCHILLINGER RD S,,MOBILE,AL,36695-8913,US,30.67116547,-88.22588348,2022-12-18 06:25:20
Hardee's,2935 S MCKENZIE ST,,FOLEY,AL,36535-3415,US,30.37160492,-87.68250275,2022-12-18 06:25:18
Hardee's,9400 GRAND BAY WILMER RD,,GRAND BAY,AL,36541-4248,US,30.49479675,-88.33718872,2022-12-18 06:25:20
Hardee's,837 GULF SHORES PKWY,,GULF SHORES,AL,36542-5905,US,30.25684166,-87.6889267,2022-12-18 06:25:18
Hardee's,12275 LILLIAN HWY,,PENSACOLA,FL,32506,US,30.39737511,-87.39990234,2022-12-18 06:25:18
Hardee's,2500 WILDE LAKE BLVD,,PENSACOLA,FL,32526-8710,US,30.51996613,-87.31426239,2022-12-18 06:25:18
Hardee's,8001 PENSACOLA BLVD,,PENSACOLA,FL,32534-4351,US,30.51172066,-87.27100372,2022-12-18 06:25:18
Hardee's,19765 N 3Rd St,,Citronelle,AL,36522,US,31.10319138,-88.23847198,2022-12-18 06:25:20
Hardee's,805 N NAVY BLVD,,PENSACOLA,FL,32507-1245,US,30.40119171,-87.2779007,2022-12-18 06:25:18
Hardee's,6712 HWY 63 N,,MOSS POINT,MS,39563-9539,US,30.43797874,-88.52592468,2022-12-18 06:25:20
Hardee's,25 LAKEVIEW CIR,,ATMORE,AL,36502-6311,US,31.10605049,-87.47603607,2022-12-18 06:25:18
Hardee's,1570 W FAIRFIELD,,PENSACOLA,FL,32501-1123,US,30.44514084,-87.23555756,2022-12-18 06:25:18
Hardee's,2241 DENNY AVE,,PASCAGOULA,MS,39567-3415,US,30.37290573,-88.53624725,2022-12-18 06:25:20
Hardee's,1510 Sw Tradition Dr,,Ankeny,IA,50023,US,41.70018387,-93.62077332,2022-12-18 07:39:41
Hardee's,1449 E Euclid Ave,,Des Moines,IA,50316,US,41.62732697,-93.59918976,2022-12-18 07:39:41
Hardee's,8755 University Ave,,Des Moines,IA,50325,US,41.6008606,-93.73781586,2022-12-18 07:39:41
Hardee's,915 Army Post Rd,,Des Moines,IA,50315,US,41.52675629,-93.62662506,2022-12-18 07:39:41
Hardee's,300 East Trail Ridge Ave,,Indianola,IA,50125,US,41.38443756,-93.55786896,2022-12-18 07:39:41
Hardee's,1205 W 19Th St S,,Newton,IA,50208,US,41.68800354,-93.07878876,2022-12-18 06:25:14
Hardee's,1007 N John Wayne Dr,,Winterset,IA,50273,US,41.34415436,-94.01276398,2022-12-18 07:39:41
Hardee's,1405 S Lincoln St,,Knoxville,IA,50138,US,41.30755234,-93.10894012,2022-12-18 06:25:14
Hardee's,1400 INDUSTRIAL PARK ROAD,,ELLSWORTH,IA,50075,US,42.31158447,-93.57199097,2022-12-18 06:25:07
Hardee's,902 S Center St,,Marshalltown,IA,50158,US,42.03752518,-92.91233063,2022-12-18 07:39:41
Hardee's,1019 West St,,Grinnell,IA,50112,US,41.74544144,-92.72771454,2022-12-18 07:39:41
Hardee's,W9493 CITY HWY CS,,POYNETTE,WI,53955,US,43.38915634,-89.47034454,2022-12-18 07:39:41
Hardee's,715 East Main Street,,Watertown,WI,53094,US,43.1933136,-88.71736145,2022-12-18 07:39:41
Hardee's,"179 N101 State Road 83 Delafield, WI",,Delafield,WI,53018,US,43.05301285,-88.37412262,2022-12-18 06:25:07
Hardee's,2450 E Layton Ave,,Saint Francis,WI,53235,US,42.95953369,-87.87884521,2022-12-18 06:25:07
Hardee's,110 East Highway 50,,O Fallon,IL,62269,US,38.5851326,-89.90916443,2022-12-18 07:39:41
Hardee's,124 Hartman Ln,,O Fallon,IL,62269,US,38.59205246,-89.94764709,2022-12-18 07:39:41
Hardee's,2516 Green Mount Commons Dr,,Belleville,IL,62221,US,38.52007294,-89.92610931,2022-12-18 07:39:41
Hardee's,8690 RICHTER SCHOOL RD,,NEW BADEN,IL,62265,US,38.53447342,-89.73257446,2022-12-18 07:39:41
Hardee's,12620 State Rte 143,,Highland,IL,62249,US,38.74943542,-89.68158722,2022-12-18 07:39:41
Hardee's,8800 Old US Highway 50,,Breese,IL,62230,US,38.61065292,-89.53829956,2022-12-18 07:39:41
Hardee's,42 East Main Street,,Hancock,MD,21750,US,39.69876862,-78.17502594,2022-12-18 06:25:07
Hardee's,16395 Lincoln Hwy,,Breezewood,PA,15533,US,39.99972534,-78.24018097,2022-12-18 06:25:09
Hardee's,722 E Main St,,Clarksburg,WV,26301,US,39.27324295,-80.32274628,2022-12-18 06:25:11
Hardee's,130 South Main Street,,Philippi,WV,26416,US,39.14938354,-80.03650665,2022-12-18 06:25:20
Hardee's,598 Us Highway 33E,,Weston,WV,26452,US,39.03628922,-80.44946289,2022-12-18 06:25:20
Hardee's,208 S. Kanawha Street,,Buckhannon,WV,26201,US,38.97873688,-80.22441864,2022-12-18 06:25:20
Hardee's,27 Randolph Avenue,,Elkins,WV,26241,US,38.92204285,-79.84204102,2022-12-18 06:25:20
Hardee's,324 E GROVER ST,,SHELBY,NC,28150,US,35.30173492,-81.53463745,2022-12-18 06:25:11
Hardee's,11024 Us Highway 431,,Albertville,AL,35950,US,34.29802322,-86.26567078,2022-12-18 06:25:19
Hardee's,2436 Jacksboro Pike,,La Follette,TN,37766,US,36.34235001,-84.16762543,2022-12-18 06:25:09
Hardee's,3046 Parkway,,Pigeon Forge,TN,37863,US,35.7948494,-83.56386566,2022-12-18 06:25:11
Hardee's,1608 S Roane St,,Harriman,TN,37748,US,35.91358566,-84.58235931,2022-12-18 06:25:12
Hardee's,730 NEW HWY 68,,SWEETWATER,TN,37874-1912,US,35.59288788,-84.48168182,2022-12-16 15:27:44
Hardee's,1122 N Knoxville Hwy,,Wartburg,TN,37887,US,36.10309601,-84.58374786,2022-12-18 06:25:12
Hardee's,TRAVEL CENTER 6410 COUNTY RD 165,,GENOA,OH,43430-9312,US,41.48622131,-83.3706131,2022-12-18 07:39:41
Hardee's,6410 COUNTY RD 165,,GENOA,OH,43430-9312,US,41.48622131,-83.3706131,2022-12-18 07:39:41
Hardee's,TRAVEL CENTER - 6164 COUNTY RD 165,,GENOA,OH,43430-9310,US,41.48630905,-83.36508942,2022-12-18 07:39:41
Hardee's,6164 COUNTY RD 165,,GENOA,OH,43430-9310,US,41.48630905,-83.36508942,2022-12-18 07:39:41
Hardee's,1301 N WARPOLE ST,,UPPER SANDUSKY,OH,43351,US,40.85550308,-83.29998016,2022-12-18 07:39:41
Hardee's,3216 E Harry St,,Wichita,KS,67218,US,37.66481781,-97.29818726,2022-12-18 06:25:13
Hardee's,2101 N Rock Road,,Derby,KS,67037,US,37.5688858,-97.24507904,2022-12-18 06:25:13
Hardee's,2053 N Amidon Ave,,Wichita,KS,67203,US,37.72096252,-97.3637085,2022-12-18 06:25:13
Hardee's,1320 N. Tyler Road,,Wichita,KS,67212,US,37.70726013,-97.44392395,2022-12-18 06:25:13
Hardee's,Kansas Turnpike - Milepost 65,,El Dorado,KS,67042,US,37.76625443,-96.98139954,2022-12-18 06:25:13
Hardee's,Kansas Turnpike - Milepost 97,,Cassoday,KS,66842,US,38.09514618,-96.57972717,2022-12-18 06:25:12
Hardee's,502 W RIDGEWAY ST,,CLIFTON FORGE,VA,24422,US,37.8117218,-79.8380127,2022-12-18 06:25:13
Hardee's,5298 Main Street,,MOUNT JACKSON,VA,22842,US,38.75979996,-78.62866211,2022-12-18 06:25:09
Hardee's,262 W KINGS HWY,,EDEN,NC,27288,US,36.49234772,-79.74230957,2022-12-18 07:39:41
Hardee's,1520 Anderson Drive,,Williamston,SC,29697,US,34.61448288,-82.50279236,2022-12-18 06:25:09
Hardee's,7253 Moorefield Memorial Hwy,,Liberty,SC,29657,US,34.77639008,-82.67184448,2022-12-18 06:25:07
Hardee's,308 Hampton Avenue,,Pickens,SC,29671,US,34.88145828,-82.70311737,2022-12-18 06:25:07
Hardee's,7300 W Newberry Rd,,Gainesville,FL,32605,US,29.66017151,-82.42055511,2022-12-18 06:25:17
Hardee's,10151 SUPERIOR WAY,,AMELIA COURT HOUSE,VA,23002,US,37.35778046,-77.95875549,2022-12-18 06:25:12
Hardee's,1221 WEST PINE STREET,,MOUNT AIRY,NC,27030,US,36.50109482,-80.63453674,2022-12-18 06:25:15
Hardee's,1701 WASHINGTON AVE,,HUNTINGTON,WV,25704-1538,US,38.41130447,-82.48517609,2022-12-18 06:25:16
Hardee's,67 N HIGHWAY 3,,LOUISA,KY,41230,US,38.12608337,-82.62985992,2022-12-18 07:39:41
Hardee's,2008 STATE ROUTE 850,,BIDWELL,OH,45614,US,38.87561417,-82.29695892,2022-12-18 06:25:18
Hardee's,801 NORTH CAROL MALONE BLVD.,,GRAYSON,KY,41143,US,38.34151459,-82.94316101,2022-12-18 07:39:41
Hardee's,434 Little River Rd,,Seagrove,NC,27341,US,35.53759003,-79.78845215,2022-12-18 06:25:21
Hardee's,3002 S HORNER BLVD,,SANFORD,NC,27332,US,35.45181656,-79.13635254,2022-12-16 15:27:42
Hardee's,1001 US HWY 17 S,,ELIZABETH CITY,NC,27909,US,36.28901291,-76.25320435,2022-12-18 07:39:41
Hardee's,100 TOWNE CENTER DRIVE,,CAMDEN,NC,27921,US,36.32789993,-76.17284393,2022-12-18 07:39:41
Hardee's,6501 CARATOKE HIGHWAY 158,,GRANDY,NC,27939,US,36.2401123,-75.87571716,2022-12-18 06:25:21
Hardee's,843 West Constance Road,,Suffolk,VA,23434,US,36.7314415,-76.59989929,2022-12-18 07:39:41
Hardee's,1508 HOLLAND RD,,SUFFOLK,VA,23434,US,36.72585678,-76.63430023,2022-12-18 07:39:41
Hardee's,3006 ARENDELL ST,,MOREHEAD CITY,NC,28557-3319,US,34.72436905,-76.74428558,2022-12-18 06:25:13
Hardee's,3006 Arendell St,,Morehead City,NC,28557,US,34.72436523,-76.74433899,2022-12-18 06:25:13
Hardee's,101B WB MCLEAN BLVD,,SWANSBORO,NC,28584,US,34.69013596,-77.06871796,2022-12-18 06:25:13
Hardee's,677 W CORBETT AVE,,SWANSBORO,NC,28584,US,34.69266891,-77.12997437,2022-12-18 06:25:13
Hardee's,701 MAIN ST,,MAYSVILLE,NC,28555,US,34.90242386,-77.23129272,2022-12-18 06:25:13
Hardee's,124 N C ST,,BRIDGETON,NC,28519,US,35.11855316,-77.01675415,2022-12-18 06:25:13
Hardee's,3820 M L KING JR. BOULEVARD,,NEW BERN,NC,28560,US,35.09564972,-77.11289978,2022-12-18 06:25:13
Hardee's,1106 WESTERN BLVD,,JACKSONVILLE,NC,28546,US,34.78030396,-77.39459229,2022-12-18 06:25:13
Hardee's,8901 Richlands Highway 24,,Richlands,NC,28574,US,34.90301895,-77.55500793,2022-12-18 06:25:11
Hardee's,344 E KING ST,,BOONE,NC,28607,US,36.21913147,-81.6598587,2022-12-18 06:25:14
Hardee's,102 COMMONS DR,,GREENWOOD,SC,29649,US,34.20521927,-82.19181824,2022-12-18 07:39:41
Hardee's,100 W. Greenwood St,,Abbeville,SC,29620,US,34.17373276,-82.37515259,2022-12-18 07:39:41
Hardee's,303 E Greer St,,Honea Path,SC,29654,US,34.44618607,-82.38964081,2022-12-18 06:25:09
Hardee's,12328 Highway 56 N,,Clinton,SC,29325,US,34.50209808,-81.86106873,2022-12-18 06:25:07
Hardee's,408 S Main St,,Belton,SC,29627,US,34.51684952,-82.48748779,2022-12-18 06:25:09
Hardee's,102 Hwy 28 Bypass,,Anderson,SC,29624,US,34.4742775,-82.65157318,2022-12-18 06:25:09
Hardee's,3883 Cross Anchor Road,,Enoree,SC,29335,US,34.69851685,-81.93885803,2022-12-18 06:25:07
Hardee's,100 Fritz Dr,,Anderson,SC,29621,US,34.55149841,-82.67658997,2022-12-18 06:25:09
Hardee's,4415 Clemson Blvd,,Anderson,SC,29621,US,34.5691452,-82.70921326,2022-12-18 06:25:09
Hardee's,515 Us Hwy 441,,Cornelia,GA,30531,US,34.54346085,-83.54575348,2022-12-18 06:25:15
Hardee's,4365 Lexington Rd,,Athens,GA,30605,US,33.9332428,-83.31108093,2022-12-18 07:39:41
Hardee's,350 General Daniel Ave N,,Danielsville,GA,30633,US,34.12924957,-83.21742249,2022-12-18 07:39:41
Hardee's,1031 Franklin Springs St,,Royston,GA,30662,US,34.28467941,-83.12730408,2022-12-18 07:39:41
Hardee's,14010 Jones St,,Lavonia,GA,30553,US,34.44773102,-83.12316132,2022-12-18 06:25:09
Hardee's,1002 Big A Rd,,Toccoa,GA,30577,US,34.57060623,-83.30807495,2022-12-18 06:25:15
Hardee's,4083 HIGHWAY 411,,OCOEE,TN,37361-3640,US,35.12889481,-84.71676636,2022-12-18 06:25:21
Hardee's,HIGHWAY 136 W. KILLIAN,,TRENTON,GA,30752-0187,US,34.87015152,-85.51372528,2022-12-18 06:25:17
Hardee's,12075 VALLEY VIEW HWY,,WHITWELL,TN,37397-6010,US,35.18412018,-85.52853394,2022-12-18 06:25:11
Hardee's,1210 HWY 28,,JASPER,TN,37347-3688,US,35.05152512,-85.62747955,2022-12-18 06:25:17
Hardee's,7137 N 9TH AVE,,PENSACOLA,FL,32504,US,30.49749184,-87.18836975,2022-12-18 06:25:18
Hardee's,4200 HWY 90,,PACE,FL,32571-2000,US,30.60412025,-87.14847565,2022-12-18 06:25:18
Hardee's,6527 HWY 90,,MILTON,FL,32570-4779,US,30.61828041,-87.04984283,2022-12-18 06:25:18
Hardee's,822 BEAL PKWY NW,,FORT WALTON BEACH,FL,32547-1905,US,30.4487915,-86.63903046,2022-12-18 06:25:18
Hardee's,21514 HIGHWAY 31,,FLOMATON,AL,36441-5422,US,31.00818062,-87.26464844,2022-12-18 06:25:18
Hardee's,908 Nw Pine Ave,,Ocala,FL,34475,US,29.19625473,-82.1424408,2022-12-18 06:25:18
Hardee's,6155 SR 200,,Ocala,FL,34476,US,29.11603165,-82.22085571,2022-12-18 06:25:18
Hardee's,11582 Williams St,,Dunnellon,FL,34432,US,29.05538368,-82.45793152,2022-12-18 06:25:19
Hardee's,306 W Noble Ave,,Williston,FL,32696,US,29.38732529,-82.45094299,2022-12-18 06:25:19
Hardee's,16 Ne Highway 19,,Crystal River,FL,34429,US,28.89496803,-82.58467102,2022-12-18 06:25:19
Hardee's,399 N. HATHAWAY AVE.,,BRONSON,FL,32621,US,29.44739914,-82.64259338,2022-12-18 06:25:19
Hardee's,3960 S Suncoast Blvd,,Homosassa,FL,34448,US,28.80409622,-82.57692719,2022-12-18 06:25:19
Hardee's,24915 W Newberry Rd,,Newberry,FL,32669,US,29.64614677,-82.60566711,2022-12-18 06:25:17
Hardee's,1113 E 5TH AVE,,FLORALA,AL,36442-3510,US,31.0028038,-86.32422638,2022-12-18 06:25:20
Hardee's,1202 E BYPASS,,ANDALUSIA,AL,36420,US,31.31924057,-86.46057129,2022-12-18 06:25:20
Hardee's,4964 Hardy St,,Hattiesburg,MS,39402,US,31.32227516,-89.36725616,2022-12-18 06:25:11
Hardee's,106 W Central Ave,,Petal,MS,39465,US,31.34701157,-89.26331329,2022-12-18 06:25:11
Hardee's,2621 Ellisville Blvd,,Laurel,MS,39440,US,31.66217613,-89.1618042,2022-12-18 06:25:11
Hardee's,3530 Highway 49,,Collins,MS,39428,US,31.65160751,-89.56969452,2022-12-18 06:25:11
Hardee's,710 N 16Th Ave,,Laurel,MS,39440,US,31.6984005,-89.14743042,2022-12-18 06:25:12
Hardee's,913 Chantilly St,,Laurel,MS,39440,US,31.69844627,-89.11405182,2022-12-18 06:25:12
Hardee's,809 Hwy 98 Byp,,Columbia,MS,39429,US,31.23894882,-89.82017517,2022-12-18 07:39:41
Hardee's,2813 Hwy 15,,Bay Springs,MS,39422,US,31.97736549,-89.28891754,2022-12-18 06:25:12
Hardee's,903 Azalea Dr,,Waynesboro,MS,39367,US,31.67821884,-88.64239502,2022-12-18 06:25:12
Hardee's,10324 DIBERVILLE BLVD,,DIBERVILLE,MS,39540-2507,US,30.43685913,-88.89247894,2022-12-18 06:25:20
Hardee's,2403 HIGHWAY 90,,GAUTIER,MS,39553-5234,US,30.3907032,-88.64824677,2022-12-18 06:25:20
Hardee's,24 COWART ST,,LUCEDALE,MS,39452-6621,US,30.91073608,-88.59752655,2022-12-18 06:25:20
Hardee's,1120 OLD HWY 60 EAST,,HARDINSBURG,KY,40143-2520,US,37.76230621,-86.4414444,2022-12-18 06:25:18
Hardee's,222 HIGHWAY 770,,CORBIN,KY,40701-4732,US,36.9774437,-84.11621094,2022-12-18 06:25:09
Hardee's,411 S MAIN ST,,CORBIN,KY,40701-1459,US,36.94493103,-84.0954895,2022-12-18 06:25:09
Hardee's,730 S 10Th St,,Williamsburg,KY,40769,US,36.72646332,-84.1651535,2022-12-18 06:25:09
Hardee's,409 S HIGHWAY 27,,SOMERSET,KY,42501-3445,US,37.08838272,-84.61704254,2022-12-18 06:25:15
Hardee's,3895 S Highway 27,,Somerset,KY,42501,US,37.03829956,-84.62743378,2022-12-18 06:25:15
Hardee's,25 Fire House Ln,,Hyden,KY,41749,US,37.15481949,-83.36798096,2022-12-18 06:25:13
Hardee's,1310 N 12Th Street,,Middlesboro,KY,40965,US,36.62361526,-83.70368958,2022-12-18 06:25:09
Hardee's,1445 N MAIN ST,,MONTICELLO,KY,42633-1904,US,36.84759903,-84.83746338,2022-12-18 06:25:12
Hardee's,6680 Cumberland Gap Pkwy,,Harrogate,TN,37752,US,36.57259369,-83.65298462,2022-12-18 06:25:09
Hardee's,1548 S. US HWY 421 BYPASS,,HARLAN,KY,40831,US,36.83826065,-83.32641602,2022-12-18 06:25:09
Hardee's,19585 Alberta St,,Oneida,TN,37841,US,36.51327133,-84.50976562,2022-12-18 06:25:09
Hardee's,536 S Sandusky Street,,Bucyrus,OH,44820,US,40.80369949,-82.97525024,2022-12-18 06:25:07
Hardee's,1875 CAMPBELL CROSSING,,TIPTON,IN,46072,US,40.2764473,-86.13005066,2022-12-18 06:25:09
Hardee's,425 S LEBANON ST,,LEBANON,IN,46052,US,40.04430771,-86.46888733,2022-12-18 06:25:15
Hardee's,1215 W MAIN ST,,GREENFIELD,IN,46140,US,39.78386688,-85.78746796,2022-12-18 06:25:09
Hardee's,1881 N STATE ST,,GREENFIELD,IN,46140,US,39.81081772,-85.76892853,2022-12-18 06:25:07
Hardee's,18720 PARTELLO RD,,MARSHALL,MI,49068-8308,US,42.27991867,-84.93024445,2022-12-18 06:25:15
Hardee's,7300 W. GRAND RIVER AVE.,,GRAND LEDGE,MI,48837,US,42.78585815,-84.6672821,2022-12-18 06:25:13
Hardee's,240 Highway 65 S,,Mora,MN,55051,US,45.87494278,-93.28856659,2022-12-18 06:25:15
Hardee's,200 3rd St S,,Cold Spring,MN,56320,US,45.45213318,-94.4262619,2022-12-18 06:25:15
Hardee's,1940 Cardinal Ln,,Faribault,MN,55021,US,44.31890869,-93.29662323,2022-12-18 06:25:15
Hardee's,2106 55Th Ave,,Baldwin,WI,54002,US,44.94220352,-92.37407684,2022-12-18 07:39:41
Hardee's,2000 South Broadway,,Minot,ND,58701,US,48.21025085,-101.29680634,2022-12-18 07:39:41
Hardee's,2205 North Broadway,,Minot,ND,58703,US,48.26058578,-101.29703522,2022-12-18 07:39:41
Hardee's,507 W Center St,,Eureka,IL,61530,US,40.72141266,-89.27852631,2022-12-18 07:39:41
Hardee's,1102 Peoria St,,Washington,IL,61571,US,40.7025528,-89.42199707,2022-12-18 07:39:41
Hardee's,539 Woodlawn Rd,,Lincoln,IL,62656,US,40.15738678,-89.37458801,2022-12-18 06:25:15
Hardee's,101 N Main St,,East Peoria,IL,61611,US,40.66687393,-89.58007812,2022-12-18 07:39:41
Hardee's,3505 Ne Adams St,,Peoria,IL,61603,US,40.7204361,-89.55738831,2022-12-18 07:39:41
Hardee's,105 N 5Th St,,Pekin,IL,61554,US,40.56981277,-89.64520264,2022-12-18 07:39:41
Hardee's,5515 S Adams St,,Bartonville,IL,61607,US,40.65433884,-89.64962006,2022-12-18 07:39:41
Hardee's,3431 N University Street,,Peoria,IL,61604,US,40.72968674,-89.61308289,2022-12-18 07:39:41
Hardee's,8787 N Knoxville Ave,,Peoria,IL,61615,US,40.79438782,-89.60673523,2022-12-18 07:39:41
Hardee's,108 N 4Th St,,Chillicothe,IL,61523,US,40.90795517,-89.49195862,2022-12-18 07:39:41
Hardee's,3909 W War Memorial Drive,,Peoria,IL,61615,US,40.77095032,-89.65368652,2022-12-18 07:39:41
Hardee's,90 DOHONEY TRACE,,COLUMBIA,KY,42728,US,37.07494354,-85.33674622,2022-12-18 06:25:13
Hardee's,1303 East Broadway,,Campbellsville,KY,42718,US,37.35211182,-85.33157349,2022-12-18 06:25:13
Hardee's,107 E Broad St,,Elizabethton,TN,37643,US,36.35042572,-82.22399139,2022-12-18 06:25:14
Hardee's,1313 Volunteer Parkway,,Bristol,TN,37620,US,36.56243134,-82.20816803,2022-12-18 06:25:14
Hardee's,5680 Hwy 11 East,,Piney Flats,TN,37686,US,36.43301392,-82.30970001,2022-12-18 06:25:14
Hardee's,1741 E State Rd 163,,Clinton,IN,47842,US,39.65789032,-87.43266296,2022-12-18 07:39:41
Hardee's,710 Sagamore Parkway N,,Lafayette,IN,47904,US,40.42417908,-86.85877228,2022-12-18 06:25:13
Hardee's,200 N Third St,,Terre Haute,IN,47807,US,39.46875763,-87.41443634,2022-12-18 06:25:12
Hardee's,201 N ROCK ST,,SHERIDAN,AR,72150,US,34.30810928,-92.39945221,2022-12-18 06:25:13
Hardee's,249 W GRAND AVE,,HOT SPRINGS,AR,71902,US,34.50315094,-93.054039,2022-12-18 06:25:13
Hardee's,2828 W 28TH,,PINE BLUFF,AR,71603,US,34.20145798,-92.03317261,2022-12-18 06:25:19
Hardee's,200 WEST MAIN STREET,,PILOT MOUNTAIN,NC,27041,US,36.38564682,-80.46926117,2022-12-18 07:39:41
Hardee's,2154 ROCKFORD STREET,,MOUNT AIRY,NC,27030,US,36.4752121,-80.62014008,2022-12-18 06:25:16
Hardee's,2255 Jefferson Davis Hwy,,Sanford,NC,27330,US,35.43769836,-79.21775818,2022-12-16 15:27:42
Hardee's,120 EAST 10TH ST,,ROANOKE RAPIDS,NC,27870,US,36.45571899,-77.655159,2022-12-18 07:39:41
Hardee's,100 LAWRENCEVILLE ROAD,,GASTON,NC,27832,US,36.4997139,-77.6456604,2022-12-18 07:39:41
Hardee's,101 MARKET STREET EMPORIA,,EMPORIA,VA,23847,US,36.70288849,-77.54456329,2022-12-18 07:39:41
Hardee's,501 SOUTH HICKS STREET,,LAWRENCEVILLE,VA,23868,US,36.75361252,-77.85176086,2022-12-18 06:25:11
Hardee's,417 W RIDGEWAY ST,,WARRENTON,NC,27589,US,36.40320969,-78.1601181,2022-12-18 06:25:11
Hardee's,903 EAST ATLANTIC STREET,,SOUTH HILL,VA,23970,US,36.71812439,-78.11650848,2022-12-18 06:25:11
Hardee's,28384 Southampton Pkwy,,Courtland,VA,23837,US,36.68635941,-77.02368164,2022-12-18 07:39:41
Hardee's,1924 West Main Street,,Central,SC,29630,US,34.70434952,-82.79547882,2022-12-18 06:25:09
Hardee's,2609 Plant Ave,,Ware,GA,31501,US,31.23300171,-82.3303299,2022-12-18 06:25:16
Hardee's,3439 HIGHWAY 77,,PANAMA CITY,FL,32405-5009,US,30.211092,-85.65014648,2022-12-18 06:25:18
Hardee's,11769 PANAMA CITY BEACH PKWY,,PANAMA CITY BEACH,FL,32407-2507,US,30.19961166,-85.81912231,2022-12-18 06:25:18
Hardee's,15821 HWY 231 N,,YOUNGSTOWN,FL,32466-2545,US,30.43339729,-85.42826843,2022-12-18 06:25:18
Hardee's,3000 US HIGHWAY 98 W,,SANTA ROSA,FL,32459-4052,US,30.37450027,-86.22797394,2022-12-18 06:25:20
Hardee's,3702 S FERDON BLVD,,CRESTVIEW,FL,32536-5213,US,30.72347069,-86.56909943,2022-12-18 06:25:18
Hardee's,142 Comfort Lane,,Pioneer,TN,37847,US,36.37591171,-84.24798584,2022-12-18 06:25:09
Hardee's,Us Highway 33 & Irish Cemetary Road,,Tazewell,TN,37879,US,36.45065689,-83.56983948,2022-12-18 06:25:09
Hardee's,667 Hambley,,Pikeville,KY,41501,US,37.48322296,-82.5190506,2022-12-18 06:25:16
Hardee's,909 N. LAKE DR.,,PRESTONSBURG,KY,41653,US,37.6785202,-82.77977753,2022-12-18 07:39:41
Hardee's,378 SOUTHSIDE MALL,,SOUTH WILLIAMSON,KY,41503-3906,US,37.65588379,-82.27101135,2022-12-18 06:25:16
Hardee's,9433 Highway 805,,Jenkins,KY,41537,US,37.17127609,-82.6349411,2022-12-18 06:25:15
Hardee's,5012 Dickenson Hwy,,Clintwood,VA,24228,US,37.14897156,-82.47006989,2022-12-18 06:25:16
Hardee's,24429 RIVERSIDE DR,,GRUNDY,VA,24614,US,37.28959656,-82.12624359,2022-12-18 06:25:16
Hardee's,545 NORTH MAYO TRAIL,,PAINTSVILLE,KY,41240,US,37.82468033,-82.82152557,2022-12-18 07:39:41
Hardee's,403 WEST MAIN STREET,,WISE,VA,24293,US,36.9799881,-82.58410645,2022-12-18 06:25:15
Hardee's,HIGHWAY 58 A,,COEBURN,VA,24230,US,36.93991852,-82.48408508,2022-12-18 06:25:15
Hardee's,475 WHARTON LN NE,,NORTON,VA,24273,US,36.93823242,-82.60913086,2022-12-18 06:25:15
Hardee's,1326 KENTUCKY HIGHWAY 15,,HAZARD,KY,41701,US,37.24365997,-83.18526459,2022-12-18 06:25:14
Hardee's,16403 WISE ST,,SAINT PAUL,VA,24283,US,36.90559387,-82.31663513,2022-12-18 06:25:16
Hardee's,1716 EAST MAIN STREET,,CUMBERLAND,KY,40823,US,36.97447205,-82.97946167,2022-12-18 06:25:14
Hardee's,711 WOOD AVE E,,BIG STONE GAP,VA,24219,US,36.87010193,-82.77185059,2022-12-18 06:25:14
Hardee's,HIGHWAY 15 SOUTH,,JACKSON,KY,41339,US,37.55882645,-83.3762207,2022-12-18 07:39:41
Hardee's,12000 N HARTMAN DR,,EDINBURGH,IN,46124,US,39.31160736,-85.96641541,2022-12-18 06:25:16
Hardee's,589 STATE ROAD 39 BYP S,,MARTINSVILLE,IN,46151,US,39.42177963,-86.43504333,2022-12-18 06:25:12
Hardee's,1500 E Morgan St,,Kokomo,IN,46901,US,40.50605011,-86.11233521,2022-12-18 06:25:09
Hardee's,301 N Broadway,,Peru,IN,46970,US,40.75875473,-86.07197571,2022-12-18 06:25:09
Hardee's,2820 E Main St,,Elwood,IN,46036,US,40.27731323,-85.82367706,2022-12-18 06:25:07
Hardee's,1121 E Market St,,Logansport,IN,46947,US,40.75428391,-86.35498047,2022-12-18 06:25:13
Hardee's,5627 S SCATTERFIELD ROAD,,ANDERSON,IN,46013,US,40.05712891,-85.65348053,2022-12-18 06:25:07
Hardee's,7160 S STATE RD 67,,PENDLETON,IN,46064,US,40.00017166,-85.73387146,2022-12-18 06:25:07
Hardee's,227 E MCGALLIARD ROAD,,MUNCIE,IN,47303,US,40.21870804,-85.38430023,2022-12-18 06:25:07
Hardee's,2609 West Stewart Avenue,,Wausau,WI,54401,US,44.95713806,-89.66894531,2022-12-18 06:25:11
Hardee's,207 N Center Ave,,Merrill,WI,54452,US,45.18334198,-89.68264008,2022-12-18 06:25:11
Hardee's,3132 CHURCH STREET,,STEVENS POINT,WI,54481,US,44.50512695,-89.56776428,2022-12-18 06:25:11
Hardee's,1210 N DIVISION ST,,COLBY,WI,54421,US,44.92849731,-90.31453705,2022-12-18 06:25:11
Hardee's,1618 South Central Ave,,Marshfield,WI,54449,US,44.65246582,-90.18302917,2022-12-18 06:25:11
Hardee's,230 S EIGHTH STREET,,Medford,WI,54451,US,45.13877106,-90.33288574,2022-12-18 06:25:11
Hardee's,2171 Lincoln,,Rhinelander,WI,54501,US,45.6338501,-89.38083649,2022-12-18 06:25:12
Hardee's,205 Paul Bunyan Dr Nw,,Bemidji,MN,56601,US,47.49136734,-94.8815918,2022-12-18 06:25:18
Hardee's,204 Minnesota Avenue,,Walker,MN,56484,US,47.10216141,-94.57845306,2022-12-18 06:25:18
Hardee's,320 Euclid Ave,,Helena,MT,59601,US,46.59870911,-112.04169464,2022-12-18 06:25:15
Hardee's,1919 E Custer Ave,,Helena,MT,59602,US,46.61621857,-112.00685883,2022-12-18 06:25:15
Hardee's,300 US 50E,,Union,MO,63084,US,38.44219208,-91.00614166,2022-12-18 06:25:07
Hardee's,702 N Franklin St,,Cuba,MO,65453,US,38.07033539,-91.40541077,2022-12-18 06:25:07
Hardee's,326 Marshall Dr,,St Robert,MO,65584,US,37.81613922,-92.14092255,2022-12-18 06:25:07
Hardee's,926 S Sam Houston Blvd,,Houston,MO,65483,US,37.31998062,-91.95801544,2022-12-18 06:25:14
Hardee's,314 S Main St,,Stuart,VA,24171,US,36.63366699,-80.27014923,2022-12-18 07:39:41
Hardee's,933 FAIRYSTONE PARK HWY,,STANLEYTOWN,VA,24168,US,36.73957825,-79.95314789,2022-12-18 06:25:14
Hardee's,2927 VIRGINIA AVE,,COLLINSVILLE,VA,24078,US,36.71990585,-79.91326141,2022-12-18 06:25:14
Hardee's,547 MEMORIAL BLVD S,,MARTINSVILLE,VA,24112,US,36.68379211,-79.87708282,2022-12-18 06:25:17
Hardee's,901 E CHURCH ST,,MARTINSVILLE,VA,24112,US,36.69288254,-79.85247803,2022-12-18 06:25:17
Hardee's,4800 GREENSBORO RD,,RIDGEWAY,VA,24148,US,36.62815475,-79.86024475,2022-12-18 07:39:41
Hardee's,519 E Main St,,Biscoe,NC,27209,US,35.36108017,-79.76885986,2022-12-18 06:25:21
Hardee's,710 E Main St,,Franklin,NC,28734,US,35.18770981,-83.3715744,2022-12-18 06:25:17
Hardee's,509 Patriot Dr,,Dandridge,TN,37725,US,36.03870392,-83.44438934,2022-12-18 06:25:11
Hardee's,106 Thoroughbred Run Rd,,Morristown,TN,37813,US,36.14189529,-83.27746582,2022-12-18 06:25:11
Hardee's,402 S Kings Hwy,,Myrtle Beach,SC,29577,US,33.68370056,-78.89361572,2022-12-18 06:25:17
Hardee's,6000 N Kings Hwy,,Myrtle Beach,SC,29577,US,33.73489761,-78.83253479,2022-12-18 06:25:17
Hardee's,1506 Church St,,Conway,SC,29526,US,33.84543228,-79.06210327,2022-12-18 06:25:15
Hardee's,10 Hwy 17 N,,Surfside Beach,SC,29575,US,33.61250305,-78.98207092,2022-12-18 06:25:17
Hardee's,4206 E MAIN STREET,,LORIS,SC,29569,US,34.05522919,-78.8888092,2022-12-18 06:25:14
Hardee's,1311 Church St,,Georgetown,SC,29440,US,33.37515259,-79.28582001,2022-12-18 06:25:16
Hardee's,915 North Brown Street,,Chadbourn,NC,28431,US,34.33125305,-78.82678223,2022-12-18 06:25:14
Hardee's,508 E Baruch St,,Denmark,SC,29042,US,33.32539368,-81.13491058,2022-12-18 07:39:41
Hardee's,2999 Main Highway,,Bamberg,SC,29003,US,33.29739761,-81.03434753,2022-12-18 06:25:11
Hardee's,2609 W Us Highway 90,,Lake City,FL,32055,US,30.18009949,-82.67494965,2022-12-18 06:25:17
Hardee's,279 W Duval St,,Lake City,FL,32055,US,30.18972015,-82.64013672,2022-12-18 06:25:17
Hardee's,2399 SE Baya Dr,,Lake City,FL,32025,US,30.18397522,-82.59944153,2022-12-18 06:25:17
Hardee's,13700 US HWY 441,,ELLISVILLE,FL,32025,US,30.00248146,-82.59844208,2022-12-18 06:25:17
Hardee's,404 HWY 27,,BRANFORD,FL,32008,US,29.95568848,-82.92624664,2022-12-18 06:25:17
Hardee's,19143 Nw Us Hwy 441,,High Springs,FL,32643,US,29.83071136,-82.59563446,2022-12-18 06:25:17
Hardee's,25807 SE US HWY. 19,,OLD TOWN,FL,32680,US,29.60205078,-82.98156738,2022-12-18 06:25:17
Hardee's,15909 Se 19 Hwy,,Cross City,FL,32628,US,29.63818169,-83.13570404,2022-12-18 06:25:17
Hardee's,1024 N Young Blvd,,Chiefland,FL,32626,US,29.48888206,-82.86174774,2022-12-18 06:25:17
Hardee's,1560 S HIGHLAND AVE,,JACKSON,TN,38308,US,35.56999969,-88.8143692,2022-12-18 06:25:12
Hardee's,2050 HIGHWAY 70 EAST,,JACKSON,TN,38305-8412,US,35.67937851,-88.74254608,2022-12-18 06:25:12
Hardee's,2060 Us 45 Bypass South,,Trenton,TN,38382,US,35.96967316,-88.92960358,2022-12-18 06:25:12
Hardee's,619 MULBERRY AVE,,SELMER,TN,38375,US,35.15685272,-88.57984161,2022-12-18 06:25:07
Hardee's,148 TENNESSEE AVE NORTH,,PARSONS,TN,38363,US,35.65188217,-88.12648773,2022-12-18 06:25:13
Hardee's,2315 W Illinois St,,Evansville,IN,47712,US,37.97992325,-87.6000824,2022-12-18 06:25:11
Hardee's,4400 Covert Ave,,Evansville,IN,47714,US,37.95542526,-87.4969635,2022-12-18 06:25:11
Hardee's,100 N Green St,,Henderson,KY,42420,US,37.83830643,-87.58868408,2022-12-18 06:25:11
Hardee's,1501 N Boeke Rd,,Evansville,IN,47711,US,37.99074936,-87.51960754,2022-12-18 06:25:11
Hardee's,4033 Bell Rd,,Newburgh,IN,47630,US,37.97582626,-87.40539551,2022-12-18 06:25:11
Hardee's,3101 Frederica St,,Owensboro,KY,42301,US,37.74328232,-87.11582947,2022-12-18 06:25:11
Hardee's,325 VETERANS DRIVE,,HANSON,KY,42413,US,37.4164238,-87.47436523,2022-12-18 06:25:16
Hardee's,770 E Center St,,Madisonville,KY,42431,US,37.32724762,-87.48371124,2022-12-18 06:25:16
Hardee's,762 Second St,,Jasper,IN,47546,US,38.38875198,-86.94099426,2022-12-18 06:25:11
Hardee's,4327 Emerson Ave.,,Parkersburg,WV,26104,US,39.29197311,-81.52719879,2022-12-18 06:25:12
Hardee's,65 S Chestnut St,,Jefferson,OH,44047,US,41.73686218,-80.77006531,2022-12-18 07:39:41
Hardee's,1691 FLEMINGSBURG RD,,MOREHEAD,KY,40351-9167,US,38.18987656,-83.4781723,2022-12-18 07:39:41
Hardee's,549 E MAIN ST,,DANVILLE,IN,46122,US,39.76007843,-86.51587677,2022-12-18 06:25:17
Hardee's,789 NORTH GOSPEL,,PAOLI,IN,47454-1419,US,38.56572723,-86.46550751,2022-12-18 06:25:07
Hardee's,2305 N. Highway 3,,North Vernon,IN,47265,US,39.01930237,-85.64125061,2022-12-18 06:25:07
Hardee's,1410 Flammang Dr,,Waterloo,IA,50702,US,42.4597435,-92.32828522,2022-12-18 07:39:41
Hardee's,805 Franklin St,,Waterloo,IA,50703,US,42.49928284,-92.33034515,2022-12-18 07:39:41
Hardee's,118 W Highway 30,,Toledo,IA,52342,US,41.98728943,-92.580513,2022-12-18 07:39:41
Hardee's,117 Hwy 150 North,,West Union,IA,52175,US,42.96311951,-91.81480408,2022-12-18 06:25:19
Hardee's,205 W Main,,Manchester,IA,52057,US,42.48432159,-91.45902252,2022-12-18 07:39:41
Hardee's,10 3rd Street Sw,,Hampton,IA,50441,US,42.74134827,-93.21070099,2022-12-18 07:39:41
Hardee's,5930 BADGER DRIVE,,MENOMONIE,WI,54751,US,44.90694427,-91.85624695,2022-12-18 07:39:41
Hardee's,1311 Rose St,,LaCrosse,WI,54603,US,43.8417511,-91.24868011,2022-12-18 06:25:16
Hardee's,503 Rossville Rd,,Waukon,IA,52172,US,43.2648468,-91.47492981,2022-12-18 06:25:16
Hardee's,605 N. Water St.,,Black River Falls,WI,54615,US,44.30395508,-90.84335327,2022-12-18 06:25:11
Hardee's,2102 ENTERPRISES DR,,ST. CHARLES,MN,55972,US,43.95414352,-92.06462097,2022-12-18 06:25:16
Hardee's,220 N OAKWOOD ST,,OAKDALE,WI,54660-5193,US,43.96104813,-90.37783051,2022-12-18 06:25:11
Hardee's,1406 4Th St Nw,,Austin,MN,55912,US,43.67921066,-92.97919464,2022-12-18 06:25:16
Hardee's,1120 Hoffman Dr,,Owatonna,MN,55060,US,44.0954895,-93.23680115,2022-12-18 06:25:16
Hardee's,3402 28Th Avenue South,,Moorhead,MN,56560,US,46.85063553,-96.72171783,2022-12-18 06:25:09
Hardee's,3819 Main Ave,,Fargo,ND,58103,US,46.87683868,-96.84417725,2022-12-18 06:25:09
Hardee's,3072 45Th St,,Fargo,ND,58104,US,46.83506393,-96.86090088,2022-12-18 06:25:09
Hardee's,1450 13Th Ave,,West Fargo,ND,58078,US,46.8625145,-96.8765564,2022-12-18 06:25:09
Hardee's,1301 Capital Ave,,Bismarck,ND,58501,US,46.82775879,-100.77230072,2022-12-18 06:25:19
Hardee's,500 E Main St,,Mandan,ND,58554,US,46.82767868,-100.88302612,2022-12-18 06:25:19
Hardee's,638 N Main St,,Canton,IL,61520,US,40.56367874,-90.03568268,2022-12-18 07:39:41
Hardee's,401 W Dearborn St,,Havana,IL,62644,US,40.29372787,-90.06551361,2022-12-18 07:39:41
Hardee's,401 E Sangamon Ave,,Petersburg,IL,62675,US,40.01260376,-89.8455658,2022-12-18 06:25:15
Hardee's,220 Green St,,Bushnell,IL,61422,US,40.5451355,-90.50395203,2022-12-18 07:39:41
Hardee's,2916 Broadway,,Quincy,IL,62301,US,39.93492126,-91.36847687,2022-12-18 06:25:07
Hardee's,1526 No 12Th St,,Quincy,IL,62301,US,39.9499588,-91.39611053,2022-12-18 06:25:07
Hardee's,500 E Main Cross St,,Palmyra,MO,63461,US,39.8001976,-91.51819611,2022-12-18 06:25:07
Hardee's,2900 James Rd,,Hannibal,MO,63401,US,39.70603561,-91.38993073,2022-12-18 06:25:07
Hardee's,17550 HWY 19,,NEW LONDON,MO,63459,US,39.57403564,-91.40387726,2022-12-18 06:25:07
Hardee's,1003 Us Highway 24/36 E,,Monroe City,MO,63456,US,39.657444,-91.71813202,2022-12-18 06:25:07
Hardee's,123 N. Madison,,Carthage,IL,62321,US,40.41595078,-91.13664246,2022-12-18 06:25:15
Hardee's,3313 Georgia Street,,Louisiana,MO,63353,US,39.43346024,-91.0710144,2022-12-18 06:25:07
Hardee's,18054 Highway 161,,Bowling Green,MO,63334,US,39.33260727,-91.17957306,2022-12-18 06:25:07
Hardee's,600 W Clinton St,,Rushville,IL,62681,US,40.11725235,-90.57436371,2022-12-18 06:25:17
Hardee's,1431 Avenue H,,Fort Madison,IA,52627,US,40.63049316,-91.32421875,2022-12-18 06:25:15
Hardee's,2501 Stevenson Dr,,Springfield,IL,62703,US,39.75855637,-89.61894989,2022-12-18 06:25:17
Hardee's,1700 Wabash Ave,,Springfield,IL,62704,US,39.76389694,-89.68305206,2022-12-18 06:25:17
Hardee's,3217 E Clear Lake Ave,,Springfield,IL,62702,US,39.8024559,-89.60403442,2022-12-18 06:25:17
Hardee's,600 W Jefferson St,,Springfield,IL,62702,US,39.80278778,-89.66291809,2022-12-18 06:25:17
Hardee's,1835 Sangamon Ave,,Springfield,IL,62702,US,39.83140182,-89.63108826,2022-12-18 06:25:17
Hardee's,331 N Main St,,Chatham,IL,62629,US,39.67860031,-89.70513916,2022-12-18 06:25:16
Hardee's,905 N Springfield St,,Virden,IL,62690,US,39.50999832,-89.76774597,2022-12-18 06:25:16
Hardee's,842 W Morton Ave,,Jacksonville,IL,62650,US,39.72372055,-90.24035645,2022-12-18 06:25:16
Hardee's,454 N Broad St,,Carlinville,IL,62626,US,39.28518677,-89.88202667,2022-12-18 06:25:16
Hardee's,201 School Street,,Hillsboro,IL,62049,US,39.15622711,-89.49223328,2022-12-18 06:25:16
Hardee's,10095 Us Hwy 67,,Beardstown,IL,62618,US,40.00394821,-90.43737793,2022-12-18 06:25:17
Hardee's,101 S WESTWOOD BLVD,,POPLAR BLUFF,MO,63901-5515,US,36.7571106,-90.40818787,2022-12-18 06:25:09
Hardee's,908 N DOUGLASS ST,,MALDEN,MO,63863-1514,US,36.56982803,-89.97016907,2022-12-18 06:25:09
Hardee's,1105 S Main St,,Sikeston,MO,63801,US,36.86260223,-89.58368683,2022-12-18 06:25:09
Hardee's,3225 L St,,Omaha,NE,68107,US,41.21177292,-95.96206665,2022-12-18 07:39:41
Hardee's,3200 S Expressway St,,Council Bluffs,IA,51501,US,41.22786713,-95.8522644,2022-12-18 07:39:41
Hardee's,12424 L St,,Omaha,NE,68137,US,41.21302795,-96.10720825,2022-12-18 07:39:41
Hardee's,9407 S 145Th St,,Omaha,NE,68138,US,41.16604614,-96.13960266,2022-12-18 07:39:41
Hardee's,811 N 205 St,,Elkhorn,NE,68022,US,41.2660675,-96.23630524,2022-12-18 07:39:41
Hardee's,3350 Elk Ln,,Fremont,NE,68025,US,41.45077515,-96.45436096,2022-12-18 07:39:41
Hardee's,188 NORTH 30 RD,,SYRACUSE,NE,68446,US,40.67446899,-96.17832184,2022-12-18 07:39:41
Hardee's,481 US Highway 1 S,,Rockingham,NC,28379,US,34.91142273,-79.79055786,2022-12-18 06:25:21
Hardee's,914 N Mountain St,,Blacksburg,SC,29702,US,35.13962936,-81.50805664,2022-12-18 06:25:07
Hardee's,100 South Granard St,,Gaffney,SC,29341,US,35.07291031,-81.65166473,2022-12-18 06:25:07
Hardee's,710 South Alabama Street,,Chesnee,SC,29323,US,35.13724518,-81.86236572,2022-12-18 06:25:07
Hardee's,5420 N Main St,,Cowpens,SC,29330,US,35.01960373,-81.80208588,2022-12-18 06:25:07
Hardee's,2190 Chesnee Hwy,,Spartanburg,SC,29303,US,35.01265335,-81.90144348,2022-12-18 06:25:07
Hardee's,6911 S Pine St,,Pacolet,SC,29372,US,34.89832687,-81.76449585,2022-12-18 06:25:07
Hardee's,3007 W 5TH ST,,LUMBERTON,NC,28358,US,34.62137985,-79.05042267,2022-12-18 06:25:14
Hardee's,3112 Boiling Springs Rd,,Boiling Springs,SC,29316,US,35.03993225,-81.97476959,2022-12-18 06:25:12
Hardee's,1806 East Main Street,,Spartanburg,SC,29307,US,34.96673965,-81.89526367,2022-12-18 06:25:07
Hardee's,214 Cedar Springs Rd,,Spartanburg,SC,29302,US,34.92014694,-81.88721466,2022-12-18 06:25:07
Hardee's,890 Five Chop Road,,Orangeburg,SC,29115,US,33.48553848,-80.83237457,2022-12-18 06:25:11
Hardee's,23470 JOHN T REID PKWY,,SCOTTSBORO,AL,35768,US,34.65405273,-86.02505493,2022-12-18 06:25:20
Hardee's,821 S BROAD ST,,SCOTTSBORO,AL,35768-2507,US,34.66389084,-86.03457642,2022-12-18 06:25:20
Hardee's,922 S PIERCE ST,,ALMA,GA,31510,US,31.53416443,-82.46326447,2022-12-18 06:25:15
Hardee's,1392 Bowens Mill Rd Sw,,Douglas,GA,31533,US,31.48836517,-82.85234833,2022-12-18 06:25:16
Hardee's,203 Alabama St,,Columbus,MS,39702,US,33.4966507,-88.38466644,2022-12-18 06:25:12
Hardee's,733 N Duncan Byp,,Union,SC,29379,US,34.73287201,-81.63977051,2022-12-18 06:25:07
Hardee's,4750 NEW HIGHWAY 68,,MADISONVILLE,TN,37354-1287,US,35.50654221,-84.37046814,2022-12-18 06:25:17
Hardee's,2345 E Morris Blvd,,Morristown,TN,37813,US,36.22198105,-83.26419067,2022-12-18 06:25:11
Hardee's,546 E Broadway Blvd.,,Jefferson City,TN,37760,US,36.12628937,-83.46990967,2022-12-18 06:25:11
Hardee's,7685 Rutledge Pike,,Rutledge,TN,37861,US,36.27854156,-83.5278244,2022-12-18 06:25:09
Hardee's,Highway 33 & Harrison St,,Sneedville,TN,37869,US,36.52867508,-83.21876526,2022-12-18 06:25:14
Hardee's,198 Park Blvd,,Rogersville,TN,37857,US,36.41596985,-82.99158478,2022-12-18 06:25:15
Hardee's,2676 E Andrew Johnson Hwy,,Greeneville,TN,37745,US,36.17878342,-82.77554321,2022-12-18 06:25:15
Hardee's,30 Highland Square,,Crossville,TN,38555,US,35.95905304,-85.04199982,2022-12-18 06:25:12
Hardee's,561 Peavine Road,,Crossville,TN,38571,US,35.96451569,-84.98187256,2022-12-18 06:25:12
Hardee's,902 S Holly St,,Monterey,TN,38574,US,36.14191055,-85.27549744,2022-12-18 06:25:14
Hardee's,504 N Gateway,,Rockwood,TN,37854,US,35.87047195,-84.67998505,2022-12-18 06:25:12
Hardee's,177 FRONT STREET,,SPRING CITY,TN,37381-5078,US,35.6912384,-84.86283112,2022-12-18 06:25:14
Hardee's,270 W Bockman Way,,Sparta,TN,38583,US,35.92871094,-85.46998596,2022-12-18 06:25:11
Hardee's,230 South Jefferson,,Cookeville,TN,38501,US,36.15837097,-85.5,2022-12-18 06:25:11
Hardee's,1075 Willow Ave,,Cookeville,TN,38501,US,36.13937378,-85.52819061,2022-12-18 06:25:11
Hardee's,7474 RHEA COUNTY HWY,,DAYTON,TN,37321-5910,US,35.50907135,-84.99884033,2022-12-18 06:25:21
Hardee's,901 W Main St,,Livingston,TN,38570,US,36.37812805,-85.33336639,2022-12-18 06:25:14
Hardee's,17659 STATE HIGHWAY 58 N,,DECATUR,TN,37322-7835,US,35.52113724,-84.78980255,2022-12-18 06:25:21
Hardee's,1831 HOLIDAY DR,,ATHENS,TN,37303-4951,US,35.46512222,-84.64520264,2022-12-18 06:25:21
Hardee's,1219 CONGRESS PKWY S,,ATHENS,TN,37303-4906,US,35.45212173,-84.62132263,2022-12-18 06:25:21
Hardee's,135 W Broad St,,Smithville,TN,37166,US,35.95698166,-85.81201935,2022-12-18 06:25:11
Hardee's,1801 Washington Street,,Belpre,OH,45714,US,39.27604294,-81.59746552,2022-12-18 06:25:12
Hardee's,1440 7th Street,,Parkersburg,WV,26101,US,39.26473236,-81.53725433,2022-12-18 06:25:12
Hardee's,2309 Pike Street,,Parkersburg,WV,26101,US,39.23246384,-81.54123688,2022-12-18 06:25:12
Hardee's,200 S Main St,,Rushville,IN,46173,US,39.60601044,-85.44438934,2022-12-18 06:25:09
Hardee's,1906 Hart Street,,Vincennes,IN,47591,US,38.66662216,-87.51263428,2022-12-18 06:25:11
Hardee's,2004 E National Hwy,,Washington,IN,47501,US,38.65354919,-87.15198517,2022-12-18 06:25:11
Hardee's,534 E MAIN ST,,OWOSSO,MI,48867,US,42.99721146,-84.16327667,2022-12-18 06:25:13
Hardee's,2002 Court Ave,,Chariton,IA,50049,US,41.01419449,-93.32382202,2022-12-18 06:25:07
Hardee's,1147 S Broadway Ave,,Albert Lea,MN,56007,US,43.63761902,-93.36794281,2022-12-18 07:39:41
Hardee's,1409 Madison Ave,,Mankato,MN,56001,US,44.16656494,-93.97215271,2022-12-18 06:25:16
Hardee's,101 W Lind Ct,,Mankato,MN,56001,US,44.18919754,-94.01276398,2022-12-18 06:25:16
Hardee's,6560 DIXIE HIGHWAY,,BRIDGEPORT,MI,48722,US,43.34850693,-83.86160278,2022-12-18 06:25:14
Hardee's,1505 W Fayette Ave,,Effingham,IL,62401,US,39.11987686,-88.56170654,2022-12-18 06:25:17
Hardee's,701 West Jourdan Avenue,,Newton,IL,62448,US,38.99100494,-88.16969299,2022-12-18 06:25:17
Hardee's,501 W Main St,,Salem,IL,62881,US,38.62669754,-88.94972992,2022-12-18 06:25:17
Hardee's,502 E. Main Street,,Robinson,IL,62454,US,39.00621033,-87.73438263,2022-12-18 06:25:12
Hardee's,11 N Kingshighway St,,Perryville,MO,63775,US,37.73213959,-89.86320496,2022-12-18 06:25:09
Hardee's,501 E Highway 72,,Fredericktown,MO,63645,US,37.56780624,-90.28382874,2022-12-18 06:25:09
Hardee's,8077 HWY 10 WEST,,MISSOULA,MT,59808,US,46.94723129,-114.13336182,2022-12-18 06:25:22
Hardee's,116 RON HARROD RD,,PRESCOTT,AR,71857-9053,US,33.8289032,-93.3948288,2022-12-18 06:25:12
Hardee's,129 S Memorial Dr,,New Castle,IN,47362,US,39.92931366,-85.38230133,2022-12-18 06:25:07
Hardee's,1510 16TH ST,,BEDFORD,IN,47421,US,38.86075211,-86.49195862,2022-12-18 06:25:07
Hardee's,3301 W 3RD ST,,BLOOMINGTON,IN,47404,US,39.16407013,-86.57668304,2022-12-18 06:25:12
Hardee's,1120 W Washington St,,Marquette,MI,49855,US,46.54644775,-87.42031097,2022-12-18 06:25:17
Hardee's,525 E M-28,,Munising,MI,49862,US,46.40550232,-86.64924622,2022-12-18 06:25:17
Hardee's,2100 Twin Valley Dr,,Dubuque,IA,52003,US,42.46009064,-90.6734848,2022-12-18 06:25:07
Hardee's,395 East Jackson Blvd,,Jonesborough,TN,37659,US,36.29941559,-82.47083282,2022-12-18 06:25:15
Hardee's,2102 West Market St,,Johnson City,TN,37604,US,36.31184769,-82.38834381,2022-12-18 06:25:14
Hardee's,530 W Main Street,,Mount Carmel,TN,37645,US,36.53765869,-82.67032623,2022-12-18 06:25:15
Hardee's,1401 John B Dennis Pkway,,Kingsport,TN,37660,US,36.50286102,-82.55886078,2022-12-18 06:25:15
Hardee's,4707 N Roan St,,Johnson City,TN,37615,US,36.39066696,-82.41159821,2022-12-18 06:25:14
Hardee's,2702 North Roan Street,,Johnson City,TN,37601,US,36.35505295,-82.38211823,2022-12-18 06:25:14
Hardee's,4256 Fort Henry Drive,,Colonial Heights,TN,37663,US,36.48156357,-82.49885559,2022-12-18 06:25:15
Hardee's,1405 E Stone Dr,,Kingsport,TN,37660,US,36.54959869,-82.52471161,2022-12-18 06:25:18
Hardee's,3020 John B Dennis Hwy,,Kingsport,TN,37660,US,36.57365799,-82.50718689,2022-12-18 06:25:18
Hardee's,157 KANE ST,,GATE CITY,VA,24251,US,36.63853073,-82.57492828,2022-12-18 06:25:15
Hardee's,1400 S Limit Ave,,Sedalia,MO,65301,US,38.69992447,-93.252388,2022-12-18 06:25:13
Hardee's,1616 East Ohio Street,,Clinton,MO,64735,US,38.36577225,-93.7497406,2022-12-18 06:25:13
Hardee's,715 E Broadway Blvd,,Sedalia,MO,65301,US,38.70423508,-93.21832275,2022-12-18 06:25:13
Hardee's,304 E National Ave,,Brazil,IN,47834,US,39.52453232,-87.122612,2022-12-18 06:25:12
Hardee's,1730 E HARLAN DRIVE,,TERRE HAUTE,IN,47802,US,39.34785843,-87.38973236,2022-12-18 06:25:12
Hardee's,888 W State Rd 154,,Sullivan,IN,47882,US,39.10350037,-87.42629242,2022-12-18 06:25:12
Hardee's,120 DABNEY DR,,HENDERSON,NC,27536,US,36.3191452,-78.41511536,2022-12-18 06:25:11
Hardee's,916 VIRGINIA AVE,,CLARKSVILLE,VA,23927,US,36.62120819,-78.56601715,2022-12-18 06:25:11
Hardee's,230 East Second Street,,Chase City,VA,23924,US,36.79948044,-78.45922852,2022-12-18 06:25:11
Hardee's,1010 BILL TUCK HIGHWAY BOX 6B,,SOUTH BOSTON,VA,24592,US,36.68702316,-78.89948273,2022-12-18 06:25:11
Hardee's,1117 WILBORN AVE,,SOUTH BOSTON,VA,24592,US,36.70306396,-78.90630341,2022-12-18 06:25:11
Hardee's,1651 LAUDERDALE MEMORIAL HWY,,CHARLESTON,TN,37310,US,35.28705978,-84.81095886,2022-12-18 06:25:21
Hardee's,370 Us Highway 62 W,,Princeton,KY,42445,US,37.11369324,-87.90139771,2022-12-18 06:25:17
Hardee's,2501 W ASHLEY RD,,BOONVILLE,MO,65233-2870,US,38.93406677,-92.77959442,2022-12-18 06:25:13
Hardee's,301 E 4Th St,,Eldon,MO,65026,US,38.34712219,-92.57897949,2022-12-18 06:25:07
Hardee's,515 S Delaware,,Mason City,IA,50401,US,43.14673233,-93.19934845,2022-12-18 07:39:41
Hardee's,605 Highway 18 West,,Garner,IA,50438,US,43.10544205,-93.60910034,2022-12-18 07:39:41
Hardee's,329 Central Avenue West,,Clarion,IA,50525,US,42.73194122,-93.73704529,2022-12-18 07:39:41
Hardee's,1001 W WALNUT ST,,OGLESBY,IL,61348-1302,US,41.29349899,-89.08652496,2022-12-18 06:25:18
Hardee's,117 N Hibbard,,Staunton,IL,62088,US,39.01276779,-89.79174042,2022-12-18 06:25:16
Hardee's,1126 E 12Th Ave,,Emporia,KS,66801,US,38.4126358,-96.16481781,2022-12-18 06:25:12
Hardee's,2100 Sw Wanamaker Rd,,Topeka,KS,66614,US,39.02869797,-95.76168823,2022-12-18 06:25:09
Hardee's,150 Se Wyoming Blvd,,Casper,WY,82609,US,42.84988785,-106.27163696,2022-12-16 15:27:52
Hardee's,900 Pronghorn St,,Casper,WY,82601,US,42.84925842,-106.33612061,2022-12-16 15:27:38
Hardee's,2301 PRUDEN BLVD,,SUFFOLK,VA,23434,US,36.75938416,-76.58759308,2022-12-18 07:39:41
Hardee's,2089 NC HIGHWAY 86 N,,YANCEYVILLE,NC,27379,US,36.41775894,-79.35036469,2022-12-18 06:25:21
Hardee's,5088 HIGHWAY 64,,COPPERHILL,TN,37317-5203,US,35.02893829,-84.3844986,2022-12-18 06:25:17
Hardee's,904 E Main St,,Westminster,SC,29693,US,34.65945435,-83.08971405,2022-12-18 06:25:09
Hardee's,244 N MAIN ST,,HIAWASSEE,GA,30546-2213,US,34.95211411,-83.75830078,2022-12-18 06:25:17
Hardee's,3901 Blue Ridge Blvd,,Walhalla,SC,29691,US,34.76292038,-83.05675507,2022-12-18 06:25:18
Hardee's,1003 By Pass 123,,Seneca,SC,29678,US,34.69308853,-82.97457886,2022-12-18 06:25:09
Hardee's,ROUTE 2 US HWY 64,,HAYESVILLE,NC,28904,US,35.03515244,-83.82189178,2022-12-18 06:25:17
Hardee's,Route 2 US Hwy 64,,Hayesville,NC,28904,US,35.03509521,-83.82189941,2022-12-18 06:25:17
Hardee's,1907 N Jackson Street,,Tullahoma,TN,37388,US,35.38427353,-86.23246002,2022-12-18 06:25:07
Hardee's,335 W Lincoln St,,Tullahoma,TN,37388,US,35.35899734,-86.21487427,2022-12-18 06:25:07
Hardee's,913 Hillsboro Hwy,,Manchester,TN,37355,US,35.47454453,-86.07818604,2022-12-18 06:25:07
Hardee's,1165 AEDC ROAD,,HILLSBORO,TN,37342,US,35.41898727,-86.01494598,2022-12-18 06:25:11
Hardee's,1600 Dinah Shore Blvd,,Winchester,TN,37398,US,35.19976807,-86.09472656,2022-12-18 06:25:11
Hardee's,716 PARKER ST,,MONTEAGLE,TN,37356-2117,US,35.23838043,-85.84954834,2022-12-18 06:25:11
Hardee's,407 W Main St,,Mc Minnville,TN,37110,US,35.68256378,-85.77925873,2022-12-18 06:25:11
Hardee's,50770 Old Hwy 72,,Bridgeport,AL,35740,US,34.94485855,-85.72628021,2022-12-18 06:25:20
Hardee's,3283 Hwy 126,,Blountville,TN,37617,US,36.53451538,-82.32164001,2022-12-18 06:25:14
Hardee's,2102 N Frontage Rd,,Meridian,MS,39301,US,32.35514069,-88.68943024,2022-12-18 06:25:12
Hardee's,134 N Hills St,,Meridian,MS,39305,US,32.41341019,-88.6778183,2022-12-18 06:25:12
Hardee's,302 S Archusa Ave,,Quitman,MS,39355,US,32.03622437,-88.72847748,2022-12-18 06:25:12
Hardee's,241 East Side Drive,,Newton,MS,39345,US,32.33799362,-89.14019775,2022-12-18 06:25:12
Hardee's,109 E Pushmataha St,,Butler,AL,36904,US,32.09025192,-88.22044373,2022-12-18 06:25:12
Hardee's,701 N Washington St,,Livingston,AL,35470,US,32.59477997,-88.18353271,2022-12-18 06:25:17
Hardee's,1001 Beacon St,,Philadelphia,MS,39350,US,32.77084732,-89.12798309,2022-12-18 06:25:17
Hardee's,1289 WEST MAIN ST,,WEST LIBERTY,KY,41472,US,37.9021492,-83.28135681,2022-12-18 07:39:41
Hardee's,505 N 12Th St,,Murray,KY,42071,US,36.61740112,-88.31568909,2022-12-18 06:25:12
Hardee's,1033 Paris Rd,,Mayfield,KY,42066,US,36.72562027,-88.62939453,2022-12-18 06:25:12
Hardee's,61 Us Highway 68 W,,Benton,KY,42025,US,36.92599869,-88.34490204,2022-12-18 06:25:17
Hardee's,1005 Mineral Wells Ave,,Paris,TN,38242,US,36.29050064,-88.3145752,2022-12-18 06:25:12
Hardee's,3700 Clarks River Rd,,Paducah,KY,42003,US,37.04789352,-88.56004333,2022-12-18 06:25:17
Hardee's,3024 Lone Oak Rd,,Paducah,KY,42003,US,37.03570175,-88.66531372,2022-12-18 06:25:17
Hardee's,1726 Broadway St,,Paducah,KY,42001,US,37.07823181,-88.61823273,2022-12-18 06:25:17
Hardee's,1200 W Reelfoot Ave,,Union City,TN,38261,US,36.41470718,-89.07192993,2022-12-18 06:25:12
Hardee's,905 E Washington St,,Mt Pleasant,IA,52641,US,40.96456146,-91.54072571,2022-12-18 07:39:41
Hardee's,907 Lawrence Dr,,Burlington,IA,52601,US,40.79948425,-91.14081573,2022-12-18 07:39:41
Hardee's,2933 Western Ave,,Eau Claire,WI,54703,US,44.84965897,-91.47380066,2022-12-18 07:39:41
Hardee's,2910 Golf Road,,Eau Claire,WI,54701,US,44.77149582,-91.46035004,2022-12-18 06:25:11
Hardee's,2070 19Th Ave,,Bloomer,WI,54724,US,45.09919739,-91.50102234,2022-12-18 07:39:41
Hardee's,1819 S Main,,Rice Lake,WI,54868,US,45.48168564,-91.733284,2022-12-18 06:25:11
Hardee's,12613 Tenth St.,,Osseo,WI,54758,US,44.57888031,-91.19992828,2022-12-18 06:25:13
Hardee's,605 50Th Ave W,,Alexandria,MN,56308,US,45.84605408,-95.38598633,2022-12-18 06:25:17
Hardee's,1180 Main St S,,Sauk Centre,MN,56378,US,45.72481918,-94.95223236,2022-12-18 06:25:17
Hardee's,2524 College Way,,Fergus Falls,MN,56537,US,46.29032516,-96.11644745,2022-12-18 06:25:17
Hardee's,2625 10Th Ave S,,Great Falls,MT,59405,US,47.49447632,-111.26145935,2022-12-18 06:25:15
Hardee's,100 Plaza Sq,,Leadington,MO,63601,US,37.83922958,-90.48583221,2022-12-18 06:25:11
Hardee's,1010 Highway K,,Bonne Terre,MO,63628,US,37.92306519,-90.53961182,2022-12-18 06:25:11
Hardee's,103 Healthway Drive,,Potosi,MO,63664,US,37.92754364,-90.77315521,2022-12-18 06:25:18
Hardee's,3750 CANDLERS MOUNTAIN RD,,LYNCHBURG,VA,24502,US,37.35852432,-79.1705246,2022-12-18 06:25:15
Hardee's,17051 FOREST ROAD,,FOREST,VA,24551,US,37.3671875,-79.25808716,2022-12-18 06:25:15
Hardee's,20265 TIMBERLAKE RD,,LYNCHBURG,VA,24502,US,37.34424591,-79.23538208,2022-12-18 06:25:15
Hardee's,889 VILLAGE HWY,,RUSTBURG,VA,24588,US,37.27713776,-79.09958649,2022-12-18 06:25:15
Hardee's,1022 Main St,,Altavista,VA,24517,US,37.11510468,-79.28151703,2022-12-18 06:25:15
Hardee's,13689 US HIGHWAY 29,,CHATHAM,VA,24531,US,36.78944778,-79.3944931,2022-12-18 06:25:18
Hardee's,2765 stewart Rd,,Andrews,NC,28901,US,35.19727707,-83.80020142,2022-12-18 06:25:17
Hardee's,1211 N Main Street,,Bladenboro,NC,28320,US,34.55121231,-78.78390503,2022-12-18 06:25:12
Hardee's,5119 HWY 11 S,,CALHOUN,TN,37309,US,35.29766464,-84.75183868,2022-12-18 06:25:21
Hardee's,859 HIGHWAY 411 NORTH,,ETOWAH,TN,37331,US,35.34270096,-84.51997375,2022-12-18 06:25:17
Hardee's,1310 State St,,Lawrenceville,IL,62439,US,38.72916031,-87.68504333,2022-12-18 06:25:11
Hardee's,6 S 15Th St,,Fort Dodge,IA,50501,US,42.50582886,-94.17805481,2022-12-18 07:39:41
Hardee's,1203 10Th Ave N,,Humboldt,IA,50548,US,42.73226929,-94.22632599,2022-12-18 07:39:41
Hardee's,150 E DIVISION ST,,NEILLSVILLE,WI,54456,US,44.55236435,-90.59484863,2022-12-18 06:25:11
Hardee's,1704 1St Street S,,Willmar,MN,56001,US,45.10448837,-95.04331207,2022-12-18 06:25:15
Hardee's,147 Highway 212 E,,Granite Falls,MN,56241,US,44.80496979,-95.53987122,2022-12-18 06:25:18
Hardee's,1444 East Battlefield,,Springfield,MO,65804,US,37.1591301,-93.27042389,2022-12-18 06:25:09
Hardee's,1515 W Battlefield,,Springfield,MO,65807,US,37.16056824,-93.31299591,2022-12-18 06:25:09
Hardee's,3312 E CHESTNUT EXPY,,SPRINGFIELD,MO,65802-6302,US,37.20915604,-93.22776031,2022-12-18 06:25:09
Hardee's,3465 W Chestnut Expwy,,Springfield,MO,65802,US,37.21281433,-93.34806061,2022-12-18 06:25:09
Hardee's,2260 North Glenstone,,Springfield,MO,65803,US,37.23770142,-93.26070404,2022-12-18 06:25:09
Hardee's,400 N STATE HWY 125,,STRAFFORD,MO,65757-9461,US,37.27626038,-93.11229706,2022-12-18 06:25:09
Hardee's,19001 Missouri Business 13,,Branson West,MO,65737,US,36.7078743,-93.37355042,2022-12-18 06:25:09
Hardee's,1100 W Dallas St,,Buffalo,MO,65622,US,37.64009094,-93.10289001,2022-12-18 06:25:09
Hardee's,6201 Shortman Road,,Ripley,NY,14755,US,42.25873947,-79.74340057,2022-12-18 07:39:41
Hardee's,199 GLOUCESTER ROAD,,SALUDA,VA,23149,US,37.59748077,-76.60306549,2022-12-18 06:25:07
Hardee's,2398 GEORGE WASHINGTON MEM HWY,,HAYES,VA,23072,US,37.27541351,-76.50035095,2022-12-18 06:25:15
Hardee's,17068 RANKIN AVENUE,,DUNLAP,TN,37327-7026,US,35.38888168,-85.37724304,2022-12-18 06:25:11
Hardee's,712 E MORGAN AVE,,PENNINGTON GAP,VA,24277,US,36.76239014,-83.01805115,2022-12-18 06:25:14
Hardee's,711 DUFF-PATT ROAD,,DUFFIELD,VA,28546,US,36.71196365,-82.79405975,2022-12-18 06:25:15
Hardee's,1010 E 10Th St,,Sioux Falls,SD,57103,US,43.54701614,-96.71342468,2022-12-18 06:25:18
Hardee's,2900 S Minnesota Ave,,Sioux Falls,SD,57105,US,43.51820374,-96.73046112,2022-12-18 06:25:18
Hardee's,4801 W 12Th St,,Sioux Falls,SD,57106,US,43.5435524,-96.78499603,2022-12-18 06:25:18
Hardee's,660 N Main,,Sioux Center,IA,51250,US,43.08393097,-96.17519379,2022-12-18 06:25:07
Hardee's,505 2Nd Ave,,Sheldon,IA,51201,US,43.1855011,-95.85384369,2022-12-18 06:25:07
Hardee's,809 ALBANY PLACE,,ORANGE CITY,IA,51041-1936,US,42.9966011,-96.05677032,2022-12-18 06:25:07
Hardee's,809 Albany Place,,Orange City,IA,51041,US,42.99653244,-96.0562973,2022-12-18 06:25:07
Hardee's,2016 Paris Rd,,Columbia,MO,65202,US,38.96760178,-92.30725861,2022-12-18 06:25:07
Hardee's,200 S Providence Rd,,Columbia,MO,65203,US,38.94936752,-92.33381653,2022-12-18 06:25:07
Hardee's,707 W Jackson St,,Mexico,MO,65265,US,39.17285919,-91.89042664,2022-12-18 06:25:07
Hardee's,3601 Country Club Dr,,Jefferson City,MO,65109,US,38.58348465,-92.25269318,2022-12-18 06:25:07
Hardee's,308 HWY 24 E,,Moberly,MO,65270,US,39.44126129,-92.43171692,2022-12-18 06:25:07
Hardee's,1300 S Jefferson,,Lebanon,MO,65536,US,37.66877365,-92.64900208,2022-12-18 06:25:09
Hardee's,1300 W MONROE AVENUE,,NORFOLK,NE,68701,US,42.01159668,-97.42776489,2022-12-18 06:25:17
Hardee's,102 Holiday Frontage Road,,North Platte,NE,69101,US,41.10853195,-100.7649765,2022-12-16 15:27:49
Hardee's,1314 W MAIN ST,,DANVILLE,VA,24541,US,36.56753159,-79.43254089,2022-12-18 06:25:18
Hardee's,3135 RIVERSIDE DR,,DANVILLE,VA,24541,US,36.58591843,-79.42328644,2022-12-18 06:25:18
Hardee's,1192 Piney Forest Road,,Danville,VA,24540,US,36.62622452,-79.40132141,2022-12-18 06:25:18
Hardee's,1298 S BOSTON RD,,DANVILLE,VA,24540,US,36.58063126,-79.34481812,2022-12-18 06:25:18
Hardee's,410 SOUTH MAIN STREET,,HALIFAX,VA,24558,US,36.76105499,-78.92836761,2022-12-18 06:25:11
Hardee's,701 WEST HAMLET AVE,,HAMLET,NC,28345,US,34.89299393,-79.70201111,2022-12-18 06:25:21
Hardee's,807 W Taylor,,Creston,IA,50801,US,41.04943085,-94.37291718,2022-12-18 07:39:41
Hardee's,2196 University,,Dubuque,IA,52001,US,42.49915314,-90.6947403,2022-12-18 06:25:07
Hardee's,420 Rhomberg,,Dubuque,IA,52001,US,42.51300049,-90.6652832,2022-12-18 06:25:07
Hardee's,944 S Marquette Street,,Prairie Du Chien,WI,53821,US,43.03955078,-91.13910675,2022-12-18 06:25:07
Hardee's,2220 N Webb Rd,,Grand Island,NE,68803,US,40.94260788,-98.37911987,2022-12-18 06:25:16
Hardee's,1111 HIGHWAY 62 65 N,,HARRISON,AR,72601-2017,US,36.25968933,-93.1265564,2022-12-18 06:25:09
Hardee's,500 E North St,,Mountain Home,AR,72653,US,36.34343338,-92.37981415,2022-12-18 06:25:07
Hardee's,604 NE MAIN,,MOUNTAIN VIEW,AR,72560,US,35.86522675,-92.10916901,2022-12-18 06:25:07
Hardee's,905 Porter Wagoner Blvd,,West Plains,MO,65775,US,36.73626328,-91.86685944,2022-12-18 06:25:09
Hardee's,538 2ND ST,,WILLIAMSBURG,VA,23185,US,37.27272797,-76.68021393,2022-12-18 06:25:16
Hardee's,7007 GEORGE WASHINGTON MEM HWY,,GLOUCESTER,VA,23061,US,37.39152527,-76.52897644,2022-12-18 06:25:09
Hardee's,6450 RICHMOND PLAZA,,WILLIAMSBURG,VA,23188,US,37.34138489,-76.75454712,2022-12-18 06:25:09
Hardee's,537 Gateway Ave,,Mauston,WI,53948,US,43.7973671,-90.06332397,2022-12-18 06:25:15
Hardee's,1250 S Pokegama Ave,,Grand Rapids,MN,55744,US,47.2179184,-93.52745819,2022-12-18 06:25:16
Hardee's,2527 E 13TH AVE,,HIBBING,MN,55746,US,47.43519211,-92.9200058,2022-12-18 06:25:18
Hardee's,1400 13Th St,,Virginia,MN,55792,US,47.51236725,-92.5574646,2022-12-18 06:25:18
Hardee's,604 5Th St,,Rapid City,SD,57701,US,44.07925797,-103.2250061,2022-12-18 06:25:18
Hardee's,2250 N Haines Ave,,Rapid City,SD,57701,US,44.10741806,-103.22094727,2022-12-18 06:25:18
Hardee's,1204 E. North Street,,Rapid City,SD,57701,US,44.08807755,-103.19156647,2022-12-18 06:25:18
Hardee's,679 REAGAN AVE,,BOX ELDER,SD,57719,US,44.12025452,-103.05208588,2022-12-18 06:25:18
Hardee's,2504 Fifth Ave,,Belle Fourche,SD,57717,US,44.6493187,-103.86051178,2022-12-16 15:27:53
Hardee's,1411 S Baltimore St,,Kirksville,MO,63501,US,40.1837883,-92.57151794,2022-12-18 06:25:07
Hardee's,1703 N Missouri St,,Macon,MO,63552,US,39.75264359,-92.46839142,2022-12-18 06:25:07
Hardee's,100 E Maple St,,Centerville,IA,52544,US,40.73202515,-92.87380219,2022-12-18 06:25:07
Hardee's,1521 SOUTH MAIN STREET,,FARMVILLE,VA,23901,US,37.28285217,-78.39591217,2022-12-18 06:25:11
Hardee's,200 EAST VIRGINIA AVE,,CREWE,VA,23930,US,37.17370987,-78.12443542,2022-12-18 06:25:11
Hardee's,101 NORTH MAIN STREET,,BLACKSTONE,VA,23824,US,37.08195496,-77.99710846,2022-12-18 06:25:11
Hardee's,1212 HWY 82 EAST,,INDIANOLA,MS,38751,US,33.45713043,-90.63102722,2022-12-18 06:25:09
Hardee's,1651 Highway 1 S,,Greenville,MS,38701,US,33.37491226,-91.04032135,2022-12-18 06:25:16
Hardee's,233 W Villard St,,Dickinson,ND,58601,US,46.87860489,-102.78920746,2022-12-18 06:25:13
Hardee's,27 MAIN ST,,MATHEWS,VA,23109,US,37.43673325,-76.32019806,2022-12-18 06:25:09
Hardee's,3381 S Us Highway 41,,Terre Haute,IN,47802,US,39.42728043,-87.4155426,2022-12-18 06:25:12
Hardee's,1710 Westridge Rd,,New Ulm,MN,56073,US,44.32741547,-94.50265503,2022-12-18 06:25:16
Hardee's,320 Main St W,,Sleepy Eye,MN,56085,US,44.29765701,-94.72698975,2022-12-18 06:25:17
Hardee's,1787 Venture Dr,,Ottumwa,IA,52501,US,41.0166893,-92.45077515,2022-12-18 06:25:07
Hardee's,1118 S Clinton,,Albia,IA,52531,US,41.01662064,-92.80862427,2022-12-18 06:25:07
Hardee's,937 5Th St Se,,Watertown,SD,57201,US,44.88910294,-97.11011505,2022-12-18 06:25:20
Hardee's,1201 E Highway 12,,Milbank,SD,57252,US,45.22336197,-96.61952972,2022-12-18 06:25:17
Hardee's,2324 6Th St,,Brookings,SD,57006,US,44.31075287,-96.76483154,2022-12-18 06:25:18
Hardee's,127 BANK ST,,TELLICO PLAINS,TN,37385-4907,US,35.36907196,-84.30173492,2022-12-18 06:25:17
Hardee's,104 S WHITE ST,,ATHENS,TN,37303-4260,US,35.44094467,-84.59320831,2022-12-18 06:25:21
Hardee's,845 LIBERTY HILL DR,,EVERGREEN,AL,36401-1812,US,31.45449638,-86.96296692,2022-12-18 06:25:20
Hardee's,35 HIGHWAY 41 N,,CAMDEN,AL,36726-1799,US,31.99425888,-87.27754211,2022-12-18 06:25:20
Hardee's,1608 S ALABAMA RD,,MONROEVILLE,AL,36460-3029,US,31.50656891,-87.31833649,2022-12-18 06:25:20
Hardee's,2800 COLLEGE AVE,,JACKSON,AL,36545-2447,US,31.53820419,-87.88651276,2022-12-18 06:25:21
Hardee's,1460 Old Aberdeen Rd,,Columbus,MS,39705,US,33.51324081,-88.43278503,2022-12-18 06:25:12
Hardee's,411 Highway 12 East,,Starkville,MS,39759,US,33.45485306,-88.80802917,2022-12-18 06:25:12
Hardee's,311 NORTH CHURCH AVE,,Louisville,MS,39339,US,33.12682724,-89.05587006,2022-12-18 06:25:12
Hardee's,119 Washington St,,Brainerd,MN,56401,US,46.35837936,-94.20718384,2022-12-18 06:25:18
Hardee's,1025 Cabela Dr,,Mitchell,SD,57301,US,43.68798447,-98.01194763,2022-12-18 06:25:07
Hardee's,850 S ST LOUIS STREET,,BATESVILLE,AR,72501-5833,US,35.77108002,-91.64099121,2022-12-18 06:25:07
Hardee's,850 S ST LOUIS STREET,,BATESVILLE,AR,72501,US,35.77066422,-91.64144135,2022-12-18 06:25:07
Hardee's,401 1/2 Fire Monument Rd,,Hinckley,MN,55037,US,46.01193619,-92.93019867,2022-12-18 06:25:15
Hardee's,323 14TH ST,,WEST POINT,VA,23181,US,37.53707886,-76.80034637,2022-12-18 06:25:07
Hardee's,750 W Broadway,,Centralia,IL,62801,US,38.52997208,-89.14733887,2022-12-18 07:39:41
Hardee's,1251 12th St,,Carlyle,IL,62231,US,38.61751175,-89.37332916,2022-12-18 07:39:41
Hardee's,606 N Lincoln Rd,,Escanaba,MI,49829,US,45.75255585,-87.07706451,2022-12-18 06:25:17
Hardee's,350 East U.S. Hwy 2,,Manistique,MI,49854,US,45.95174408,-86.24385071,2022-12-18 06:25:17
Hardee's,315 N Stephenson Ave,,Iron Mountain,MI,49801,US,45.82594681,-88.06246948,2022-12-18 06:25:09
Hardee's,105 Mechanic St North,,Franklin,VA,23851,US,36.67816925,-76.9212265,2022-12-18 07:39:41
Hardee's,704 South Grand,,Spencer,IA,51301,US,43.13131332,-95.14349365,2022-12-18 06:25:07
Hardee's,1736 Central Ave,,Estherville,IA,51334,US,43.40171814,-94.81916046,2022-12-18 06:25:07
Hardee's,605 Flindt Drive,,Storm Lake,IA,50588,US,42.64486313,-95.18730927,2022-12-18 06:25:07
Hardee's,250 3rd Ave,,Windom,MN,56101,US,43.85511398,-95.11690521,2022-12-18 06:25:07
Hardee's,2010 Indorf Avenue,,Holstein,IA,51025,US,42.47402573,-95.54393005,2022-12-18 06:25:19
Hardee's,1402 E College Dr,,Marshall,MN,56258,US,44.44998169,-95.76516724,2022-12-18 06:25:17
Hardee's,104 E Hart St,,Buffalo,WY,82834,US,44.35447693,-106.69425964,2022-12-18 06:25:19
Hardee's,2405 Dakota Ave,,South Sioux City,NE,68776,US,42.46678543,-96.4144516,2022-12-18 06:25:17
Hardee's,910 Gordon Dr,,Sioux City,IA,51101,US,42.48948288,-96.39829254,2022-12-18 06:25:17
Hardee's,4440 Sergeant Road,,Sioux City,IA,51106,US,42.44744873,-96.34882355,2022-12-18 06:25:17
Hardee's,1205 Hawkeye Ave Sw,,Le Mars,IA,51031,US,42.77892303,-96.18648529,2022-12-18 06:25:17
Hardee's,32450 HIGHWAY 43,,THOMASVILLE,AL,36784-1605,US,31.91334343,-87.7406311,2022-12-18 06:25:20
Hardee's,1020 2Nd Ave W,,Williston,ND,58801,US,48.15384293,-103.62509918,2022-12-18 06:25:14
Hardee's,104 9Th Ave Se,,Watford City,ND,58854,US,47.79219055,-103.28223419,2022-12-18 06:25:14
Hardee's,207 S Miller,,Gillette,WY,82716,US,44.29109192,-105.50222015,2022-12-18 06:25:19
Hardee's,2000 N State St,,Fairmont,MN,56031,US,43.67617035,-94.44658661,2022-12-18 07:39:41
Hardee's,2002 Center St,,Marysville,KS,66508,US,39.84171295,-96.63295746,2022-12-18 06:25:11
Hardee's,144 West Santa Monica Ave (Corp-ToGo),,Dededo,GU,96929,US,13.52207851,144.84666443,2022-12-18 06:25:12
Hardee's,144 West Santa Monica Avenue (CORP-OMNI),,Dededo,GU,96929,US,13.52207851,144.84666443,2022-12-16 15:27:39
Hardee's,144 West Santa Monica Avenue (PARADIGM),,Dededo,GU,96929,US,13.52216911,144.84700012,2022-12-16 15:27:39
Hardee's,144 West Santa Monica Avenue (CAPSTONE),,Dededo,GU,96929,US,13.52216911,144.84700012,2022-12-16 15:27:39
Hardee's,4151 LANKFORD HWY,,EXMORE,VA,23350,US,37.52127457,-75.83099365,2022-12-18 06:25:11
Hardee's,22031 LANKFORD HIGHWAY,,CAPE CHARLES,VA,23310,US,37.28123093,-75.97818756,2022-12-18 06:25:11
Hardee's,1849 E 9Th St,,Trenton,MO,64683,US,40.07466507,-93.6002121,2022-12-18 06:25:07
Hardee's,305 W Sioux Ave,,Pierre,SD,57501,US,44.36832428,-100.35702515,2022-12-18 06:25:22
Hardee's,901 1St Ave S,,Jamestown,ND,58401,US,46.89961243,-98.70736694,2022-12-18 06:25:09
Hardee's,515 Highway 2 E,,Devils Lake,ND,58301,US,48.10145187,-98.85806274,2022-12-18 06:25:12
Hardee's,1306 Stafford Dr,,Princeton,WV,24740,US,37.36099243,-81.1006012,2022-12-18 06:25:17
Hardee's,901 Bluefield Ave,,Bluefield,WV,24701,US,37.26488876,-81.23503876,2022-12-18 06:25:17
Hardee's,141 PIONEER VILLAGE DR,,Mountain City,NC,37683,US,36.46470261,-81.80208588,2022-12-18 06:25:14
Hardee's,103 S KEENELAND DR,,RICHMOND,KY,40475,US,37.7754364,-84.31923676,2022-12-18 06:25:13
Hardee's,420 Main St.,,Bunn,NC,27508,US,33.16210175,-87.585289,2022-12-18 06:25:19
Hardee's,1600 HIGHWAY 71,,INTERNATIONAL FALLS,MI,56649,US,48.58987427,-93.43712616,2022-12-18 06:25:19
