company_name,address_line_1,address_line_2,city,state_alpha,postal_code,country_code,latitude,longitude,when_verified
IHOP,622 George Washington Highway,Unit 70,Lincoln,RI,02865,,41.93603516,-71.47538757,2022-12-18 07:39:41
IHOP,45 Pleasant Valley Pkwy,,Providence,RI,02908,,41.8298111,-71.42619324,2022-12-18 07:39:41
IHOP,383 Washington St,,Attleboro,MA,02703,,41.91868973,-71.35945129,2022-12-18 07:39:41
IHOP,1802 Post Rd,,Warwick,RI,02886,,41.73231125,-71.43608856,2022-12-18 07:39:41
IHOP,75 Highland Ave,,East Providence,RI,02914,,41.80501175,-71.34073639,2022-12-18 07:39:41
IHOP,17 Medway Road,,Milford,MA,01757,,42.14910126,-71.50009918,2022-12-18 07:39:41
IHOP,235 New State Hwy,,Raynham,MA,02767,,41.90504074,-71.05641174,2022-12-18 07:39:41
IHOP,1378 Boston Providence Highway,,Norwood,MA,02062,,42.16611099,-71.19789886,2022-12-18 07:39:41
IHOP,4102 Shops Way,,Northborough,MA,01532,,42.2879715,-71.67279816,2022-12-18 07:39:41
IHOP,159 W. Main Rd,,Middletown,RI,02842,,41.51005173,-71.30162048,2022-12-18 07:39:41
IHOP,70 Boston Turnpike,,Shrewsbury,MA,01545,,42.27402115,-71.7514801,2022-12-18 07:39:41
IHOP,17 Edgell Rd,,Framingham,MA,01701,,42.30105972,-71.433815,2022-12-18 07:39:41
IHOP,260 Providence Hwy,,Dedham,MA,02026,,42.2564888,-71.16986847,2022-12-18 07:39:41
IHOP,47 Faunce Corner Rd,,North Dartmouth,MA,02747,,41.6455307,-70.98667908,2022-12-18 07:39:41
IHOP,540 Westgate Dr,,Brockton,MA,02301,,42.09531021,-71.05445099,2022-12-18 07:39:41
IHOP,191 Deming St,,Manchester,CT,06042,,41.81443405,-72.52732849,2022-12-18 07:39:41
IHOP,3280 Berlin Turnpike,,Newington,CT,06111,,41.65848923,-72.7231369,2022-12-18 07:39:41
IHOP,1040 North Colony Rd,,Wallingford,CT,06492,,41.49319077,-72.80876923,2022-12-18 07:39:41
IHOP,10 Shops At 5 Way,,Plymouth,MA,02360,,41.93051147,-70.65776825,2022-12-18 07:39:41
IHOP,790 Iyannough Rd,,Hyannis,MA,02601,,41.67010117,-70.29733276,2022-12-18 07:39:41
IHOP,755 Granite Street,,Braintree,MA,02184,,42.20571136,-71.02384186,2022-12-18 07:39:41
IHOP,1490 Old Country Rd,,Riverhead,NY,11901,,40.92599869,-72.69580078,2022-12-18 07:39:41
IHOP,224 South River Rd,,Bedford,NH,03110,,42.94226837,-71.47312927,2022-12-18 07:39:41
IHOP,230 Daniel Webster Hwy,,Nashua,NH,03060,,42.71165848,-71.44075012,2022-12-18 07:39:41
IHOP,528 S. Broadway,,Salem,NH,03079,,42.74185181,-71.19898224,2022-12-18 07:39:41
IHOP,95 Main St,,Tewksbury,MA,01876,,42.62548065,-71.26863098,2022-12-18 07:39:41
IHOP,570 Lafayette Rd,,Seabrook,NH,03874,,42.89242172,-70.86962891,2022-12-18 07:39:41
IHOP,114 Broadway,,Saugus,MA,01906,,42.49412918,-71.01506042,2022-12-18 07:39:41
IHOP,1850 Soldiers Field Rd,,Brighton,MA,02135,,42.35871124,-71.15724945,2022-12-18 07:39:41
IHOP,16 Eliot St,,Cambridge,MA,02138,,42.37205887,-71.12153625,2022-12-18 07:39:41
IHOP,160 Washington St,,Rochester,NH,03839,,43.29303741,-70.99692535,2022-12-18 07:39:41
IHOP,2028 Woodbury Ave,,Newington,NH,03801,,43.09558105,-70.79691315,2022-12-18 07:39:41
IHOP,2 Traders Way,,Salem,MA,01970,,42.50231934,-70.9240036,2022-12-18 07:39:41
IHOP,105 Squire Rd,,Revere,MA,02151,,42.42303085,-71.0079422,2022-12-18 07:39:41
IHOP,515 Main St,,Saco,ME,04072,,43.50910187,-70.43440247,2022-12-18 07:39:41
IHOP,195 Maine Mall Rd,,Portland,ME,04106,,43.63978958,-70.33470154,2022-12-18 07:39:41
IHOP,649 Turner St,,Auburn,ME,04210,,44.11869812,-70.23190308,2022-12-18 07:39:41
IHOP,110 Community Dr,,Augusta,ME,04330,,44.34388733,-69.79606628,2022-12-18 07:39:41
IHOP,155 Dorset St,,South Burlington,VT,05403,,44.46569061,-73.18315125,2022-12-18 07:39:41
IHOP,640 Riverdale St,,West Springfield,MA,01089,,42.12319946,-72.626297,2022-12-18 07:39:41
IHOP,270 Cooley St,,Springfield,MA,01128,,42.09460068,-72.50109863,2022-12-18 07:39:41
IHOP,611 Plank Rd,,Clifton Park,NY,12065,,42.86354828,-73.77767944,2022-12-18 07:39:41
IHOP,16 Wolf Rd,,Albany,NY,12205,,42.71025085,-73.82068634,2022-12-18 07:39:41
IHOP,339 Cottage Grove Rd,,Bloomfield,CT,06002,,41.81719971,-72.71395874,2022-12-18 07:39:41
IHOP,885 Queen St,,Southington,CT,06489,,41.64060593,-72.87339783,2022-12-18 07:39:41
IHOP,495 Union St,,Waterbury,CT,06706,,41.54954147,-73.02603149,2022-12-18 07:39:41
IHOP,2400 Dixwell Ave,,Hamden,CT,06514,,41.3763504,-72.9160614,2022-12-18 07:39:41
IHOP,486 Boston Post Rd,,Orange,CT,06477,,41.25568008,-73.014328,2022-12-18 07:39:41
IHOP,513 Patchogue Rd,,Port Jefferson Station,NY,11776,,40.92996979,-73.051651,2022-12-18 07:39:41
IHOP,2410 Summer St,,Stamford,CT,06905,,41.06777954,-73.54762268,2022-12-18 07:39:41
IHOP,339 Portion Rd,,Ronkonkoma,NY,11779,,40.82841873,-73.09927368,2022-12-18 07:39:41
IHOP,2159 Jericho Turnpike,,Commack,NY,11725,,40.84344864,-73.28468323,2022-12-18 07:39:41
IHOP,666 Motor Pkwy,,Hauppauge,NY,11788,,40.80743027,-73.24237823,2022-12-18 07:39:41
IHOP,259B Old Walt Whitman Rd,,Huntington Station,NY,11746,,40.81903839,-73.41268921,2022-12-18 07:39:41
IHOP,2550 South Rd,,Poughkeepsie,NY,12601,,41.66312027,-73.92941284,2022-12-18 07:39:41
IHOP,1745 E Main St,,Mohegan Lake,NY,10547,,41.32284546,-73.85337067,2022-12-18 07:39:41
IHOP,28 S. Central Ave,,Hartsdale,NY,10530,,41.01813126,-73.79853821,2022-12-18 07:39:41
IHOP,44 Route 17K,,Newburgh,NY,12550,,41.50350952,-74.05724335,2022-12-18 07:39:41
IHOP,2620 Central Park Ave,,Yonkers,NY,10710,,40.9834404,-73.82743835,2022-12-18 07:39:41
IHOP,1375 Boston Post Rd,,Larchmont,NY,10538,,40.9342308,-73.74790955,2022-12-18 07:39:41
IHOP,4340 Boston Post Rd,,Bronx,NY,10475,,40.8899498,-73.81941986,2022-12-18 07:39:41
IHOP,1586 Northern Blvd,,Manhasset,NY,11030,,40.79386902,-73.68789673,2022-12-18 07:39:41
IHOP,100 West Old Country Rd,,Hicksville,NY,11801,,40.76350021,-73.52300262,2022-12-18 07:39:41
IHOP,533 Old Country Rd,,Westbury,NY,11590,,40.75556183,-73.58805847,2022-12-18 07:39:41
IHOP,145 Hillside Ave,,Williston Park,NY,11596,,40.75597,-73.64523315,2022-12-18 07:39:41
IHOP,817 Allerton Ave,,Bronx,NY,10467,,40.86568069,-73.86267853,2022-12-18 07:39:41
IHOP,360 US Hwy 46,,Totowa,NJ,07512,,40.89345169,-74.23206329,2022-12-18 07:39:41
IHOP,792 Route 46,,Parsippany,NJ,07054,,40.8635025,-74.37446594,2022-12-18 07:39:41
IHOP,1129 Broad St,,Bloomfield,NJ,07003,,40.8295784,-74.18504333,2022-12-18 07:39:41
IHOP,301 Main St,,Paterson,NJ,07505,,40.91502762,-74.17211914,2022-12-18 07:39:41
IHOP,542 Bloomfield Ave,,Bloomfield,NJ,07003,,40.7922287,-74.19725037,2022-12-18 07:39:41
IHOP,680 Route 3,,Clifton,NJ,07012,,40.83549881,-74.14956665,2022-12-18 07:39:41
IHOP,102 E. Hanover Ave,,Cedar Knolls,NJ,07927,,40.80830002,-74.46209717,2022-12-18 07:39:41
IHOP,109 Bergen St,,Newark,NJ,07103,,40.74174118,-74.19225311,2022-12-18 07:39:41
IHOP,37-13 Broadway,,Fair Lawn,NJ,07410,,40.9262085,-74.09927368,2022-12-18 07:39:41
IHOP,1212 Springfield Ave,,Irvington,NJ,07111,,40.72509003,-74.23912811,2022-12-18 07:39:41
IHOP,111 Route 17 South,,Hasbrouck Heights,NJ,07604,,40.85276031,-74.0736618,2022-12-18 07:39:41
IHOP,915 Broad St.,,Newark,NJ,07102,,40.73220062,-74.17430115,2022-12-18 07:39:41
IHOP,3196A Kennedy Blvd,,Union City,NJ,07087,,40.77468872,-74.03321838,2022-12-18 07:39:41
IHOP,610 Cedar Lane,,Teaneck,NJ,07666,,40.89057159,-74.02707672,2022-12-18 07:39:41
IHOP,700 Route 440,c/o IHOP #4686,Jersey City,NJ,07304,,40.72286987,-74.09072876,2022-12-18 07:39:41
IHOP,4168 Broadway,,Manhattan,NY,10033,,40.84733582,-73.93766785,2022-12-18 07:39:41
IHOP,243-247 East 149th Street,,Bronx,NY,10451,,40.81769943,-73.92320251,2022-12-18 07:39:41
IHOP,961 East 174th St,,Bronx,NY,10460,,40.83707809,-73.88478851,2022-12-18 07:39:41
IHOP,141 N Dean St,,Englewood,NJ,07631,,40.8980484,-73.97142792,2022-12-18 07:39:41
IHOP,2161 31st St,,Astoria,NY,11105,,40.77640152,-73.90989685,2022-12-18 07:39:41
IHOP,5645 Broadway,,Bronx,NY,10463,,40.88045883,-73.9041214,2022-12-18 07:39:41
IHOP,110 East 23rd Street,,New York,NY,10010,,40.73989105,-73.98595428,2022-12-18 07:39:41
IHOP,1001 White Plains Rd,,Bronx,NY,10472,,40.82648468,-73.86019897,2022-12-18 07:39:41
IHOP,465 N. Broad St,,Elizabeth,NJ,07208,,40.67338943,-74.21302032,2022-12-18 07:39:41
IHOP,650-672 Kapowski Rd,,Elizabeth,NJ,07201,,40.66299057,-74.17500305,2022-12-18 07:39:41
IHOP,935 Richmond Ave,,Staten Island,NY,10314,,40.62435913,-74.14833832,2022-12-18 07:39:41
IHOP,2500 Route 22 E,,Union,NJ,07083,,40.68914032,-74.30471039,2022-12-18 07:39:41
IHOP,50 Parsonage Rd,,Edison,NJ,08837,,40.5483017,-74.33319855,2022-12-18 07:39:41
IHOP,1120 US Hwy 22,,N. Plainfield,NJ,07060,,40.61553955,-74.45398712,2022-12-18 07:39:41
IHOP,1340 Centennial Ave,,Piscataway,NJ,08854,,40.55109024,-74.4379425,2022-12-18 07:39:41
IHOP,235 E 14th St # 237,,New York,NY,10003,,40.73278046,-73.98557281,2022-12-18 07:39:41
IHOP,253 Livingston St,,Brooklyn,NY,11201,,40.68849945,-73.98355865,2022-12-18 07:39:41
IHOP,810 US Hwy 46,,Kenvil,NJ,07847,,40.87891006,-74.63491821,2022-12-18 07:39:41
IHOP,900 Easton Ave,,Somerset,NJ,08873,,40.51168823,-74.48473358,2022-12-18 07:39:41
IHOP,1431 US Route 1,,North Brunswick,NJ,08902,,40.45819855,-74.47489929,2022-12-18 07:39:41
IHOP,260 Route 206,,Hillsborough,NJ,08844,,40.52236938,-74.6293869,2022-12-18 07:39:41
IHOP,766 Route 18 North,,East Brunswick,NJ,08816,,40.42430115,-74.37867737,2022-12-18 07:39:41
IHOP,3077 State Hwy Route 27,,Franklin Park,NJ,08823,,40.43769836,-74.53832245,2022-12-18 07:39:41
IHOP,785 Flushing Ave,,Brooklyn,NY,11206,,40.70090103,-73.94120789,2022-12-18 07:39:41
IHOP,2244 Church Ave,,Brooklyn,NY,11226,,40.65035629,-73.95811462,2022-12-18 07:39:41
IHOP,475 Route 17 South,,Ramsey,NJ,07446,,41.05558014,-74.12104797,2022-12-18 07:39:41
IHOP,40 Spring Valley Market Place,,Spring Valley,NY,10977,,41.10528183,-74.02535248,2022-12-18 07:39:41
IHOP,2200 State Route 66,,Neptune,NJ,07753,,40.22589874,-74.04296875,2022-12-18 07:39:41
IHOP,2027 Route 35,,Wall Township,NJ,07719,,40.1493988,-74.05780029,2022-12-18 07:39:41
IHOP,4731 Route 9,,Howell,NJ,07731,,40.13568497,-74.22424316,2022-12-18 07:39:41
IHOP,1759 Route 88,,Brick,NJ,08724,,40.06914139,-74.13191223,2022-12-18 07:39:41
IHOP,106 State Route 36,,Keyport,NJ,07735,,40.4256897,-74.19895172,2022-12-18 07:39:41
IHOP,12 US Hwy 9,,Morganville,NJ,07751,,40.36233902,-74.30396271,2022-12-18 07:39:41
IHOP,178 Route 37 East,,Toms River,NJ,08753,,39.96350861,-74.18576813,2022-12-18 07:39:41
IHOP,941 Route 37 West #6,,Toms River,NJ,08755,,39.97285843,-74.24236298,2022-12-18 07:39:41
IHOP,1019 Surf Ave,,Brooklyn,NY,11224,,40.57571411,-73.97882843,2022-12-18 07:39:41
IHOP,610 Route 33,,East Windsor,NJ,08520,,40.26729965,-74.49279785,2022-12-18 07:39:41
IHOP,787 Route 33,,Hamilton,NJ,08619,,40.22970963,-74.67624664,2022-12-18 07:39:41
IHOP,2101 Ralph Ave,,Brooklyn,NY,11234,,40.62625122,-73.91757965,2022-12-18 07:39:41
IHOP,200 Mountain Ave,,Hackettstown,NJ,07840,,40.84138107,-74.8241806,2022-12-18 07:39:41
IHOP,1313 US Highway 22 W,,Phillipsburg,NJ,08865,,40.67470169,-75.13929749,2022-12-18 07:39:41
IHOP,1602 Church Rd,,Cherry Hill,NJ,08002,,39.94388962,-75.02082062,2022-12-18 07:39:41
IHOP,3400 Aramingo Ave,,Philadelphia,PA,19134,,39.99217987,-75.0999527,2022-12-18 07:39:41
IHOP,3 Snyder Ave,,Philadelphia,PA,19148,,39.92134094,-75.1451416,2022-12-18 07:39:41
IHOP,1320 Walnut St,,Philadelphia,PA,19107,,39.94910812,-75.16309357,2022-12-18 07:39:41
IHOP,4310 Roosevelt Blvd,,Philadelphia,PA,19124,,40.03036118,-75.10488129,2022-12-18 07:39:41
IHOP,285 Route 73 North,,W. Berlin,NJ,08091,,39.80884171,-74.93041992,2022-12-18 07:39:41
IHOP,10740 Roosevelt Blvd,,Philadelphia,PA,19116,,40.09962082,-75.01003265,2022-12-18 07:39:41
IHOP,101 S 69th St,,Upper Darby,PA,19082,,39.95872879,-75.2578125,2022-12-18 07:39:41
IHOP,2703 Mount Holly Rd,,Burlington,NJ,08016,,40.03416824,-74.82331848,2022-12-18 07:39:41
IHOP,481 Old York Rd,,Jenkintown,PA,19046,,40.09851074,-75.12624359,2022-12-18 07:39:41
IHOP,334 Berlin Cross Keys Rd,,Williamstown,NJ,08094,,39.72164154,-75.02021027,2022-12-18 07:39:41
IHOP,130 W Lancaster Ave,,Ardmore,PA,19003,,40.00914001,-75.2940979,2022-12-18 07:39:41
IHOP,2216 W. Landis Ave,,Vineland,NJ,08360,,39.48905945,-75.06798553,2022-12-18 07:39:41
IHOP,110 Lincoln Hwy,Oxford Point Shopping Center,Fairless Hills,PA,19030,,40.18066025,-74.86750793,2022-12-18 07:39:41
IHOP,785 Pkwy Ave,,Ewing,NJ,08618,,40.25170135,-74.78967285,2022-12-18 07:39:41
IHOP,150 Easton Rd,,Warrington,PA,18976,,40.21585846,-75.14012146,2022-12-18 07:39:41
IHOP,297 Route 72 W,,Manahawkin,NJ,08050,,39.69919968,-74.26892853,2022-12-18 07:39:41
IHOP,4618 Black Horse Pike,,Mays Landing,NJ,08330,,39.45338821,-74.65164185,2022-12-18 07:39:41
IHOP,2001 Concord Pike,,Wilmington,DE,19803,,39.78813934,-75.54554749,2022-12-18 07:39:41
IHOP,200 Town Centre Dr,Suite 21,Glen Mills,PA,19342,,39.88358688,-75.52777863,2022-12-18 07:39:41
IHOP,21 S Little Creek Rd,,Dover,DE,19901,,39.15766907,-75.50859833,2022-12-18 07:39:41
IHOP,36670 Bayside Outlet Dr,,Rehoboth Beach,DE,19971,,38.71641159,-75.11131287,2022-12-18 07:39:41
IHOP,148 N Dupont Hwy,,New Castle,DE,19720,,39.67242813,-75.59706116,2022-12-18 07:39:41
IHOP,240 Foxhunt Dr,,Bear,DE,19701,,39.60816956,-75.7104187,2022-12-18 07:39:41
IHOP,2644 Kirkwood Hwy,,Newark,DE,19711,,39.70649338,-75.68424225,2022-12-18 07:39:41
IHOP,1511 Lehigh St,,Allentown,PA,18103,,40.57965851,-75.47998047,2022-12-18 07:39:41
IHOP,1720 Dekalb Pike,,Blue Bell,PA,19422,,40.15050888,-75.30584717,2022-12-18 07:39:41
IHOP,11000 Flatlands Ave,,Brooklyn,NY,11207,,40.65021896,-73.89012909,2022-12-18 07:39:41
IHOP,15517 Northern Blvd,,Flushing,NY,11354,,40.76440811,-73.80928802,2022-12-18 07:39:41
IHOP,21133 26th Ave,,Bayside,NY,11360,,40.77870178,-73.77880096,2022-12-18 07:39:41
IHOP,290 Larkin Dr,,Monroe,NY,10950,,41.31780624,-74.14434052,2022-12-18 07:39:41
IHOP,155 Dolson Ave,,Middletown,NY,10940,,41.42905045,-74.42507935,2022-12-18 07:39:41
IHOP,180 E Sunrise Hwy.,,Valley Stream,NY,11581,,40.65764999,-73.69168854,2022-12-18 07:39:41
IHOP,17019 Hillside Ave,,Jamaica,NY,11432,,40.71154022,-73.79148102,2022-12-18 07:39:41
IHOP,25402 Rockaway Blvd,,Rosedale,NY,11422,,40.63536072,-73.74040222,2022-12-18 07:39:41
IHOP,2971 Long Beach Rd,,Oceanside,NY,11572,,40.63851166,-73.63961029,2022-12-18 07:39:41
IHOP,133 B West Sunrise Hwy,,Freeport,NY,11520,,40.65610123,-73.587883,2022-12-18 07:39:41
IHOP,9801 Liberty Ave,,Ozone Park,NY,11417,,40.68132019,-73.84127045,2022-12-18 07:39:41
IHOP,2935 Hempstead Turnpike,,Levittown,NY,11756,,40.72476959,-73.52882385,2022-12-18 07:39:41
IHOP,201 Airport Plaza Blvd,,Farmingdale,NY,11735-3934,,40.73820114,-73.41799927,2022-12-18 07:39:41
IHOP,25 West Sunrise Hwy,,Lindenhurst,NY,11757,,40.69657898,-73.38513947,2022-12-18 07:39:41
IHOP,1701 Sunrise Hwy,1701 Sunrise Highway,Bay Shore,NY,11706,,40.73912811,-73.24704742,2022-12-18 07:39:41
IHOP,651 Montauk Hwy,,Babylon,NY,11704,,40.68627167,-73.34568024,2022-12-18 07:39:41
IHOP,133 Twin Rocks Rd.,,Lake Ariel,PA,18436,,41.35779953,-75.37680054,2022-12-18 07:39:41
IHOP,980 Hospitality Way,,Aberdeen,MD,21001,,39.52521515,-76.18741608,2022-12-18 07:39:41
IHOP,2319 Lincoln Hwy E,,Lancaster,PA,17602,,40.02666092,-76.21014404,2022-12-18 07:39:41
IHOP,2701 N Meridian Blvd,,Wyomissing,PA,19610,,40.3547287,-75.98074341,2022-12-18 07:39:41
IHOP,22812 Sussex Hwy,,Seaford,DE,19973,,38.66416931,-75.59410095,2022-12-18 07:39:41
IHOP,2732 N Salisbury Blvd,North Point Plaza,Salisbury,MD,21801,,38.41912842,-75.56577301,2022-12-18 07:39:41
IHOP,300 Abruzzi Dr,,Chester,MD,21619,,38.97312546,-76.26486969,2022-12-18 07:39:41
IHOP,535 French Rd,,New Hartford,NY,13413,,43.08766174,-75.28034973,2022-12-18 07:39:41
IHOP,4211 Route 31,,Clay,NY,13041,,43.18640137,-76.22170258,2022-12-18 07:39:41
IHOP,3720 Vestal Pkwy East,,Vestal,NY,13850,,42.09601974,-75.98243713,2022-12-18 07:39:41
IHOP,1290 Arsenal St,,Watertown,NY,13601,,43.97727966,-75.94741821,2022-12-18 07:39:41
IHOP,2190 N. Goodman St,Irondequoit Mall,Rochester,NY,14609,,43.19709015,-77.57618713,2022-12-18 07:39:41
IHOP,50 Thruway Plaza Dr,,Cheektowaga,NY,14225,,42.90642166,-78.78003693,2022-12-18 07:39:41
IHOP,4003 Maple Rd,,Amherst,NY,14226,,42.99045944,-78.8131485,2022-12-18 07:39:41
IHOP,770 Kidder St,,Wilkes-Barre,PA,18702,,41.25059509,-75.84311676,2022-12-18 07:39:41
IHOP,2550 State Route 534,,White Haven,PA,18661,,41.05541992,-75.77156067,2022-12-18 07:39:41
IHOP,4955 Clifton Hill,3rd Floor,Niagara Falls,ON,L2G 3N5,,43.09175873,-79.07506561,2022-12-18 07:39:41
IHOP,6732 Fallsview Boulevard,,Niagara Falls,ON,L2G 3W6,,43.07882309,-79.08189392,2022-12-18 07:39:41
IHOP,6455 Fallsview Blvd.,Four Points by Sheraton Niagara Falls,Niagara Falls,ON,L2G 3V9,,43.08190536,-79.08289337,2022-12-18 07:39:41
IHOP,6141 Fallsview BLVD,,Niagara Falls,ON,L2G 3V7,,43.08585739,-79.08332825,2022-12-18 07:39:41
IHOP,7514 Lundy's Lane,,Niagara Falls,ON,L2H 1G8,,43.08875656,-79.12223053,2022-12-18 07:39:41
IHOP,8040 Peach St,,Erie,PA,16509,,42.04814911,-80.08101654,2022-12-18 07:39:41
IHOP,833 Boardman Poland Rd,,Boardman,OH,44512,,41.02383041,-80.63820648,2022-12-18 07:39:41
IHOP,1661 S. Atherton St,,State College,PA,16801,,40.78565598,-77.83478546,2022-12-18 07:39:41
IHOP,33 Stop Plaza Drive,,Mifflintown,PA,17059,,40.5788002,-77.375,2022-12-18 07:39:41
IHOP,1002 Sutherland Dr,,Pittsburgh,PA,15205,,40.4565506,-80.16927338,2022-12-18 07:39:41
IHOP,4656 Browns Hill Rd,,Pittsburgh,PA,15217,,40.41498184,-79.92347717,2022-12-18 07:39:41
IHOP,5159 Route 30,,Greensburg,PA,15601,,40.30327988,-79.49855042,2022-12-18 07:39:41
IHOP,702 Walmart Dr,,Uniontown,PA,15401,,39.91463089,-79.75382996,2022-12-18 07:39:41
IHOP,4760 Portage St Nw,,North Canton,OH,44720,,40.87945175,-81.43612671,2022-12-18 07:39:41
IHOP,475 Oakland St,,Morgantown,WV,26505,,39.65077209,-79.96205902,2022-12-18 07:39:41
IHOP,201 Venture Dr,,Morgantown,WV,26508,,39.64931107,-79.90042114,2022-12-18 07:39:41
IHOP,22 Massillon Marketplace Dr SW,,Massillon,OH,44646,,40.76736832,-81.52131653,2022-12-18 07:39:41
IHOP,2877 S Arlington Rd,,Akron,OH,44312,,40.99309158,-81.49176025,2022-12-18 07:39:41
IHOP,2815 Chestnut Ridge Rd,,Grantsville,MD,21536,,39.69153214,-79.10340881,2022-12-18 07:39:41
IHOP,22707 Rockside Rd,22707 Rockside Road,Bedford,OH,44146,,41.40816116,-81.52536774,2022-12-18 07:39:41
IHOP,3511 Steelyard Dr,,Cleveland,OH,44109,,41.45914078,-81.69049835,2022-12-18 07:39:41
IHOP,185 White Oaks Blvd,,Bridgeport,WV,26330,,39.33319855,-80.23513794,2022-12-18 07:39:41
IHOP,103 Crooked Run Lane,,Marietta,OH,45750,,39.40555573,-81.41215515,2022-12-18 07:39:41
IHOP,180 Crock Wells Mill Dr,,Winchester,VA,22603,,39.1918602,-78.2066803,2022-12-18 07:39:41
IHOP,170 Front Royal Pike,,Winchester,VA,22602,,39.1594696,-78.157341,2022-12-18 07:39:41
IHOP,17820 Garland Groh Blvd,,Hagerstown,MD,21740,,39.6554184,-77.75012207,2022-12-18 07:39:41
IHOP,134 Jefferson Crossing Way,,Charles Town,WV,25414,,39.3006897,-77.84322357,2022-12-18 07:39:41
IHOP,5277 Buckeystown Pike,,Frederick,MD,21704,,39.37649918,-77.41282654,2022-12-18 07:39:41
IHOP,135 Crooked Run Plaza,,Front Royal,VA,22630,,38.99615479,-78.19210815,2022-12-18 07:39:41
IHOP,980 Edwards Ferry Rd NE,,Leesburg,VA,20176,,39.11499023,-77.53885651,2022-12-18 07:39:41
IHOP,4002 Union Deposit Rd,,Harrisburg,PA,17109,,40.27909088,-76.8210144,2022-12-18 07:39:41
IHOP,10810 Brookpark Rd,,Cleveland,OH,44130,,41.41886139,-81.76074219,2022-12-18 07:39:41
IHOP,17887 Bagley Rd,,Middleburg Heights,OH,44130,,41.37120056,-81.8259964,2022-12-18 07:39:41
IHOP,108 Pauline Dr,,York,PA,17402,,39.93121719,-76.68671417,2022-12-18 07:39:41
IHOP,490 Meadow Creek Dr,,Westminster,MD,21158,,39.58972931,-77.01094818,2022-12-18 07:39:41
IHOP,2421 Osprey Way,,Frederick,MD,21701,,39.40715027,-77.10445404,2022-12-18 07:39:41
IHOP,1001 Twin Arch Rd,,Mount Airy,MD,21771,,39.36767197,-77.14492035,2022-12-18 07:39:41
IHOP,10001 York Rd,,Cockeysville,MD,21030,,39.46371078,-76.63575745,2022-12-18 07:39:41
IHOP,10917 Blvd Circle,Suite 110,Owings Mills,MD,21117,,39.42498398,-76.77913666,2022-12-18 07:39:41
IHOP,1316 Londontown Blvd,,Eldersburg,MD,21784,,39.4095993,-76.94950104,2022-12-18 07:39:41
IHOP,593 Baltimore Pike,,Bel Air,MD,21014,,39.52698517,-76.35334778,2022-12-18 07:39:41
IHOP,471 John Young Way,,Exton,PA,19341,,40.02349091,-75.65035248,2022-12-18 07:39:41
IHOP,1804 Pulaski Hwy,,Edgewood,MD,21040,,39.43497849,-76.31976318,2022-12-18 07:39:41
IHOP,20009 Century Blvd,,Germantown,MD,20874,,39.18302155,-77.25982666,2022-12-18 07:39:41
IHOP,206 N Frederick Ave,,Gaithersburg,MD,20877,,39.14432907,-77.20253754,2022-12-18 07:39:41
IHOP,8696 Liberty Rd,,Randallstown,MD,21133,,39.36296082,-76.78182983,2022-12-18 07:39:41
IHOP,6820 Loch Raven Blvd,,Towson,MD,21286,,39.38401031,-76.57791901,2022-12-18 07:39:41
IHOP,5525A Baltimore National Pike,,Catonsville,MD,21228,,39.28929901,-76.72309875,2022-12-18 07:39:41
IHOP,7925 Belair Rd,,Nottingham,MD,21236,,39.37358856,-76.5091095,2022-12-18 07:39:41
IHOP,11328 Samuel Bowen Blvd Bldg F,Building F,Berlin,MD,21811,,38.34315109,-75.16344452,2022-12-18 07:39:41
IHOP,680 Prince Frederick Blvd,,Prince Frederick,MD,20678,,38.55208969,-76.59555054,2022-12-18 07:39:41
IHOP,45138 First Colony Blvd,,California,MD,20619,,38.29930115,-76.51380157,2022-12-18 07:39:41
IHOP,7 Lee Airpark Dr,,Edgewater,MD,21037,,38.94453049,-76.56223297,2022-12-18 07:39:41
IHOP,8112 Ritchie Hwy,,Pasadena,MD,21122,,39.12421417,-76.58906555,2022-12-18 07:39:41
IHOP,16451 Excalibur Road,,Bowie,MD,20716,,38.93450165,-76.71929932,2022-12-18 07:39:41
IHOP,889 Md Route 3 N,,Gambrills,MD,21054,,39.03934097,-76.67318726,2022-12-18 07:39:41
IHOP,3100 14th St NW,,Washington,DC,20010,,38.92882156,-77.03363037,2022-12-18 07:39:41
IHOP,3601 Bladensburg Rd,,Colmar Manor,MD,20722,,38.93416977,-76.95185089,2022-12-18 07:39:41
IHOP,1523 Alabama Ave SE,,Washington,DC,20032,,38.84606934,-76.98265076,2022-12-18 07:39:41
IHOP,935 N Stafford St,,Arlington,VA,22203,,38.88209152,-77.1100769,2022-12-18 07:39:41
IHOP,3425-A Jefferson Davis Hwy,,Alexandria,VA,22305,,38.83597946,-77.05072021,2022-12-18 07:39:41
IHOP,7405 New Hampshire Ave,,Takoma Park,MD,20912,,38.98405838,-76.98784637,2022-12-18 07:39:41
IHOP,4400 St. Barnabas Rd,,Marlow Heights,MD,20748,,38.82938004,-76.94194794,2022-12-18 07:39:41
IHOP,6171 Oxon Hill Rd,,Oxon Hill,MD,20745,,38.80456543,-76.98274231,2022-12-18 07:39:41
IHOP,2990 Donnell Dr,,Forestville,MD,20747,,38.84737015,-76.88472748,2022-12-18 07:39:41
IHOP,9680 Baltimore Ave,,College Park,MD,20740,,39.01419067,-76.92826843,2022-12-18 07:39:41
IHOP,8500 Annapolis Rd,,New Carrollton,MD,20784,,38.95890045,-76.86843872,2022-12-18 07:39:41
IHOP,6655 Arlington Blvd,,Falls Church,VA,22042,,38.86930847,-77.17379761,2022-12-18 07:39:41
IHOP,9003 Central Ave,,Capitol Heights,MD,20743,,38.89044952,-76.84971619,2022-12-18 07:39:41
IHOP,2526 University Blvd W,,Wheaton,MD,20902,,39.04085159,-77.0528183,2022-12-18 07:39:41
IHOP,6254 Duke St,,Alexandria,VA,22312,,38.81681824,-77.14116669,2022-12-18 07:39:41
IHOP,12251 Tech Rd,,Silver Spring,MD,20904,,39.05630112,-76.96645355,2022-12-18 07:39:41
IHOP,7405 Greenbelt Rd,,Greenbelt,MD,20770,,38.99377441,-76.87979889,2022-12-18 07:39:41
IHOP,775 Rockville Pike,,Rockville,MD,20852,,39.07754898,-77.14105225,2022-12-18 07:39:41
IHOP,8300 Sudley Rd,,Manassas,VA,20109,,38.77312088,-77.50496674,2022-12-18 07:39:41
IHOP,7495 Iron Bar Lane,,Gainesville,VA,20155,,38.79571152,-77.61052704,2022-12-18 07:39:41
IHOP,8785 Centreville Rd,,Manassas,VA,20110,,38.76422119,-77.45754242,2022-12-18 07:39:41
IHOP,13810 Braddock Rd,Unit D,Centreville,VA,20121,,38.83839035,-77.42775726,2022-12-18 07:39:41
IHOP,13804 Metrotech Dr,,Chantilly,VA,20151,,38.89271164,-77.42523956,2022-12-18 07:39:41
IHOP,24290 Liberty Harvest Court,,Sterling,VA,20166,,38.93257141,-77.5229187,2022-12-18 07:39:41
IHOP,12901 Galveston Court,,Manassas,VA,20112,,38.67935944,-77.36434174,2022-12-18 07:39:41
IHOP,6445 Lee Hwy,,Warrenton,VA,20187,,38.733181,-77.77176666,2022-12-18 07:39:41
IHOP,6419 Shiplett Blvd,,Burke,VA,22015,,38.77687454,-77.26585388,2022-12-18 07:39:41
IHOP,494 Elden Street,Suite 8,Herndon,VA,20170,,38.96910095,-77.37689972,2022-12-18 07:39:41
IHOP,9490 Blake Lane,,Fairfax,VA,22031,,38.86745834,-77.27205658,2022-12-18 07:39:41
IHOP,13718 Smoketown Rd,,Woodbridge,VA,22192,,38.65390015,-77.30606842,2022-12-18 07:39:41
IHOP,3914 Fettler Park Dr,,Dumfries,VA,22025,,38.58182144,-77.33088684,2022-12-18 07:39:41
IHOP,44030 Pipeline Plaza,,Ashburn,VA,20147,,39.02216339,-77.47857666,2022-12-18 07:39:41
IHOP,46931 Cedar Lake Plaza,,Sterling,VA,20164,,39.0175705,-77.37596893,2022-12-18 07:39:41
IHOP,15271 Creativity Dr,,Culpeper,VA,22701,,38.48427963,-77.96846771,2022-12-18 07:39:41
IHOP,320 Worth Ave,,Stafford,VA,22556,,38.47525024,-77.41764832,2022-12-18 07:39:41
IHOP,2190 Crain Hwy,,Waldorf,MD,20601,,38.65085983,-76.8822937,2022-12-18 07:39:41
IHOP,116 Rosewick Rd,,La Plata,MD,20646,,38.55609894,-76.98409271,2022-12-18 07:39:41
IHOP,8905 Woodyard Rd,,Clinton,MD,20735,,38.76874924,-76.8864975,2022-12-18 07:39:41
IHOP,7694 Richmond Hwy,,Alexandria,VA,22306,,38.74980927,-77.08406067,2022-12-18 07:39:41
IHOP,6206 Interparcel Rd,,Springfield,VA,22315,,38.76382065,-77.15305328,2022-12-18 07:39:41
IHOP,7784 Gunston Plz,,Lorton,VA,22079,,38.70344162,-77.20858002,2022-12-18 07:39:41
IHOP,16361 Gateway Lane,,King George,VA,22485,,38.34978104,-77.05780792,2022-12-18 07:39:41
IHOP,15470 Annapolis Rd,,Bowie,MD,20715,,38.97998047,-76.73503113,2022-12-18 07:39:41
IHOP,15004 Baltimore Ave,,Laurel,MD,20707,,39.09643936,-76.85086823,2022-12-18 07:39:41
IHOP,7371 Assateague Dr,,Jessup,MD,20794,,39.16878128,-76.78494263,2022-12-18 07:39:41
IHOP,8825 Centre Park Dr,,Columbia,MD,21045,,39.22769928,-76.81559753,2022-12-18 07:39:41
IHOP,7146 Ritchie Hwy,,Glen Burnie,MD,21061,,39.17812729,-76.61642456,2022-12-18 07:39:41
IHOP,18147 Village Center Dr,,Olney,MD,20832,,39.1534996,-77.06330109,2022-12-18 07:39:41
IHOP,8620 Pulaski Hwy,,Rosedale,MD,21237,,39.33400345,-76.48677826,2022-12-18 07:39:41
IHOP,1557 Merritt Blvd,,Dundalk,MD,21222,,39.27363968,-76.50245667,2022-12-18 07:39:41
IHOP,600 E. Pratt St,,Baltimore,MD,21202,,39.28699875,-76.60710144,2022-12-18 07:39:41
IHOP,3531 Washington Blvd,,Halethorpe,MD,21227,,39.25040054,-76.66850281,2022-12-18 07:39:41
IHOP,109 University Blvd,,Harrisonburg,VA,22801,,38.43024826,-78.84716034,2022-12-18 07:39:41
IHOP,5518 George Washington Memorial Hwy,,Yorktown,VA,23692,,37.16168976,-76.46328735,2022-12-18 07:39:41
IHOP,747 E Rochambeau Dr,,Williamsburg,VA,23188,,37.3451004,-76.74021912,2022-12-18 07:39:41
IHOP,10 Simpson Lane,,Fredericksburg,VA,22406,,38.34214401,-77.4960556,2022-12-18 07:39:41
IHOP,2831 Plank Rd,,Fredericksburg,VA,22401,,38.29700851,-77.5092926,2022-12-18 07:39:41
IHOP,15447 Warwick Blvd,,Newport News,VA,23608,,37.15245819,-76.55506897,2022-12-18 07:39:41
IHOP,11745 Jefferson Ave,,Newport News,VA,23606,,37.08208847,-76.48036957,2022-12-18 07:39:41
IHOP,1002 W Mercury Blvd,,Hampton,VA,23666,,37.04431915,-76.37779999,2022-12-18 07:39:41
IHOP,7401 Sandy Lane,,Mechanicsville,VA,23111,,37.6099205,-77.35579681,2022-12-18 07:39:41
IHOP,4840 S. Laburnum Ave,,Richmond,VA,23231,,37.51848984,-77.35102844,2022-12-18 07:39:41
IHOP,6200 College Dr,,Suffolk,VA,23435,,36.87778091,-76.42333221,2022-12-18 06:25:07
IHOP,114 E 21st St,,Norfolk,VA,23517,,36.86763,-76.28462982,2022-12-18 06:25:07
IHOP,137 Wood Ridge Terrace,,Zion Crossroads,VA,22942,,37.97953033,-78.21408081,2022-12-18 07:39:41
IHOP,1740 Rio Hill Center,,Charlottesville,VA,22901,,38.08620071,-78.47193146,2022-12-18 07:39:41
IHOP,9820 W Broad St,,Glen Allen,VA,23060,,37.64321136,-77.56542206,2022-12-18 07:39:41
IHOP,1601 Willow Lawn Dr,,Richmond,VA,23230,,37.5821991,-77.49729919,2022-12-18 07:39:41
IHOP,1101 Carmia Way,,Richmond,VA,23235,,37.50749969,-77.60240173,2022-12-18 07:39:41
IHOP,7714 Midlothian Turnpike,,Richmond,VA,23235,,37.49940109,-77.5390625,2022-12-18 07:39:41
IHOP,12321 Chattanooga Plaza,,Midlothian,VA,23112,,37.42908859,-77.62380219,2022-12-18 07:39:41
IHOP,12251 Bermuda Cross Rd Ln,,Chester,VA,23831,,37.35971069,-77.41565704,2022-12-18 07:39:41
IHOP,338 Southpark Circle,,Colonial Heights,VA,23834,,37.25501633,-77.39402771,2022-12-18 06:25:09
IHOP,2501 Taylor Rd,,Chesapeake,VA,23321,,36.82752991,-76.40950012,2022-12-18 06:25:07
IHOP,1210 N Main St,,Suffolk,VA,23434,,36.74869919,-76.58191681,2022-12-18 06:25:07
IHOP,1295 N Military Hwy,,Norfolk,VA,23502,,36.86795044,-76.2116394,2022-12-18 06:25:07
IHOP,4401 Virginia Beach Blvd,,Virginia Beach,VA,23462,,36.8427887,-76.12695312,2022-12-18 06:25:07
IHOP,1316 Fordham Dr,,Virginia Beach,VA,23464,,36.79959869,-76.17453766,2022-12-18 06:25:08
IHOP,2516 N. Lee Hwy,,Lexington,VA,24450,,37.83019257,-79.3769455,2022-12-18 07:39:41
IHOP,5500 Fort Ave,,Lynchburg,VA,24502,,37.37511063,-79.18679047,2022-12-18 07:39:41
IHOP,4764 Valley View Blvd NW,,Roanoke,VA,24012,,37.30260086,-79.9571991,2022-12-18 07:39:41
IHOP,3926 Franklin Rd SW,,Roanoke,VA,24014,,37.22914124,-79.96987152,2022-12-18 07:39:41
IHOP,65 Peppers Ferry Rd Nw,,Christiansburg,VA,24073,,37.1644783,-80.42475128,2022-12-18 07:39:41
IHOP,101 Teal Court,,Danville,VA,24541,,36.58845901,-79.43070984,2022-12-18 07:39:41
IHOP,641 Battlefield Blvd N,,Chesapeake,VA,23320,,36.74087143,-76.24227905,2022-12-18 06:25:08
IHOP,817 First Colonial Rd,,Virginia Beach,VA,23451,,36.85366821,-76.02372742,2022-12-18 06:25:08
IHOP,3300 Princess Anne Rd,,Virginia Beach,VA,23456,,36.77220154,-76.0845871,2022-12-18 06:25:08
IHOP,1540 General Booth Blvd,,Virginia Beach,VA,23454,,36.78768158,-75.99777985,2022-12-18 06:25:08
IHOP,1700 City Center Blvd,,Elizabeth City,NC,27909,,36.29756927,-76.25688934,2022-12-18 07:39:41
IHOP,790 N Wesleyan Blvd,,Rocky Mount,NC,27804,,35.96437836,-77.81941223,2022-12-18 06:25:09
IHOP,3010 Evans St,,Greenville,NC,27834,,35.58031845,-77.38143921,2022-12-18 06:25:11
IHOP,"3400 Martin Luther King, Jr. Blvd",,New Bern,NC,28562,,35.10023117,-77.09590912,2022-12-18 06:25:09
IHOP,1100 N. Berkeley Blvd,,Goldsboro,NC,27534,,35.38006973,-77.93273163,2022-12-18 07:39:41
IHOP,7471 Six Forks Rd,,Raleigh,NC,27615,,35.88191986,-78.64672089,2022-12-18 07:39:41
IHOP,6707 Knightdale Blvd,,Knightdale,NC,27545,,35.79742813,-78.50546265,2022-12-18 07:39:41
IHOP,3009 Capital Blvd,,Raleigh,NC,27604,,35.82102966,-78.59236908,2022-12-18 07:39:41
IHOP,1821 N Pointe Dr,,Durham,NC,27705,,36.02919006,-78.92179871,2022-12-18 07:39:41
IHOP,1450 US Hwy 70 W,,Garner,NC,27529,,35.72161865,-78.64206696,2022-12-18 07:39:41
IHOP,500 Buckhorn Road,,Mebane,NC,27302,,36.07720184,-79.22509766,2022-12-18 07:39:41
IHOP,1301 Kildaire Farm Rd,,Cary,NC,27511,,35.76137924,-78.7826767,2022-12-18 07:39:41
IHOP,1150 Beaver Creek Commons Dr,,Apex,NC,27502,,35.74657822,-78.87664032,2022-12-18 07:39:41
IHOP,900 Longpine Rd,,Burlington,NC,27215,,36.06610107,-79.4990387,2022-12-18 07:39:41
IHOP,7304 GB Alford Hwy,,HOLLY SPRINGS,NC,27540,,35.63490677,-78.82997131,2022-12-18 07:39:41
IHOP,2735 Ring Rd,,Greensboro,NC,27405,,36.11217117,-79.7543869,2022-12-18 07:39:41
IHOP,1609 Westover Terrace,,Greensboro,NC,27408,,36.09579849,-79.81809998,2022-12-18 07:39:41
IHOP,110 E Parris Ave,,High Point,NC,27262,,35.98450089,-80.0234375,2022-12-18 07:39:41
IHOP,1106 E Dixie Dr,,Asheboro,NC,27203,,35.6937294,-79.79503632,2022-12-18 07:39:41
IHOP,1417 North Bragg Boulevard,,SPRING LAKE,NC,28390,,35.18751907,-78.98459625,2022-12-18 07:39:41
IHOP,1920 Harper Rd,,Beckley,WV,25801,,37.7910614,-81.21127319,2022-12-18 07:39:41
IHOP,5985 University Pkwy,,Winston-Salem,NC,27105,,36.18888855,-80.27600861,2022-12-18 07:39:41
IHOP,1295 Silas Creek Pkwy,,Winston-Salem,NC,27127,,36.06639862,-80.25704193,2022-12-18 07:39:41
IHOP,6305 Allegacy Way,,Clemmons,NC,27012,,36.03900146,-80.38569641,2022-12-18 07:39:41
IHOP,6308 Maccorkle Ave SE,,Charleston,WV,25304,,38.3066597,-81.56257629,2022-12-18 07:39:41
IHOP,105 Faith Rd,,Salisbury,NC,28146,,35.65544128,-80.45968628,2022-12-18 07:39:41
IHOP,46 Rhl,,South Charleston,WV,25309,,38.33641052,-81.71327209,2022-12-18 07:39:41
IHOP,3179 Linden Dr,,Bristol,VA,24202,,36.63098145,-82.12216949,2022-12-18 07:39:41
IHOP,478 River Hwy,,Mooresville,NC,28117,,35.59487152,-80.86380768,2022-12-18 07:39:41
IHOP,2415 US Hwy 70 SE,,Hickory,NC,28602,,35.70236969,-81.2912674,2022-12-18 07:39:41
IHOP,800 Cloverleaf Plaza,,Kannapolis,NC,28083,,35.4503212,-80.60913086,2022-12-18 07:39:41
IHOP,3214 Peoples St,,Johnson City,TN,37604,,36.34955978,-82.39990234,2022-12-18 07:39:41
IHOP,1201 E Stone Dr,,Kingsport,TN,37660,,36.55113983,-82.52908325,2022-12-18 07:39:41
IHOP,5815 Highland Shoppes Dr,Suite 100,Charlotte,NC,28269,,35.3710556,-80.78340912,2022-12-18 07:39:41
IHOP,230 E Wt Harris Blvd,,Charlotte,NC,28262,,35.3041687,-80.75016785,2022-12-18 07:39:41
IHOP,10840 US 15-501 Highway.,Unit A,Southern Pines,NC,28387,,35.1631012,-79.42189789,2022-12-18 07:39:41
IHOP,9253 E. Independence Blvd,,Matthews,NC,28105,,35.13990021,-80.71710205,2022-12-18 07:39:41
IHOP,130 Mall Rd,,Barboursville,WV,25504,,38.42256165,-82.26273346,2022-12-18 07:39:41
IHOP,504 Cox Rd,,Gastonia,NC,28054,,35.26586151,-81.13287354,2022-12-18 07:39:41
IHOP,134 W Woodlawn Rd,,Charlotte,NC,28217,,35.17950058,-80.8841095,2022-12-18 07:39:41
IHOP,14001 W. Hwy 74,,Indian Trail,NC,28079,,35.08010101,-80.65589905,2022-12-18 07:39:41
IHOP,8146 S Tryon St,,Charlotte,NC,28273,,35.14387894,-80.93145752,2022-12-18 07:39:41
IHOP,9940 Pineville-Matthews Rd,,Pineville,NC,28134,,35.08549118,-80.88484192,2022-12-18 07:39:41
IHOP,195 Van Hill Rd,,Greeneville,TN,37745,,36.32567978,-82.8355484,2022-12-18 07:39:41
IHOP,472 Crockett Trace Dr,,Morristown,TN,37813,,36.21557999,-83.25704193,2022-12-18 07:39:41
IHOP,61 Weaver Blvd,,Weaverville,NC,28787,,35.70415115,-82.56536865,2022-12-18 07:39:41
IHOP,245 Tunnel Rd,,Asheville,NC,28805,,35.58530045,-82.52845001,2022-12-18 07:39:41
IHOP,275-B Smokey Park Hwy,,Asheville,NC,28806,,35.56150055,-82.63349915,2022-12-18 07:39:41
IHOP,229 Airport Rd,,Arden,NC,28704,,35.45106125,-82.52519989,2022-12-18 07:39:41
IHOP,1802 Pkwy,,Sevierville,TN,37862,,35.82925034,-83.57460022,2022-12-18 07:39:41
IHOP,3636 Pkwy,,Pigeon Forge,TN,37863,,35.78305817,-83.55182648,2022-12-18 07:39:41
IHOP,7609 Mountain Grove Dr,,Knoxville,TN,37920,,35.90647888,-83.83625031,2022-12-18 07:39:41
IHOP,5604 Merchants Center Blvd,,Knoxville,TN,37912,,36.01005936,-83.97434998,2022-12-18 07:39:41
IHOP,7128 Kingston Pike,,Knoxville,TN,37919,,35.93050003,-84.02655792,2022-12-18 07:39:41
IHOP,906 Turner St,,Maryville,TN,37801,,35.75294876,-83.99588013,2022-12-18 07:39:41
IHOP,313 Lovell Rd,,Knoxville,TN,37934,,35.90264893,-84.1411972,2022-12-18 07:39:41
IHOP,2095 East Main St,,Spartanburg,SC,29307,,34.97303391,-81.88230133,2022-12-18 07:39:41
IHOP,8135 Warren H. Abernathy Hwy,,Spartanburg,SC,29301,,34.93492889,-82.00520325,2022-12-18 07:39:41
IHOP,355 S. Illinois Ave,,Oak Ridge,TN,37830,,36.00711823,-84.25570679,2022-12-18 07:39:41
IHOP,1062 Barnes Mill Rd,,Richmond,KY,40475,,37.73681259,-84.32585907,2022-12-18 07:39:41
IHOP,2306 Palumbo Dr,,Lexington,KY,40509,,38.02196121,-84.45449066,2022-12-18 07:39:41
IHOP,2380 Norman Ln,,Lexington,KY,40503,,38.00474548,-84.51968384,2022-12-18 07:39:41
IHOP,331 Diederich Blvd,,Ashland,KY,41101,,38.50302124,-82.67902374,2022-12-18 07:39:41
IHOP,16015-A Lancaster Hwy,,Charlotte,NC,28277,,35.03115082,-80.85237885,2022-12-18 07:39:41
IHOP,2797 Cherry Rd,,Rock Hill,SC,29730,,34.97687149,-80.98345184,2022-12-18 07:39:41
IHOP,1935 Skibo Rd,,Fayetteville,NC,28314,,35.06483841,-78.96707153,2022-12-18 07:39:41
IHOP,7821 Good Middling Dr,,Fayetteville,NC,28304,,35.02906036,-79.05873108,2022-12-18 07:39:41
IHOP,1006 E. East State Street,,Athens,OH,45701,,39.33680344,-82.05569458,2022-12-18 07:39:41
IHOP,10 Consumer Center Dr,,Chillicothe,OH,45601,,39.34537125,-82.97788239,2022-12-18 07:39:41
IHOP,1585 River Valley Circle North,,Lancaster,OH,43130,,39.73387909,-82.6267395,2022-12-18 07:39:41
IHOP,651 Hebron Rd,,Heath,OH,43056,,40.03470612,-82.43386841,2022-12-18 07:39:41
IHOP,2413 Taylor Square Dr,,Reynoldsburg,OH,43068,,39.93606949,-82.78761292,2022-12-18 07:39:41
IHOP,2040 Stringtown Rd,,Grove City,OH,43123,,39.87895966,-83.05748749,2022-12-18 07:39:41
IHOP,5500 Renner Rd,,Columbus,OH,43228,,39.98160934,-83.15265656,2022-12-18 07:39:41
IHOP,40 Polaris Pkwy,,Westerville,OH,43082,,40.14765167,-82.92491913,2022-12-18 07:39:41
IHOP,7130 Sawmill Rd,,Columbus,OH,43235,,40.11013031,-83.08824158,2022-12-18 07:39:41
IHOP,5699 Romar Dr,,Milford,OH,45150,,39.18783951,-84.25937653,2022-12-18 07:39:41
IHOP,7400 Beechmont Ave,,Cincinnati,OH,45255,,39.07307053,-84.35146332,2022-12-18 07:39:41
IHOP,300 Cross Roads Blvd.,,Cold Spring,KY,41076-2171,,39.00469971,-84.42250061,2022-12-18 07:39:41
IHOP,2190 Walker Lake Rd,,Ontario,OH,44903,,40.78717041,-82.59031677,2022-12-18 07:39:41
IHOP,1494 West Wade Hampton Blvd,,Greer,SC,29650,,34.93772125,-82.27297211,2022-12-18 07:39:41
IHOP,4470 Kahn Dr,,Lumberton,NC,28358,,34.65874481,-79.00880432,2022-12-18 07:39:41
IHOP,2699 David H Mcleod Blvd,,Florence,SC,29501,,34.189991,-79.83338165,2022-12-18 07:39:41
IHOP,2485 Broad St,,Sumter,SC,29150,,33.95880127,-80.39466095,2022-12-18 07:39:41
IHOP,7719 Two Notch Rd,,Columbia,SC,29223,,34.07902908,-80.94290924,2022-12-18 07:39:41
IHOP,1031 Assembly St,,Columbia,SC,29201,,33.99895859,-81.03486633,2022-12-18 07:39:41
IHOP,813 St. Andrews Rd,,Columbia,SC,29210,,34.04589844,-81.11601257,2022-12-18 07:39:41
IHOP,100 Legends Rd,,Myrtle Beach,SC,29579,,33.75233841,-78.96354675,2022-12-18 07:39:41
IHOP,2720 Richlands Hwy,,Jacksonville,NC,28540,,34.75471878,-77.45996857,2022-12-18 07:39:41
IHOP,5355 Market St,,Wilmington,NC,28405,,34.24660873,-77.87168884,2022-12-18 07:39:41
IHOP,320 Western Blvd,,Jacksonville,NC,28546,,34.76293182,-77.3821106,2022-12-18 07:39:41
IHOP,700 Hwy 17 N,,North Myrtle Beach,SC,29582,,33.83401108,-78.67204285,2022-12-18 07:39:41
IHOP,5628 Carolina Beach Rd,,Wilmington,NC,28412,,34.13502121,-77.89556122,2022-12-18 07:39:41
IHOP,1300 S Kings Hwy,,Myrtle Beach,SC,29577,,33.67734146,-78.90203857,2022-12-18 07:39:41
IHOP,4950 Arendell St,,Morehead City,NC,28557,,34.73445129,-76.79050446,2022-12-18 06:25:09
IHOP,5571 Sunset Blvd,,Lexington,SC,29072,,33.99393845,-81.22425842,2022-12-18 07:39:41
IHOP,1 Park Woodruff Dr,,Greenville,SC,29607,,34.82398987,-82.29322815,2022-12-18 07:39:41
IHOP,915 Wade Hampton Blvd,,Greenville,SC,29609,,34.87121964,-82.37322235,2022-12-18 07:39:41
IHOP,6525 Calhoun Memorial Hwy #6525A,,Easley,SC,29640,,34.82038879,-82.58422089,2022-12-18 07:39:41
IHOP,482 Bypass 72 NW,,Greenwood,SC,29649,,34.20780945,-82.18769836,2022-12-18 07:39:41
IHOP,3191 N. Main St,,Anderson,SC,29621,,34.54013062,-82.66835785,2022-12-18 07:39:41
IHOP,2567 North Rd,,Orangeburg,SC,29118,,33.52310944,-80.88591003,2022-12-18 07:39:41
IHOP,167 Steven B Tanger Blvd,,Commerce,GA,30529,,34.25624466,-83.46576691,2022-12-18 07:39:41
IHOP,180 Aiken Mall Dr,,Aiken,SC,29803,,33.51047897,-81.71324921,2022-12-18 07:39:41
IHOP,1217 N Main St,,Summerville,SC,29483,,33.03525162,-80.1578598,2022-12-18 07:39:41
IHOP,7361 Mazyck Rd,,N. Charleston,SC,29406,,32.93357086,-80.04930115,2022-12-18 07:39:41
IHOP,9976 Dorchester Rd,,Summerville,SC,29485,,32.95186996,-80.1605835,2022-12-18 07:39:41
IHOP,1787 N. Hwy 17,,Mount Pleasant,SC,29464,,32.82783127,-79.83551788,2022-12-18 07:39:41
IHOP,4936 Centre Point Dr,,N. Charleston,SC,29418,,32.87527847,-80.02005768,2022-12-18 07:39:41
IHOP,771 Daniel Ellis Dr,,Charleston,SC,29412,,32.74754715,-79.97021484,2022-12-18 07:39:41
IHOP,2040 Bells Hwy,,Walterboro,SC,29488,,32.93264008,-80.69364929,2022-12-18 07:39:41
IHOP,1248 Knox Ave,,North Augusta,SC,29841,,33.50432968,-81.95959473,2022-12-18 07:39:41
IHOP,4361 Washington Rd,,Evans,GA,30809,,33.54232025,-82.13358307,2022-12-18 07:39:41
IHOP,3125 Peach Orchard Rd,,Augusta,GA,30906,,33.41046143,-82.02716827,2022-12-18 07:39:41
IHOP,266 Robert Smalls Pkwy,,Beaufort,SC,29906,,32.42842865,-80.72566986,2022-12-18 07:39:41
IHOP,11 Towne Dr,,Bluffton,SC,29910,,32.26929855,-80.86157227,2022-12-18 07:39:41
IHOP,421 Pooler Pkwy,,Pooler,GA,31322,,32.13617325,-81.25059509,2022-12-18 07:39:41
IHOP,1800 E. Victory Dr,,Savannah,GA,31404,,32.04465866,-81.07121277,2022-12-18 07:39:41
IHOP,4 East Gateway Blvd,,Savannah,GA,31419,,32.00571442,-81.27924347,2022-12-18 07:39:41
IHOP,3600 Highway 77 South,,Union Point,GA,30642,,33.71180725,-83.12319183,2022-12-18 07:39:41
IHOP,808 W. Oglethorpe Hwy,,Hinesville,GA,31313,,31.82209969,-81.59929657,2022-12-18 07:39:41
IHOP,1180 Baxter St,,Athens,GA,30606,,33.94633865,-83.4030304,2022-12-18 07:39:41
IHOP,430 Jesse Jewell Pkwy SW,,Gainesville,GA,30501,,34.29653168,-83.82875824,2022-12-18 07:39:41
IHOP,1061 Pkwy Blvd,,Athens,GA,30606,,33.9209404,-83.44187164,2022-12-18 07:39:41
IHOP,4117 Dawson Forest Rd E,,Dawsonville,GA,30534,,34.35387039,-84.04517365,2022-12-18 07:39:41
IHOP,520 Carl Bethlehem Rd,Suite 200,Bethlehem,GA,30620,,33.94207382,-83.75514984,2022-12-18 07:39:41
IHOP,4122 Hwy 20,,Buford,GA,30518,,34.09114075,-84.00054932,2022-12-18 07:39:41
IHOP,920 Market Place Blvd,,Cumming,GA,30041,,34.18122864,-84.13136292,2022-12-18 07:39:41
IHOP,2170 West Spring St,,Monroe,GA,30655,,33.79969025,-83.74674988,2022-12-18 07:39:41
IHOP,90 Highland Xing S,,Ellijay,GA,30540,,34.65526962,-84.4927597,2022-12-18 07:39:41
IHOP,3463B Lawrenceville Suwanee Rd,,Suwanee,GA,30024,,34.04428864,-84.05464172,2022-12-18 07:39:41
IHOP,1881 Eatonton Rd,,Madison,GA,30650,,33.5608139,-83.47838593,2022-12-18 07:39:41
IHOP,955 Lawrenceville Suwanee Rd,,Lawrenceville,GA,30043,,33.97243118,-84.01783752,2022-12-18 07:39:41
IHOP,4176 Logan Dr,,Loganville,GA,30052,,33.84424973,-83.9078598,2022-12-18 07:39:41
IHOP,1143 Scenic Hwy,,Lawrenceville,GA,30045,,33.90586853,-84.00418091,2022-12-18 07:39:41
IHOP,11720 Medlock Bridge Rd,,Duluth,GA,30097,,34.06594849,-84.17008209,2022-12-18 07:39:41
IHOP,4323 Freedom Pkwy NW,,Cleveland,TN,37312,,35.20973969,-84.85492706,2022-12-18 07:39:41
IHOP,2178 Pleasant Hill Rd,,Duluth,GA,30096,,33.96023941,-84.13500214,2022-12-18 07:39:41
IHOP,870 N Main St,,Alpharetta,GA,30009,,34.0936203,-84.28063965,2022-12-18 07:39:41
IHOP,3010 Northside Pkwy,,Canton,GA,30115,,34.23694992,-84.46278381,2022-12-18 07:39:41
IHOP,4018 Lawrenceville Hwy NW,,Lilburn,GA,30047,,33.90359879,-84.1135025,2022-12-18 07:39:41
IHOP,10686 Alpharetta Hwy,,Roswell,GA,30076,,34.04050064,-84.34281921,2022-12-18 07:39:41
IHOP,6125 Peachtree Pkwy,,Norcross,GA,30092,,33.95254898,-84.23500824,2022-12-18 07:39:41
IHOP,4205 Stone Mountain Hwy,,Lilburn,GA,30047,,33.83539963,-84.07566071,2022-12-18 07:39:41
IHOP,5000 Jimmy Carter Blvd,,Norcross,GA,30093,,33.89604187,-84.19779205,2022-12-18 07:39:41
IHOP,3130 Johnson Ferry Rd,,Marietta,GA,30062,,34.02376175,-84.42485809,2022-12-18 07:39:41
IHOP,1510 Walnut Ave,,Dalton,GA,30720,,34.76055145,-84.99543762,2022-12-18 07:39:41
IHOP,5516 Peachtree Industrial Blvd,,Chamblee,GA,30341,,33.89910126,-84.30188751,2022-12-18 07:39:41
IHOP,8979 Hwy 92,,Woodstock,GA,30189,,34.08580017,-84.54019165,2022-12-18 07:39:41
IHOP,4276 Lavista Rd,,Tucker,GA,30084,,33.84764099,-84.24373627,2022-12-18 07:39:41
IHOP,10340 Indiustrial Blvd NE,,Covington,GA,30014,,33.60974884,-83.82731628,2022-12-18 07:39:41
IHOP,6120 Roswell Rd,,Sandy Springs,GA,30328,,33.92219925,-84.37957001,2022-12-18 07:39:41
IHOP,5170 Memorial Dr,,Stone Mountain,GA,30083,,33.79874039,-84.22200012,2022-12-18 07:39:41
IHOP,742 Hwy 53 SE,,Calhoun,GA,30701,,34.47283173,-84.92144012,2022-12-18 07:39:41
IHOP,1310 Dogwood Dr SW,,Conyers,GA,30012,,33.6545105,-84.00180817,2022-12-18 07:39:41
IHOP,2910 Stonecrest Dr,,Lithonia,GA,30038,,33.69981003,-84.09092712,2022-12-18 07:39:41
IHOP,"2741 Clairmont Rd, NE",,Atlanta,GA,30329,,33.83679962,-84.3110733,2022-12-18 07:39:41
IHOP,5814 Brainerd Rd,,Chattanooga,TN,37411,,35.01194,-85.21266174,2022-12-18 07:39:41
IHOP,5113 Hwy 153,,Hixson,TN,37343,,35.12200928,-85.23950195,2022-12-18 07:39:41
IHOP,179 Cobb Pkwy S,,Marietta,GA,30060,,33.94744873,-84.51828766,2022-12-18 07:39:41
IHOP,3020 Panola Rd,,Lithonia,GA,30038,,33.69934082,-84.17224884,2022-12-18 07:39:41
IHOP,1950 N Cobb Pkwy,,Kennesaw,GA,30152,,34.00065994,-84.59023285,2022-12-18 07:39:41
IHOP,2530 Cobb Pkwy SE,,Smyrna,GA,30080,,33.8925705,-84.47849274,2022-12-18 07:39:41
IHOP,640 East Main St,,Cartersville,GA,30121,,34.17459869,-84.77758789,2022-12-18 07:39:41
IHOP,2047 Battlefield Pkwy,,Fort Oglethorpe,GA,30742,,34.94734955,-85.23136902,2022-12-18 07:39:41
IHOP,428 Ponce De Leon Ave NE,,Atlanta,GA,30308,,33.77333069,-84.3732605,2022-12-18 07:39:41
IHOP,2390 Dallas Hwy SW,,Marietta,GA,30064,,33.94662094,-84.62146759,2022-12-18 07:39:41
IHOP,1870 E West Connector,,Austell,GA,30106,,33.85441971,-84.60901642,2022-12-18 07:39:41
IHOP,61 Depot Dr,,Hiram,GA,30141,,33.88946915,-84.75041962,2022-12-18 07:39:41
IHOP,35 Riverbend Dr SW,,Rome,GA,30161,,34.25241852,-85.16468811,2022-12-18 07:39:41
IHOP,970 Thornton Rd,,LITHIA SPRINGS,GA,30122,,33.77843857,-84.60559845,2022-12-18 07:39:41
IHOP,301 N Central Ave,,Hapeville,GA,30354,,33.65370941,-84.39737701,2022-12-18 07:39:41
IHOP,"7700 Spine Rd, Concourse T",Ste TS3-3-3G,Atlanta,GA,30320,,33.64108658,-84.44452667,2022-12-18 07:39:41
IHOP,3675 GA-138,,Stockbridge,GA,30281,,33.55329132,-84.27113342,2022-12-18 07:39:41
IHOP,1474 Southlake Plaza Dr,,Morrow,GA,30260,,33.57876968,-84.34191132,2022-12-18 07:39:41
IHOP,2510 Flat Shoals Rd,,Atlanta,GA,30349,,33.58860016,-84.47104645,2022-12-18 07:39:41
IHOP,722 Hwy 138 Sw,,Riverdale,GA,30274,,33.54872131,-84.4138031,2022-12-18 07:39:41
IHOP,7401 Douglas Blvd,,Douglasville,GA,30135,,33.72451019,-84.7661438,2022-12-18 07:39:41
IHOP,6902 Londonderry Way,,Union City,GA,30291,,33.56940842,-84.5378418,2022-12-18 07:39:41
IHOP,905 Hwy 20 W,,Mcdonough,GA,30253,,33.43262863,-84.1757431,2022-12-18 07:39:41
IHOP,11473 Tara Blvd,,Hampton,GA,30228,,33.44340134,-84.3234024,2022-12-18 07:39:41
IHOP,8028 Senoia Road,Suite 400,Fairburn,GA,30213,,33.53521347,-84.57614136,2022-12-18 07:39:41
IHOP,705 Jeff Davis Dr N,,Fayetteville,GA,30214,,33.46300888,-84.44949341,2022-12-18 07:39:41
IHOP,4971 Bill Gardner Pkwy,,Locust Grove,GA,30248,,33.35351562,-84.11650848,2022-12-18 07:39:41
IHOP,1115 Interstate Dr,,Cookeville,TN,38501,,36.13867188,-85.50621796,2022-12-18 07:39:41
IHOP,243 Marketplace Connector,,Peachtree City,GA,30269,,33.39849091,-84.59584808,2022-12-18 07:39:41
IHOP,1341 N Expy,,Griffin,GA,30223,,33.26910019,-84.29299927,2022-12-18 07:39:41
IHOP,122 Truckstop Way,,Jackson,GA,30233,,33.20650101,-84.05860138,2022-12-18 07:39:41
IHOP,2598 N. Columbia St,,Milledgeville,GA,31061,,33.11944962,-83.26220703,2022-12-18 07:39:41
IHOP,630 Hwy 34 E,,Newnan,GA,30265,,33.39725113,-84.75704956,2022-12-18 07:39:41
IHOP,1728 Old Fort Pkwy,,Murfreesboro,TN,37129,,35.84725952,-86.42183685,2022-12-18 07:39:41
IHOP,1904 US Hwy 78 E,,Oxford,AL,36203,,33.61436081,-85.79209137,2022-12-18 07:39:41
IHOP,3001 Memorial Pkwy SW,,Huntsville,AL,35801,,34.70499039,-86.587677,2022-12-18 07:39:41
IHOP,6151 University Dr Nw,,Huntsville,AL,35806,,34.74401093,-86.67877197,2022-12-18 07:39:41
IHOP,779 Team Blvd,,Smyrna,TN,37167,,35.9801712,-86.56345367,2022-12-18 07:39:41
IHOP,1513 Lafayette Pkwy,,Lagrange,GA,30241,,33.04296875,-84.97689056,2022-12-18 07:39:41
IHOP,520 Pleasant Grove Rd,,Mount Juliet,TN,37122,,36.17785645,-86.51701355,2022-12-18 07:39:41
IHOP,8622 Hwy 72 W,,Madison,AL,35758,,34.74804688,-86.77396393,2022-12-18 07:39:41
IHOP,165 Tom Hill Sr. Blvd,,Macon,GA,31210,,32.89875031,-83.68856812,2022-12-18 07:39:41
IHOP,2710 Watson Blvd,,Warner Robins,GA,31093,,32.61874008,-83.67234039,2022-12-18 07:39:41
IHOP,1406 Sam Nunn Blvd,,Perry,GA,31069,,32.46889877,-83.73999786,2022-12-18 07:39:41
IHOP,1160 East Boone Avenue,,KINGSLAND,GA,31548,,30.79186058,-81.66580963,2022-12-18 07:39:41
IHOP,3250 Hodges Blvd.,,Jacksonville,FL,32224,,30.28629112,-81.45952606,2022-12-18 07:39:41
IHOP,9010 Atlantic Blvd,,JACKSONVILLE,FL,32211,,30.31467056,-81.56157684,2022-12-18 07:39:41
IHOP,8400 Baymeadows Road,,JACKSONVILLE,FL,32256,,30.22027969,-81.58258057,2022-12-18 07:39:41
IHOP,7940 103rd Street,,JACKSONVILLE,FL,32210,,30.24764061,-81.78002167,2022-12-18 07:39:41
IHOP,315 Blanding Blvd,,ORANGE PARK,FL,32073,,30.16893959,-81.74688721,2022-12-18 07:39:41
IHOP,1825 East/West Parkway,,FLEMING ISLAND,FL,32003,,30.09696007,-81.70793915,2022-12-18 07:39:41
IHOP,2560 State Road 16,,ST. AUGUSTINE,FL,32092,,29.92066002,-81.41488647,2022-12-18 07:39:41
IHOP,1350 South Walnut Street,,STARKE,FL,32091,,29.93280983,-82.11567688,2022-12-18 07:39:41
IHOP,212 Palm Coast Parkway NE,,Palm Coast,FL,32137,,29.54925919,-81.23001862,2022-12-18 06:25:07
IHOP,1821 West Hill Ave,,VALDOSTA,GA,31601,,30.81996918,-83.31214142,2022-12-18 07:39:41
IHOP,1615 Hwy 27 South,,Carrollton,GA,30117,,33.54573822,-85.07436371,2022-12-18 07:39:41
IHOP,3322 W. US Highway 90,,Lake City,FL,32025,,30.17963028,-82.68688965,2022-12-18 06:25:07
IHOP,125 Cartmell Dr,,Albany,GA,31707,,31.62450981,-84.21639252,2022-12-18 07:39:41
IHOP,3625 SW 13th Street,,GAINESVILLE,FL,32608,,29.61923981,-82.33966827,2022-12-18 06:25:07
IHOP,324 Liberty Street,,THOMASVILLE,GA,31757,,30.83679008,-83.94200134,2022-12-18 07:39:41
IHOP,190 South Atlantic Avenue,,ORMOND BEACH,FL,32176,,29.28717041,-81.03830719,2022-12-18 06:25:07
IHOP,427 North Atlantic Avenue,,DAYTONA BEACH,FL,32118,,29.23353004,-81.01171112,2022-12-18 06:25:07
IHOP,2204 South Atlantic Avenue,,DAYTONA BEACH,FL,32118,,29.19540024,-80.99308014,2022-12-18 06:25:07
IHOP,155 Bill France Boulevard,,DAYTONA BEACH,FL,32114,,29.19631195,-81.06855774,2022-12-18 06:25:07
IHOP,1215 North Woodland Blvd,,DELAND,FL,32720,,29.04990959,-81.30387115,2022-12-18 06:25:07
IHOP,1124 Southwest Pine Avenue,,OCALA,FL,34471,,29.17720032,-82.14071655,2022-12-18 06:25:07
IHOP,6317 Talokas Lane,,Columbus,GA,31909,,32.5358696,-84.87747955,2022-12-18 07:39:41
IHOP,2939 N Lake Pkwy,,Columbus,GA,31909,,32.55233002,-84.94682312,2022-12-18 07:39:41
IHOP,2111 Airport Thruway,,Columbus,GA,31904,,32.52099991,-84.96177673,2022-12-18 07:39:41
IHOP,3747 Hwy 431 N,,Phenix City,AL,36867,,32.50152969,-85.04904938,2022-12-18 07:39:41
IHOP,2000 Pelham Parkway,,PELHAM,AL,35124,,33.34452057,-86.79663086,2022-12-18 07:39:41
IHOP,2730 John Hawkins Pkwy,,Hoover,AL,35244,,33.36183929,-86.82770538,2022-12-18 07:39:41
IHOP,115 Eastern Blvd,,Montgomery,AL,36117,,32.38037872,-86.20876312,2022-12-18 07:39:41
IHOP,2729 Legends Pkwy,,Prattville,AL,36066,,32.45920944,-86.39866638,2022-12-18 07:39:41
IHOP,1428 Beltline Rd SW,,Decatur,AL,35601,,34.56544876,-87.00972748,2022-12-18 07:39:41
IHOP,16211 Athens Limestone Blvd,,Athens,AL,35613,,34.78476715,-86.94158936,2022-12-18 07:39:41
IHOP,724 Skyland Blvd,,Tuscaloosa,AL,35405,,33.16572952,-87.54769897,2022-12-18 07:39:41
IHOP,3407 Ross Clark Circle,,Dothan,AL,36303,,31.24386024,-85.43016815,2022-12-18 07:39:41
IHOP,1203 Murfreesboro Rd,,Franklin,TN,37064,,35.9172287,-86.82911682,2022-12-18 07:39:41
IHOP,5420 Target Dr,,Antioch,TN,37013,,36.04391098,-86.65940094,2022-12-18 07:39:41
IHOP,2225 North Monroe Street,,TALLAHASSEE,FL,32303,,30.47031021,-84.28807831,2022-12-18 07:39:41
IHOP,2840 Apalachee Parkway,,TALLAHASSEE,FL,32301,,30.42741013,-84.23454285,2022-12-18 07:39:41
IHOP,4098 Nolensville Pike,Harding Mall,Nashville,TN,37211,,36.08002853,-86.72573853,2022-12-18 07:39:41
IHOP,5016 Old Hickory Blvd,,Hermitage,TN,37076,,36.19338989,-86.61641693,2022-12-18 07:39:41
IHOP,6800 Charlotte Pike,,Nashville,TN,37209,,36.13491058,-86.88903046,2022-12-18 07:39:41
IHOP,2219 Gallatin Pike N,,Madison,TN,37115,,36.3049202,-86.68775177,2022-12-18 07:39:41
IHOP,3240 Scottsville Rd,,Bowling Green,KY,42104,,36.93911362,-86.41934204,2022-12-18 07:39:41
IHOP,1101 E. 23rd Street,,PANAMA CITY,FL,32405,,30.18992043,-85.64109802,2022-12-18 07:39:41
IHOP,"15620 Panama City Beach Parkway, Unit 100",,PANAMA CITY BEACH,FL,32413,,30.22751427,-85.87961578,2022-12-18 07:39:41
IHOP,11100 SW 93rd Court,,OCALA,FL,34481,,29.06098938,-82.27500916,2022-12-18 06:25:07
IHOP,3480 Wedgewood Lane,,THE VILLAGES,FL,32162,,28.92769051,-82.01452637,2022-12-18 06:25:07
IHOP,320 Dirksen Road,,DEBARY,FL,32713,,28.87169075,-81.28614807,2022-12-18 06:25:07
IHOP,345 E. State Road 44,,WILDWOOD,FL,34785,,28.87421989,-82.09776306,2022-12-18 06:25:07
IHOP,111 South Oregon Ave..,,SANFORD,FL,32771,,28.81060028,-81.33621216,2022-12-18 06:25:07
IHOP,16025 US 441,,EUSTIS,FL,32726,,28.82280922,-81.68553925,2022-12-18 06:25:07
IHOP,3150 S Orlando Drive,,SANFORD,FL,32771,,28.76733971,-81.28275299,2022-12-18 06:25:07
IHOP,1120 W Orange Blossom Trail..,,Apopka,FL,32712,,28.68462944,-81.53224945,2022-12-18 06:25:07
IHOP,20133 Cortez Blvd,,Brooksville,FL,34601,,28.53982925,-82.40059662,2022-12-18 06:25:07
IHOP,2589 South Highway 27,,CLERMONT,FL,34711,,28.53303909,-81.73465729,2022-12-18 06:25:07
IHOP,3660 Commercial Way,,SPRINGHILL,FL,34606,,28.48638916,-82.60295868,2022-12-18 06:25:07
IHOP,17 Alafaya Woods Blvd.,,OVIEDO,FL,32765,,28.65180016,-81.20648193,2022-12-18 06:25:07
IHOP,7344 W Colonial Drive,,ORLANDO,FL,32818,,28.55121994,-81.4824295,2022-12-18 06:25:07
IHOP,647 East Colonial Drive,,ORLANDO,FL,32803,,28.55345917,-81.36889648,2022-12-18 06:25:07
IHOP,11571 University Blvd.,,ORLANDO,FL,32817,,28.59808922,-81.21868134,2022-12-18 06:25:07
IHOP,795 South Semoran Blvd,,ORLANDO,FL,32807,,28.53347015,-81.31006622,2022-12-18 06:25:07
IHOP,5203 Kirkman Road,,ORLANDO,FL,32819,,28.48633957,-81.45809174,2022-12-18 06:25:07
IHOP,588 S Alafaya Trl Ste 60 .,,Alafaya,FL,32828,,28.5372467,-81.24381256,2022-12-18 06:25:07
IHOP,6005 International Drive,,ORLANDO,FL,32819,,28.46272087,-81.46292114,2022-12-18 06:25:07
IHOP,7661 International Drive,,ORLANDO,FL,32819,,28.45170975,-81.47039795,2022-12-18 06:25:07
IHOP,13100 US Highway 301,,DADE CITY,FL,33525,,28.34885979,-82.18701172,2022-12-18 06:25:07
IHOP,7693 S Orange Blossom Trail,,ORLANDO,FL,32809,,28.45432091,-81.3992691,2022-12-18 06:25:07
IHOP,9990 International Drive,,ORLANDO,FL,32819,,28.42710876,-81.46954346,2022-12-18 06:25:07
IHOP,5463 Gateway Village Circle #105,,ORLANDO,FL,32812,,28.45664787,-81.31118011,2022-12-18 06:25:07
IHOP,12400 S Apopka-Vineland Road,,ORLANDO,FL,32836,,28.38497925,-81.50660706,2022-12-18 06:25:07
IHOP,11793 International Drive,,ORLANDO,FL,32821,,28.39269447,-81.46603394,2022-12-18 06:25:07
IHOP,7529 W Irlo Bronson Mem Hwy,,KISSIMMEE,FL,34746,,28.33455086,-81.58908844,2022-12-18 06:25:07
IHOP,100 Ambersweet Way,,DAVENPORT,FL,33897,,28.31351471,-81.66886902,2022-12-18 06:25:07
IHOP,3755 Cheney Highway,,TITUSVILLE,FL,32780,,28.55009079,-80.85414124,2022-12-18 06:25:07
IHOP,6065 Irlo Bronson Memorial Hwy,,KISSIMMEE,FL,34747,,28.3335495,-81.52555847,2022-12-18 06:25:07
IHOP,5184 W Irlo Bronson Memorial Hwy,,KISSIMMEE,FL,34746,,28.33234978,-81.49108124,2022-12-18 06:25:07
IHOP,1715 West Vine Street,,KISSIMMEE,FL,34741,,28.30481911,-81.42218018,2022-12-18 06:25:07
IHOP,4160 W State Road 520.,,COCOA,FL,32926,,28.36031914,-80.79110718,2022-12-18 06:25:07
IHOP,3830 North Atlantic Avenue,,COCOA BEACH,FL,32931,,28.35412025,-80.60897064,2022-12-18 06:25:07
IHOP,4101 13th Street,,ST. CLOUD,FL,34769,,28.25037956,-81.31295776,2022-12-18 06:25:07
IHOP,8201 North Wickham Road.,,Melbourne,FL,32940,,28.22994041,-80.71131897,2022-12-18 06:25:07
IHOP,3427 U S Highway 98 North,,LAKELAND,FL,33809,,28.08671951,-81.97132874,2022-12-18 06:25:07
IHOP,4736 US Hwy 19,,NEW PORT RICHEY,FL,34652,,28.22826958,-82.73108673,2022-12-18 06:25:07
IHOP,10740 State Road 54,,TRINITY,FL,34655,,28.19309044,-82.63703156,2022-12-18 06:25:07
IHOP,1915 Cypress Garden Blvd,,WINTER HAVEN,FL,33884,,28.00390053,-81.70123291,2022-12-18 06:25:07
IHOP,408 East Bearss Ave.,,TAMPA,FL,33613,,28.08845139,-82.45604706,2022-12-18 06:25:07
IHOP,3447 South Florida Avenue,,LAKELAND,FL,33803,,28.00102043,-81.9573822,2022-12-18 06:25:07
IHOP,11710 Morris Bridge Road,,TEMPLE TERRACE,FL,33617,,28.05536079,-82.36161041,2022-12-18 06:25:07
IHOP,805 South Collins Street,,PLANT CITY,FL,33563,,28.00764084,-82.12171173,2022-12-18 06:25:07
IHOP,2850 Ridge Way,,Lake Wales,FL,33859,,27.96138,-81.62293243,2022-12-18 06:25:07
IHOP,40489 US Highway 19,,Tarpon Springs,FL,34689,,28.14010048,-82.73940277,2022-12-18 06:25:07
IHOP,3501 E Busch Blvd,,TAMPA,FL,33612,,28.03218079,-82.42043304,2022-12-18 06:25:07
IHOP,11111 N Dale Mabry,,TAMPA,FL,33618,,28.04984093,-82.50325775,2022-12-18 06:25:07
IHOP,855 Palm Bay Road NE,,West Melbourne,FL,32904,,28.03574944,-80.64741516,2022-12-18 06:25:07
IHOP,1270 East Brandon Blvd,,BRANDON,FL,33511,,27.93828011,-82.26338959,2022-12-18 06:25:07
IHOP,30200 US Highway 19 North,,CLEARWATER,FL,33761,,28.04706955,-82.73905945,2022-12-18 06:25:07
IHOP,4910 Spruce Street,,TAMPA,FL,33607,,27.95926094,-82.52626801,2022-12-18 06:25:07
IHOP,11350 Bloomingdale Avenue,,Riverview,FL,33578,,27.8937645,-82.31187439,2022-12-18 06:25:07
IHOP,802 S Dale Mabry Highway,,TAMPA,FL,33609,,27.93555069,-82.50543213,2022-12-18 06:25:07
IHOP,12978 South US Highway 301,,Riverview,FL,33578,,27.80122948,-82.33463287,2022-12-18 06:25:07
IHOP,10859 Emerald Coast Parkway,,DESTIN,FL,32541,,30.37985992,-86.35588837,2022-11-14 19:45:05
IHOP,7800 Ulmerton Road,,LARGO,FL,33771,,27.89393997,-82.74629211,2022-12-18 06:25:07
IHOP,5129 Highway 90,,Pace,FL,32571,,30.59831047,-87.16381836,2022-12-18 07:39:41
IHOP,6239 Davis Hwy,,Pensacola,FL,32504,,30.48963737,-87.22354889,2022-12-18 07:39:41
IHOP,4671 Park Blvd,,PINELLAS PARK,FL,33781,,27.8395195,-82.69743347,2022-12-18 06:25:07
IHOP,4199 34th Street South,,ST. PETERSBURG,FL,33705,,27.72987938,-82.67977905,2022-12-18 06:25:07
IHOP,5001 Gulf Boulevard,,ST. PETE BEACH,FL,33706,,27.72463989,-82.74075317,2022-12-18 06:25:07
IHOP,600 US Hwy 27N,,SEBRING,FL,33870,,27.4892292,-81.48229218,2022-12-18 06:25:07
IHOP,8800 20th Street,,VERO BEACH,FL,32966,,27.63983917,-80.50861359,2022-12-18 06:25:07
IHOP,6320 State Road 64 East,,BRADENTON,FL,34208,,27.49230957,-82.48174286,2022-12-18 06:25:07
IHOP,1838 U S Hwy 1,,VERO BEACH,FL,32960,,27.63554001,-80.38887787,2022-12-18 06:25:07
IHOP,5427 14th Street,,BRADENTON,FL,34207,,27.44425964,-82.57504272,2022-12-18 06:25:07
IHOP,4000 S. Tamiami Trail,,SARASOTA,FL,34231,,27.29659081,-82.53105164,2022-12-18 06:25:07
IHOP,990 SW Saint Lucie West Blvd.,,PORT SAINT LUCIE,FL,34986,,27.31674004,-80.3838501,2022-12-18 06:25:07
IHOP,1789 Tamiami Trail,,PORT CHARLOTTE,FL,33948,,27.0071907,-82.13503265,2022-12-18 06:25:07
IHOP,1425 South Federal Highway,,STUART,FL,34994,,27.18556976,-80.24381256,2022-12-18 06:25:07
IHOP,1501 South Tamiami Trail,,PUNTA GORDA,FL,33950,,26.92489052,-82.04768372,2022-12-18 06:25:07
IHOP,6773 West Indiantown Rd,,JUPITER,FL,33458,,26.93490982,-80.13816071,2022-12-18 06:25:07
IHOP,13061 N Cleveland Avenue,,NORTH FORT MYERS,FL,33903,,26.65871048,-81.88368225,2022-12-18 06:25:07
IHOP,312 U S Highway 1,,NORTH PALM BEACH,FL,33408,,26.80810928,-80.05545807,2022-12-18 06:25:07
IHOP,516 N. State Road 7,,Royal Palm Beach,FL,33411,,26.68538475,-80.20093536,2022-12-18 06:25:07
IHOP,1776 North Military Trail,,WEST PALM BEACH,FL,33409,,26.70351028,-80.11087036,2022-12-18 06:25:07
IHOP,1503 Belvedere Road,,WEST PALM BEACH,FL,33406,,26.6911602,-80.07237244,2022-12-18 06:25:07
IHOP,6708 Forrest Hill Blvd,,GREEN ACRES,FL,33415,,26.65081024,-80.14768219,2022-12-18 06:25:07
IHOP,4562 Lake Worth Road,,LAKE WORTH,FL,33463,,26.61803055,-80.11427307,2022-12-18 06:25:07
IHOP,12801 S Cleveland Avenue,,FORT MYERS,FL,33907,,26.55554008,-81.8712616,2022-12-18 06:25:07
IHOP,1797 North Congress Ave.,,BOYNTON BEACH,FL,33426,,26.54434967,-80.09087372,2022-12-18 06:25:07
IHOP,4745 West Atlantic Ave,,DELRAY BEACH,FL,33445,,26.45820999,-80.11872864,2022-12-18 06:25:09
IHOP,27240 Bay Landing Drive,,BONITA SPRINGS,FL,34135,,26.34436989,-81.80661011,2022-12-18 06:25:07
IHOP,6631 Dudley Drive,,NAPLES,FL,34105,,26.21109962,-81.74243927,2022-12-18 06:25:07
IHOP,1921 Davis Blvd.,,NAPLES,FL,34104,,26.1385994,-81.78144836,2022-12-18 06:25:07
IHOP,1560 S. Federal Highway,,DELRAY BEACH,FL,33483,,26.44245911,-80.07009125,2022-12-18 06:25:09
IHOP,3912 Airport Blvd,,Mobile,AL,36608,,30.67651939,-88.1446228,2022-12-18 07:39:41
IHOP,4375 Rangeline Road,,MOBILE,AL,36619,,30.59762955,-88.16635132,2022-12-18 07:39:41
IHOP,11475 Cinema Way Dr,,D'Iberville,MS,39540,,30.45558929,-88.88674164,2022-12-18 07:39:41
IHOP,2680 Beach Blvd,,Biloxi,MS,39531,,30.38866997,-88.9958725,2022-12-18 07:39:41
IHOP,15130 Turkey Creek Dr,,Gulfport,MS,39503,,30.42186928,-89.09095001,2022-12-18 07:39:41
IHOP,220 N. Frontage Rd,,Meridian,MS,39301,,32.36479568,-88.67609406,2022-12-18 07:39:41
IHOP,2904 Hardy St,,Hattiesburg,MS,39401,,31.32444,-89.33335114,2022-12-18 07:39:41
IHOP,500 S. Lofton,,Picayune,MS,39466,,30.51849937,-89.66560364,2022-12-18 07:39:41
IHOP,61101 Airport Rd,,Slidell,LA,70460,,30.31649017,-89.82637787,2022-12-18 07:39:41
IHOP,12150 I-10 Service Rd,,New Orleans,LA,70128,,30.04653931,-89.9588623,2022-12-18 07:39:41
IHOP,325 N Hwy 190,,Covington,LA,70433,,30.43519974,-90.08464813,2022-12-18 07:39:41
IHOP,151 Westbank Expy,,Gretna,LA,70053,,29.92497063,-90.03974152,2022-12-18 07:39:41
IHOP,833 Canal St,,New Orleans,LA,70112,,29.95445061,-90.07051849,2022-12-18 07:39:41
IHOP,1719 Manhattan Blvd,,Harvey,LA,70058,,29.88945007,-90.05645752,2022-12-18 07:39:41
IHOP,3511 S. Carrollton Ave,,New Orleans,LA,70118,,29.96439934,-90.1108017,2022-12-18 07:39:41
IHOP,5025 Lapalco Blvd,,Marrero,LA,70072,,29.87447166,-90.1002655,2022-12-18 07:39:41
IHOP,3400 South I-10 Service Rd W,,Metairie,LA,70001,,29.99649048,-90.1592865,2022-12-18 07:39:41
IHOP,5048 Veterans Blvd,,Metairie,LA,70006,,30.00531578,-90.19682312,2022-12-18 07:39:41
IHOP,3400 Williams Blvd,,Kenner,LA,70065,,30.01798058,-90.23906708,2022-12-18 07:39:41
IHOP,3117 Loyola Drive,,Kenner,LA,70065,,30.01136017,-90.26686859,2022-12-18 07:39:41
IHOP,207 W Minnesota Park Rd,,Hammond,LA,70403,,30.48399925,-90.45858765,2022-12-18 07:39:41
IHOP,14099 Hwy 90,,Boutte,LA,70039,,29.89112091,-90.40783691,2022-12-18 07:39:41
IHOP,5076 Lakeland Drive,,Flowood,MS,39232,,32.34511948,-90.05187988,2022-12-18 07:39:41
IHOP,474 Briarwood Dr,,Jackson,MS,39206,,32.38063049,-90.14830017,2022-12-18 07:39:41
IHOP,1719 Martin Luther King Jr Blvd,,Houma,LA,70360,,29.61120033,-90.75482941,2022-12-18 07:39:41
IHOP,2700 Greenway Dr,,Jackson,MS,39204,,32.29111862,-90.26779175,2022-12-18 07:39:41
IHOP,2260 Home Depot Drive,,DENHAM SPRINGS,LA,70726,,30.4581604,-90.95852661,2022-12-18 07:39:41
IHOP,6875 Siegen Lane,,Baton Rouge,LA,70809,,30.38718987,-91.06240845,2022-12-18 07:39:41
IHOP,3006 College Dr,,BATON ROUGE,LA,70808,,30.4208107,-91.14100647,2022-12-18 07:39:41
IHOP,3680 Harding Blvd,,Baton Rouge,LA,70807,,30.52112007,-91.15309143,2022-12-18 07:39:41
IHOP,10050 Calle Comercio,,BOCA RATON,FL,33428,,26.36684036,-80.20517731,2022-12-18 06:25:07
IHOP,516 South Federal Highway,,DEERFIELD BEACH,FL,33441,,26.31077957,-80.09143829,2022-12-18 06:25:09
IHOP,7944 West Sample Road,,MARGATE,FL,33065,,26.27183914,-80.23230743,2022-12-18 06:25:09
IHOP,851 W Sample Road,,POMPANO BEACH,FL,33064,,26.27528954,-80.13545227,2022-12-18 06:25:09
IHOP,6101 N University Dr,,TAMARAC,FL,33321,,26.19993973,-80.25273895,2022-12-18 06:25:09
IHOP,1395 Pompano Parkway,,POMPANO BEACH,FL,33069,,26.21327972,-80.15660858,2022-12-18 06:25:09
IHOP,2454 North University Drive,,SUNRISE,FL,33322,,26.15447998,-80.25679779,2022-12-18 06:25:09
IHOP,3101 West Oakland Park Blvd,,FT. LAUDERDALE,FL,33311,,26.16559982,-80.18759918,2022-12-18 06:25:09
IHOP,1101 N Federal Highway,,FT. LAUDERDALE,FL,33304,,26.13961029,-80.12058258,2022-12-18 06:25:09
IHOP,1393 South University Drive,,PLANTATION,FL,33324,,26.10171127,-80.2503891,2022-12-18 06:25:09
IHOP,1241 South Federal Highway,,FT. LAUDERDALE,FL,33316,,26.10596085,-80.13729858,2022-12-18 06:25:09
IHOP,2112 N Flamingo Rd,,PEMBROKE PINES,FL,33028,,26.02702522,-80.31580353,2022-12-18 06:25:09
IHOP,18279 Pines Blvd. #A3,,PEMBROKE PINES,FL,33029,,26.00918007,-80.39211273,2022-12-18 06:25:09
IHOP,2305 North University Drive,,PEMBROKE PINES,FL,33024,,26.02980995,-80.24823761,2022-12-18 06:25:09
IHOP,201 South Federal Highway,,DANIA BEACH,FL,33004,,26.04861069,-80.14334106,2022-12-18 06:25:09
IHOP,2754 Hollywood Blvd,,HOLLYWOOD,FL,33020,,26.0107193,-80.16297913,2022-12-18 06:25:09
IHOP,11302 Miramar Parkway,,MIRAMAR,FL,33025,,25.97826958,-80.29653168,2022-12-18 06:25:09
IHOP,7990 Miramar Parkway,,MIRAMAR,FL,33023,,25.98114014,-80.246521,2022-12-18 06:25:09
IHOP,1020 West Hallandale Blvd,,HALLANDALE,FL,33009,,25.98546028,-80.1623764,2022-12-18 06:25:09
IHOP,7450 NW 186th Street,,MIAMI,FL,33015,,25.94141006,-80.32070923,2022-12-18 06:25:09
IHOP,1101 N E 163rd Street,,NORTH MIAMI BEACH,FL,33162,,25.92591095,-80.17783356,2022-12-18 06:25:09
IHOP,3315 West 80th Street,,HIALEAH,FL,33018,,25.89513969,-80.35153198,2022-12-18 06:25:09
IHOP,12875 Biscayne Blvd.,,NORTH MIAMI,FL,33181,,25.89477921,-80.16175079,2022-12-18 06:25:15
IHOP,1645 W. 49th Street,,HIALEAH,FL,33012,,25.86779976,-80.31690216,2022-12-18 06:25:09
IHOP,6928 Collins Avenue,,MIAMI BEACH,FL,33141,,25.85485077,-80.12068939,2022-12-18 06:25:15
IHOP,5175 NW 36th Street.,,MIAMI SPRINGS,FL,33166,,25.80809021,-80.27961731,2022-12-18 06:25:09
IHOP,285 N W 42nd Avenue,,MIAMI,FL,33126,,25.77481079,-80.26351929,2022-12-18 06:25:20
IHOP,869 SW 107 Avenue,,Miami,FL,33174,,25.76041031,-80.36786652,2022-12-18 06:25:09
IHOP,7378 S.W. 40th Street (Bird Rd),,MIAMI,FL,33155,,25.73270035,-80.31414032,2022-12-18 06:25:20
IHOP,14505 SW 42nd Street,,KENDALL,FL,33175,,25.72891045,-80.4300766,2022-12-18 06:25:09
IHOP,9696 W Sunset Drive,,MIAMI,FL,33173,,25.7013607,-80.34977722,2022-12-18 06:25:20
IHOP,11927 South Dixie Hwy,,MIAMI,FL,33156,,25.65949059,-80.32604218,2022-12-18 06:25:20
IHOP,12755 SW 88th St,,MIAMI,FL,33186,,25.68659973,-80.40100861,2022-12-18 06:25:09
IHOP,18860 S Dixie Hwy,,MIAMI,FL,33157,,25.59110069,-80.35861969,2022-12-18 06:25:20
IHOP,6495 Overseas Highway,,MARATHON,FL,33050,,24.71804047,-81.06752777,2022-12-18 06:25:09
IHOP,3416 N Roosevelt Blvd,,KEY WEST,FL,33040,,24.57126999,-81.76252747,2022-12-18 06:25:09
IHOP,3965 N. Gloster St,,Tupelo,MS,38804,,34.3107605,-88.7073822,2022-12-18 07:39:41
IHOP,2152 Jackson Ave W,,Oxford,MS,38655,,34.36220169,-89.56096649,2022-12-18 07:39:41
IHOP,9 Stonebridge Blvd,,Jackson,TN,38305,,35.67192078,-88.85414886,2022-12-18 07:39:41
IHOP,2819 B Wilma Rudolph Boulevard,,CLARKSVILLE,TN,37040,,36.59017181,-87.29161072,2022-12-18 07:39:41
IHOP,7768 Craft Goodman Rd,,Olive Branch,MS,38654,,34.96654129,-89.85494995,2022-12-18 07:39:41
IHOP,3710 Riverdale Rd,,Memphis,TN,38115,,35.04751968,-89.82977295,2022-12-18 07:39:41
IHOP,1106 N. Germantown Pkwy,,Cordova,TN,38016,,35.1557312,-89.79492188,2022-12-18 07:39:41
IHOP,2810 Wolfcreek Pkwy,,Memphis,TN,38133,,35.20230103,-89.79390717,2022-12-18 07:39:41
IHOP,4725 Showcase Blvd,,Memphis,TN,38118,,35.07537842,-89.90576935,2022-12-18 07:39:41
IHOP,321 Goodman Rd W,,Southaven,MS,38671,,34.96205902,-89.99614716,2022-12-18 07:39:41
IHOP,1661 Sycamore View Rd,,Memphis,TN,38134,,35.1704216,-89.86733246,2022-12-18 07:39:41
IHOP,2060 Union Ave,,Memphis,TN,38104,,35.13491058,-89.99295044,2022-12-18 06:25:07
IHOP,8484 Wilkinsville Rd,,Millington,TN,38053,,35.35821152,-89.89494324,2022-12-18 06:25:07
IHOP,1655 Hwy 51 South,,Covington,TN,38019,,35.54328918,-89.66416931,2022-12-18 06:25:07
IHOP,2411 S Caraway Rd,,Jonesboro,AR,72401,,35.81526947,-90.67845154,2022-12-18 06:25:07
IHOP,2861 James Sanders Blvd,,Paducah,KY,42001,,37.07419968,-88.68383789,2022-12-18 07:39:41
IHOP,3513 East Race Ave,,Searcy,AR,72143,,35.24937057,-91.6870575,2022-12-18 07:39:41
IHOP,2406 Williams St,,Cape Girardeau,MO,63703,,37.30407333,-89.55456543,2022-12-18 07:39:41
IHOP,3080 Highland Pointe Dr .,,Owensboro,KY,42303,,37.75268173,-87.07032776,2022-12-18 07:39:41
IHOP,2607 Blue Heron Dr,,Marion,IL,62959,,37.74560547,-88.9631958,2022-12-18 07:39:41
IHOP,1345 E. Main St.,,Carbondale,IL,62901,,37.73360062,-89.18869781,2022-12-18 07:39:41
IHOP,3230 NE Evangeline Thruway,,Lafayette,LA,70507,,30.29380989,-92.0234375,2022-12-18 07:39:41
IHOP,4000 Ambassador Caffery Pkwy,,Lafayette,LA,70503,,30.16643906,-92.06108856,2022-12-18 07:39:41
IHOP,2715 S Macarthur Dr,,Alexandria,LA,71301,,31.26922035,-92.45864868,2022-12-18 06:25:07
IHOP,3900 N. Dixie Hwy,,Elizabethtown,KY,42701,,37.74065018,-85.8903656,2022-12-18 07:39:41
IHOP,1401 S. Hurstbourne Pkwy,,Louisville,KY,40222,,38.22488022,-85.57749939,2022-12-18 07:39:41
IHOP,1220 Veterans Pkwy,,Clarksville,IN,47129,,38.32775879,-85.76078033,2022-12-18 07:39:41
IHOP,410 S College Mall Road,,Bloomington,IN,47401,,39.1628418,-86.49884033,2022-12-18 07:39:41
IHOP,54 Johnson Blvd,,Columbus,IN,47201,,39.19884109,-85.95179749,2022-12-18 07:39:41
IHOP,1805 West Fayette Ave,,Effingham,IL,62401,,39.11989975,-88.57219696,2022-12-18 07:39:41
IHOP,2901 S 3rd St,,Terre Haute,IN,47802,,39.43532944,-87.41401672,2022-12-18 07:39:41
IHOP,1028 W Hwy 50,,O' Fallon,IL,62269,,38.59281921,-89.93791962,2022-12-18 07:39:41
IHOP,6885 Houston Rd,,Florence,KY,41042,,39.00936127,-84.64923859,2022-12-18 07:39:41
IHOP,4103 Lemay Ferry Rd,,Saint Louis,MO,63129,,38.50518036,-90.32752991,2022-12-18 07:39:41
IHOP,6456 Chippewa St.,,St. Louis,MO,63109,,38.59334183,-90.29959869,2022-12-18 07:39:41
IHOP,110 Kate G Lane,,Fenton,MO,63026,,38.50627899,-90.44422913,2022-12-18 07:39:41
IHOP,8049 Clayton Rd,,Saint Louis,MO,63117,,38.63822937,-90.34432983,2022-12-18 07:39:41
IHOP,11237 Saint Charles Rock Rd,,Bridgeton,MO,63044,,38.73931122,-90.40099335,2022-12-18 07:39:41
IHOP,5 N Hwy 67 St,,Florissant,MO,63031,,38.7952919,-90.3409729,2022-12-18 07:39:41
IHOP,181 Homer M Adams Pkwy,,Alton,IL,62002,,38.92133713,-90.17651367,2022-12-18 07:39:41
IHOP,7521 US Hwy 31 S,,Indianapolis,IN,46227,,39.65776062,-86.14185333,2022-12-18 07:39:41
IHOP,4 Mcbride & Son Center Dr,,Chesterfield,MO,63005,,38.66883087,-90.60089874,2022-12-18 07:39:41
IHOP,3851 Veteran'S Memorial Pkwy,,Saint Peters,MO,63376,,38.79156113,-90.56213379,2022-12-18 07:39:41
IHOP,6475 Glenway Avenue,,Cincinnati,OH,45248,,39.15200043,-84.62830353,2022-12-18 07:39:41
IHOP,6901 W. 38th St,,Indianapolis,IN,46254,,39.82210159,-86.2781601,2022-12-18 07:39:41
IHOP,395 W. Northfield Dr,,Brownsburg,IN,46112,,39.85744858,-86.39694977,2022-12-18 07:39:41
IHOP,105 Pavilion Pkwy,,Newport,KY,41071,,39.09233475,-84.47986603,2022-12-18 07:39:41
IHOP,1912 Hwy K,,O' Fallon,MO,63366,,38.78239059,-90.69921875,2022-12-18 07:39:41
IHOP,9115 East 56th St,,Indianapolis,IN,46216,,39.85491943,-86.00769043,2022-12-18 07:39:41
IHOP,9540 Colerain Ave,,Cincinnati,OH,45251,,39.24507141,-84.59477997,2022-12-18 07:39:41
IHOP,4825 Marburg Ave,,Cincinnati,OH,45209,,39.16400146,-84.4254303,2022-12-18 07:39:41
IHOP,1217 Omniplex Dr,,Cincinnati,OH,45240,,39.30199814,-84.52490997,2022-12-18 07:39:41
IHOP,5063 Bowen Dr,,Mason,OH,45040,,39.31097031,-84.31455231,2022-12-18 07:39:41
IHOP,302 South Rockwood Dr,,Cabot,AR,72023,,34.97742462,-92.03803253,2022-12-18 07:39:41
IHOP,4225 Warden Rd,,North Little Rock,AR,72116,,34.79346848,-92.22293854,2022-12-18 07:39:41
IHOP,101 N. University Ave,,Little Rock,AR,72205,,34.75244141,-92.34082031,2022-12-18 07:39:41
IHOP,1161 Old Morrilton Hwy,,Conway,AR,72032,,35.10905838,-92.44132996,2022-12-18 07:39:41
IHOP,11601 Hermitage Rd,,Little Rock,AR,72211,,34.74660873,-92.40332794,2022-12-18 07:39:41
IHOP,306 W. Commerce Dr,,Bryant,AR,72022,,34.62142944,-92.50055695,2022-12-18 07:39:41
IHOP,17821 Interstate 30 S,,Benton,AR,72015,,34.58234024,-92.57467651,2022-12-18 07:39:41
IHOP,401 East Harrell Dr,,Russellville,AR,72802,,35.3026619,-93.13147736,2022-12-18 07:39:41
IHOP,3837 Central Ave,,Hot Springs,AR,71913,,34.46113968,-93.06130219,2022-12-18 07:39:41
IHOP,1735 N. Bishop Ave,,Rolla,MO,65401,,37.95977783,-91.77078247,2022-12-18 07:39:41
IHOP,1055 Hwy 376,,Branson,MO,65616,,36.65113068,-93.29055786,2022-12-18 07:39:41
IHOP,10 Layla Ln,,Wentzville,MO,63385,,38.80931854,-90.8703537,2022-12-18 07:39:41
IHOP,3804 S Glenstone Ave,,Springfield,MO,65804,,37.14448166,-93.2542572,2022-12-18 07:39:41
IHOP,4205 Pecanland Mall Dr,,Monroe,LA,71203,,32.49842072,-92.06983948,2022-12-18 06:25:07
IHOP,202 Blanchard St,,West Monroe,LA,71291,,32.50864029,-92.15989685,2022-12-18 06:25:07
IHOP,2647 N Kansas Expy,,Springfield,MO,65803,,37.24620819,-93.31130981,2022-12-18 07:39:41
IHOP,2011 Missouri Blvd,,Jefferson City,MO,65109,,38.58114624,-92.20432281,2022-12-18 07:39:41
IHOP,3153 W. Wedington Dr,,Fayetteville,AR,72704,,36.07788086,-94.20429993,2022-12-18 07:39:41
IHOP,4604 W Walnut St,,Rogers,AR,72756,,36.33454895,-94.18212891,2022-12-18 07:39:41
IHOP,7809 Rogers Ave,,Fort Smith,AR,72903,,35.3509407,-94.34584045,2022-12-18 07:39:41
IHOP,2600 Sunrise Drive,,SPRINGFIELD,IL,62703,,39.76800156,-89.60817719,2022-12-18 07:39:41
IHOP,4001 Wabash Ave,,Springfield,IL,62711,,39.7567215,-89.73058319,2022-12-18 07:39:41
IHOP,51 Conley Rd,,Columbia,MO,65201,,38.9504509,-92.29421234,2022-12-18 07:39:41
IHOP,329 E 51st St,,Texarkana,AR,71854,,33.47108841,-94.03855133,2022-12-18 07:39:41
IHOP,1989 Airline Dr,,Bossier City,LA,71112,,32.5280304,-93.7020874,2022-12-18 07:39:41
IHOP,670 Boardwalk Blvd.,,BOSSIER CITY,LA,71111,,32.51839066,-93.73999023,2022-12-18 07:39:41
IHOP,8010 Youree Dr,,Shreveport,LA,71115,,32.43070984,-93.71186066,2022-12-18 07:39:41
IHOP,5119 University Pkwy,,Natchitoches,LA,71457,,31.7295742,-93.15277863,2022-12-18 06:25:07
IHOP,111 Interstate 20 W,,Marshall,TX,75672,,32.4930191,-94.35959625,2022-12-18 07:39:41
IHOP,203 W Loop 281,,Longview,TX,75605,,32.54253006,-94.75015259,2022-12-18 07:39:41
IHOP,2241 Highway 271 N,,Pittsburg,TX,75686,,33.02399826,-94.96399689,2022-12-18 07:39:41
IHOP,2502 W. Ferguson Rd,,Mount Pleasant,TX,75455,,33.16659927,-94.99799347,2022-12-18 07:39:41
IHOP,4117 North St,,Nacogdoches,TX,75965,,31.64308929,-94.6545105,2022-12-18 06:25:07
IHOP,2601 Admiral King St,,Lake Charles,LA,70615,,30.19864082,-93.17862701,2022-12-18 06:25:07
IHOP,8685 Memorial Blvd,,PORT ARTHUR,TX,77640,,29.94470024,-93.99375916,2022-12-18 06:25:07
IHOP,5875 Eastex Frwy,,Beaumont,TX,77706,,30.1248703,-94.1552887,2022-12-18 06:25:07
IHOP,3830 College St,,Beaumont,TX,77701,,30.06874084,-94.13314056,2022-12-18 06:25:07
IHOP,4400 S Medford Dr,,Lufkin,TX,75901,,31.31263924,-94.72232056,2022-12-18 06:25:07
IHOP,10100 US HWY 59 S,,Shepherd,TX,77371,,30.41290092,-95.04820251,2022-12-18 06:25:07
IHOP,115 W Southwest Loop 323,,Tyler,TX,75701,,32.30337906,-95.30174255,2022-12-18 07:39:41
IHOP,209 S Sw Loop 323,,Tyler,TX,75702,,32.34960938,-95.34384155,2022-12-18 07:39:41
IHOP,3408 S. Main St,,Lindale,TX,75771,,32.46910095,-95.3877182,2022-12-18 07:39:41
IHOP,5001 Garth Rd,,Baytown,TX,77521,,29.77845001,-94.97818756,2022-12-18 06:25:07
IHOP,7748 Cox Lane,,West Chester,OH,45069,,39.35406876,-84.36522675,2022-12-18 07:39:41
IHOP,540 West Eaton Pike,,Richmond,IN,47374,,39.83243942,-84.81926727,2022-12-18 07:39:41
IHOP,9750 North By Northeast Blvd,,Fishers,IN,46037,,39.92932892,-86.02689362,2022-12-18 07:39:41
IHOP,1935 E. 53rd Street,,ANDERSON,IN,46013,,40.06142044,-85.65342712,2022-12-18 07:39:41
IHOP,6930 Miller Lane,,Dayton,OH,45414,,39.84749985,-84.19059753,2022-12-18 07:39:41
IHOP,7609 Old Troy Pike,,Huber Heights,OH,45424,,39.86449814,-84.13809967,2022-12-18 07:39:41
IHOP,3300 N. Chadam Lane,,Muncie,IN,47304,,40.21950912,-85.43019104,2022-12-18 07:39:41
IHOP,"50 West County Rd, 300 South",,Kokomo,IN,46902,,40.43376923,-86.12789917,2022-12-18 07:39:41
IHOP,3038 South Western Ave,,Marion,IN,46953,,40.53310013,-85.67421722,2022-12-18 07:39:41
IHOP,4215 South St,,Lafayette,IN,47905,,40.41701889,-86.82633972,2022-12-18 07:39:41
IHOP,3289 Elida Rd,,Lima,OH,45805,,40.76939011,-84.16433716,2022-12-18 07:39:41
IHOP,6839 West Jefferson Blvd,,Fort Wayne,IN,46804,,41.05236816,-85.22955322,2022-12-18 07:39:41
IHOP,4403 Coldwater Rd,,FORT WAYNE,IN,46825,,41.11885834,-85.13587189,2022-12-18 07:39:41
IHOP,1535 W Washington Center Rd,,FORT WAYNE,IN,46825,,41.1319313,-85.15924835,2022-12-18 07:39:41
IHOP,1201 W. North Street,,Kendallville,IN,46755-2841,,41.45190048,-85.28350067,2022-12-18 07:39:41
IHOP,12906 Deshler Rd.,,North Baltimore,OH,45872,,41.1731987,-83.64730072,2022-12-18 07:39:41
IHOP,2905 Ferndale Rd,,Elkhart,IN,46517,,41.62493134,-85.90737915,2022-12-18 07:39:41
IHOP,1347 Kinneman Dr,,Bourbonnais,IL,60914,,41.16353989,-87.84722137,2022-12-18 07:39:41
IHOP,4115 N. Main St,,Mishawaka,IN,46545,,41.69816971,-86.18302155,2022-12-18 07:39:41
IHOP,2726 Emerson Dr,,Elkhart,IN,46514-5644,,41.72320175,-85.98059845,2022-12-18 07:39:41
IHOP,1474 E 79th Ave,,Merrillville,IN,46410,,41.4742012,-87.3197403,2022-12-18 07:39:41
IHOP,2109 E. Empire St,,Bloomington,IL,61704,,40.48781967,-88.94593048,2022-12-18 07:39:41
IHOP,10151 Fremont Pike,,Perrysburg,OH,43551,,41.54436111,-83.59078979,2022-12-18 07:39:41
IHOP,5225 Franklin St,,Michigan City,IN,46360,,41.67189026,-86.89446259,2022-12-18 07:39:41
IHOP,1850 US Highway 41,,Schererville,IN,46375,,41.48899841,-87.47160339,2022-12-18 07:39:41
IHOP,6535 Airport Hwy,,Holland,OH,43528,,41.61194992,-83.69772339,2022-12-18 07:39:41
IHOP,4045 Talmadge Rd,,Toledo,OH,43623,,41.69247818,-83.64510345,2022-12-18 07:39:41
IHOP,1240 N Dixie Hwy,,Monroe,MI,48162,,41.92526627,-83.36470032,2022-12-18 07:39:41
IHOP,21055 West Rd,,Woodhaven,MI,48183,,42.13708115,-83.23944092,2022-12-18 07:39:41
IHOP,1213 N West Ave,,Jackson,MI,49202,,42.26403046,-84.42287445,2022-12-18 07:39:41
IHOP,4221 Ellsworth Rd,,Ypsilanti,MI,48197,,42.23175812,-83.67687988,2022-12-18 07:39:41
IHOP,2430 173rd St,,Lansing,IL,60438,,41.58142471,-87.55710602,2022-12-18 07:39:41
IHOP,20900 S Cicero Ave,,Matteson,IL,60443,,41.50909042,-87.73288727,2022-12-18 07:39:41
IHOP,5325 S Westnedge Ave,,Portage,MI,49002,,42.23965073,-85.58889771,2022-12-18 07:39:41
IHOP,1981 Pipestone Rd,,Benton Harbor,MI,49022,,42.08211136,-86.41751099,2022-12-18 07:39:41
IHOP,5946 N. Sheldon Rd,,Canton,MI,48187,,42.3250618,-83.47774506,2022-12-18 07:39:41
IHOP,3311 Broadway St,,Quincy,IL,62301,,39.93557358,-91.36219788,2022-12-18 07:39:41
IHOP,214 W. Camp St,,East Peoria,IL,61611,,40.67090988,-89.57884979,2022-12-18 07:39:41
IHOP,5012 N Big Hollow Rd,,Peoria,IL,61615,,40.74900055,-89.63330841,2022-12-18 07:39:41
IHOP,333 E. Jefferson Ave,,Detroit,MI,48226,,42.33053589,-83.04168701,2022-12-18 07:39:41
IHOP,24140 Ford Rd,,Dearborn Heights,MI,48127,,42.32723999,-83.27442169,2022-12-18 07:39:41
IHOP,14200 Middlebelt Rd,,Livonia,MI,48154,,42.38589859,-83.33322906,2022-12-18 07:39:41
IHOP,43317 Grand River Ave,,Novi,MI,48375,,42.48038864,-83.47467041,2022-12-18 07:39:41
IHOP,29202 Woodward Ave,,Royal Oak,MI,48073,,42.50485992,-83.17286682,2022-12-18 07:39:41
IHOP,31117 Little Mack Ave,,Roseville,MI,48066,,42.5261116,-82.90956116,2022-12-18 07:39:41
IHOP,3132 Rochester Road,,Troy,MI,48083,,42.56369019,-83.12928009,2022-12-18 07:39:41
IHOP,8075 Nemco Rd,,Brighton,MI,48116,,42.5463295,-83.79186249,2022-12-18 07:39:41
IHOP,2187 S Telegraph Rd,,Bloomfield Hills,MI,48302,,42.60662079,-83.29618835,2022-12-18 07:39:41
IHOP,13785 Lakeside Circle,,Sterling Heights,MI,48313,,42.62324142,-82.99162292,2022-12-18 07:39:41
IHOP,2771 E Grand River Ave,,East Lansing,MI,48823,,42.72689056,-84.45490265,2022-12-18 07:39:41
IHOP,3227 Miller Rd,,Flint,MI,48507,,42.9885788,-83.73975372,2022-12-18 07:39:41
IHOP,7800 W. Grand River Hwy,,Grand Ledge,MI,48837,,42.78639984,-84.6765976,2022-12-18 07:39:41
IHOP,5039 28th St SE,,Grand Rapids,MI,49512,,42.91321182,-85.54273224,2022-12-18 07:39:41
IHOP,2255 Tittabawassee Rd,,Saginaw,MI,48604,,43.47908783,-83.96088409,2022-12-18 07:39:41
IHOP,4767 Wilson Ave SW,,Grandville,MI,49418,,42.87997818,-85.76304626,2022-12-18 07:39:41
IHOP,2071 E Beltline Ave Ne,,Grand Rapids,MI,49525,,43.00011826,-85.59085846,2022-12-18 07:39:41
IHOP,3796 Alpine Ave Nw,,Comstock Park,MI,49321,,43.03276825,-85.68901062,2022-12-18 07:39:41
IHOP,3110 Beeline Rd,,Holland,MI,49424,,42.82482147,-86.09432983,2022-12-18 07:39:41
IHOP,5245 E Pickard St,,Mount Pleasant,MI,48858,,43.61220932,-84.74320221,2022-12-18 07:39:41
IHOP,5220 Harvey St,,Muskegon,MI,49444,,43.15418243,-86.20556641,2022-12-18 07:39:41
IHOP,938 Indianapolis Blvd,,Hammond,IN,46320,,41.69270325,-87.51976776,2022-12-18 07:39:41
IHOP,3760 N Halsted St,,Chicago,IL,60613,,41.95101166,-87.64994049,2022-12-18 07:39:41
IHOP,2818 W Diversey Ave,,Chicago,IL,60647,,41.9323082,-87.69825745,2022-12-18 07:39:41
IHOP,4821 Cal Sag Rd,,Crestwood,IL,60418,,41.65354156,-87.73979187,2022-12-18 07:39:41
IHOP,7601 S. Cicero Ave,,Chicago,IL,60652,,41.7553215,-87.73829651,2022-12-18 07:39:41
IHOP,100 Asbury Ave,,EVANSTON,IL,60202,,42.01980972,-87.69049835,2022-12-18 07:39:41
IHOP,5929 N Lincoln Ave,,Chicago,IL,60659,,41.98912048,-87.70471954,2022-12-18 07:39:41
IHOP,3003 S Cicero Ave,,Cicero,IL,60804,,41.83824158,-87.74327087,2022-12-18 07:39:41
IHOP,4210 N Cicero Ave,,Chicago,IL,60641,,41.95722961,-87.74777222,2022-12-18 07:39:41
IHOP,7240 W 79th St,,Bridgeview,IL,60455,,41.74835968,-87.80193329,2022-12-18 07:39:41
IHOP,9500 Skokie Blvd,,Skokie,IL,60077,,42.05387878,-87.7472229,2022-12-18 07:39:41
IHOP,7056 West Forest Preserve Dr,,Norridge,IL,60706,,41.95661926,-87.80500031,2022-12-18 07:39:41
IHOP,1040 W North Ave,Winston Plaza,Melrose Park,IL,60160,,41.90771866,-87.84671021,2022-12-18 07:39:41
IHOP,730 Janes Ave,,Bolingbrook,IL,60440,,41.72026062,-88.03826904,2022-12-18 07:39:41
IHOP,1137 S Mannheim Rd,,Westchester,IL,60154-2517,,41.86399841,-87.88215637,2022-12-18 07:39:41
IHOP,100 South Mannheim Rd,,Hillside,IL,60162,,41.86660004,-87.8832016,2022-12-18 07:39:41
IHOP,60 Hampton St,,Morris,IL,60450,,41.39300156,-88.42373657,2022-12-18 07:39:41
IHOP,583 S Route 59,,Aurora,IL,60504,,41.74784851,-88.20664978,2022-12-18 07:39:41
IHOP,7120 N. Mannheim Rd,,Rosemont,IL,60018,,42.00867081,-87.88706207,2022-12-18 07:39:41
IHOP,2850 US Highway 34,,OSWEGO,IL,60543,,41.6971817,-88.31941223,2022-12-18 07:39:41
IHOP,1671 W Lake St,,Addison,IL,60101,,41.94852829,-88.02802277,2022-12-18 07:39:41
IHOP,1700 E. Higgins Rd.,,SCHAUMBURG,IL,60173,,42.03878784,-88.03768158,2022-12-18 07:39:41
IHOP,2455 Augusta Way,,Aurora,IL,60506,,41.78939056,-88.37609863,2022-12-18 07:39:41
IHOP,125 Smith Rd,,Saint Charles,IL,60174,,41.92235947,-88.26299286,2022-12-18 07:39:41
IHOP,2250 Barrington Rd,,Hoffman Estates,IL,60169,,42.06235886,-88.14507294,2022-12-18 07:39:41
IHOP,700 N Milwaukee Ave,,Vernon Hills,IL,60061,,42.23997116,-87.9468689,2022-12-18 07:39:41
IHOP,101 S Randall Rd,,Elgin,IL,60123,,42.02970123,-88.33753204,2022-12-18 07:39:41
IHOP,4383 Venture Dr,,Peru,IL,61354,,41.36333847,-89.12705231,2022-12-18 07:39:41
IHOP,2662 Belvidere Rd,,Waukegan,IL,60085,,42.35007095,-87.86811829,2022-12-18 07:39:41
IHOP,6606 Northwest Hwy,,Crystal Lake,IL,60014,,42.22658157,-88.32615662,2022-12-18 07:39:41
IHOP,4228 W Elm St,,Mchenry,IL,60050,,42.34656906,-88.2804718,2022-12-18 07:39:41
IHOP,7200 75th St,,Kenosha,WI,53142,,42.56735992,-87.89466095,2022-12-18 07:39:41
IHOP,5800 Durand Ave,,Racine,WI,53406,,42.69760132,-87.84941864,2022-12-18 07:39:41
IHOP,6960 Argus Dr,,Rockford,IL,61107,,42.2720108,-88.98121643,2022-12-18 07:39:41
IHOP,1010 West Layton Ave,,Milwaukee,WI,53221,,42.95964813,-87.9247818,2022-12-18 07:39:41
IHOP,1110 Miller Park Way,,West Milwaukee,WI,53214,,43.02032852,-87.9692688,2022-12-18 07:39:41
IHOP,3000 Deerfield Rd,,Janesville,WI,53546,,42.71809006,-88.98068237,2022-12-18 07:39:41
IHOP,4614 E Washington Ave,,Madison,WI,53704,,43.13014984,-89.30638123,2022-12-18 07:39:41
IHOP,2229 Deming Way,,Middleton,WI,53562,,43.09753036,-89.52072906,2022-12-18 07:39:41
IHOP,1400 S Koeller St,,Oshkosh,WI,54902,,44.00603104,-88.58148956,2022-12-18 07:39:41
IHOP,346 Hwy 13,,Wisconsin Dells,WI,53965,,43.62450027,-89.78840637,2022-12-18 07:39:41
IHOP,4101 W Wisconsin Ave,,GRAND CHUTE,WI,54913,,44.27270889,-88.46765137,2022-12-18 07:39:41
IHOP,2415 S Oneida St,,Green Bay,WI,54304,,44.48559952,-88.06726837,2022-12-18 07:39:41
IHOP,2435 James St,,Coralville,IA,52241,,41.68470001,-91.60288239,2022-12-18 07:39:41
IHOP,3025 Village Park Dr,,Plover,WI,54467,,44.45236969,-89.52243805,2022-12-18 07:39:41
IHOP,2008 North Mountain Rd,,Wausau,WI,54401,,44.93284225,-89.66191864,2022-12-18 07:39:41
IHOP,7680 10th St North,,Oakdale,MN,55128,,44.96390915,-92.95030212,2022-12-18 07:39:41
IHOP,1935 Beam Ave,,Maplewood,MN,55109,,45.02835846,-93.01963043,2022-12-18 07:39:41
IHOP,55 Coon Rapids Blvd NW,55 Coon Rapids Blvd NW,Coon Rapids,MN,55448,,45.13513184,-93.26866913,2022-12-18 07:39:41
IHOP,5601 Xerxes Ave N,,Brooklyn Center,MN,55430,,45.05746841,-93.32208252,2022-12-18 07:39:41
IHOP,2231 Killebrew Dr,,Bloomington,MN,55425,,44.85137177,-93.24028778,2022-12-18 07:39:41
IHOP,6972 Gadwell St,,Apple Valley,MN,55124,,44.73347092,-93.20661926,2022-12-18 07:39:41
IHOP,2080 County Rd 42 West,,Burnsville,MN,55337,,44.74705124,-93.30619049,2022-12-18 07:39:41
IHOP,327 2Nd St S,,Waite Park,MN,56387,,45.55015182,-94.22035217,2022-12-18 07:39:41
IHOP,2402 Se Delaware Ave,,Ankeny,IA,50021,,41.70624924,-93.58177185,2022-12-18 07:39:41
IHOP,4807 Se 14th St,,Des Moines,IA,50320,,41.53939819,-93.59632111,2022-12-18 07:39:41
IHOP,6301 Douglas Ave,,Urbandale,IA,50322,,41.62974167,-93.70384979,2022-12-18 07:39:41
IHOP,5045 Bentley Drive,Suite 170,West Des Moines,IA,50265,,41.56090164,-93.7723999,2022-12-18 07:39:41
IHOP,150 SE Alice's Road,,Waukee,IA,50263,,41.61500168,-93.85289764,2022-12-18 07:39:41
IHOP,502 Brandilynn Blvd,,Cedar Falls,IA,50613,,42.48443985,-92.44103241,2022-12-18 07:39:41
IHOP,2009 CrossRds Blvd,,Waterloo,IA,50702,,42.46538162,-92.32272339,2022-12-18 07:39:41
IHOP,2545 Edgewood Rd SW,,Cedar Rapids,IA,52404,,41.95320892,-91.71552277,2022-12-18 07:39:41
IHOP,211 Highway 18 East,,Algona,IA,50511,,43.0838623,-94.23545837,2022-12-18 07:39:41
IHOP,1503 Cornhusker Rd,,Bellevue,NE,68123,,41.1583519,-95.93583679,2022-12-18 07:39:41
IHOP,7201 S 84th St,,La Vista,NE,68128,,41.18867874,-96.04229736,2022-12-18 07:39:41
IHOP,12423 W Center Rd,,Omaha,NE,68144,,41.23355865,-96.10884094,2022-12-18 07:39:41
IHOP,3804 North Belt Hwy,,St. Joseph,MO,64506,,39.80400848,-94.8156662,2022-12-18 07:39:41
IHOP,801 Gordon Dr,,Sioux City,IA,51101,,42.49011993,-96.40061188,2022-12-18 07:39:41
IHOP,125 N. Stewart Rd,,Liberty,MO,64068,,39.24684143,-94.45313263,2022-12-18 07:39:41
IHOP,6440 O Street,,Lincoln,NE,68510,,40.81391144,-96.63233948,2022-12-18 07:39:41
IHOP,4501 N 27th St,,Lincoln,NE,68521,,40.85670853,-96.68254852,2022-12-18 07:39:41
IHOP,2801 Pine Lake Road,,Lincoln,NE,68516,,40.73889923,-96.68070984,2022-12-18 07:39:41
IHOP,4337 N Chouteau Trafficway,,Kansas City,MO,64117,,39.17435837,-94.53456879,2022-12-18 07:39:41
IHOP,484 N. Main St.,,Lansing,KS,66043,,39.25680923,-94.89955139,2022-12-18 07:39:41
IHOP,2909 Burlington St,,North Kanas City,MO,64116,,39.15018463,-94.57962036,2022-12-18 07:39:41
IHOP,1135 Ne Coronado Dr,,Blue Springs,MO,64014,,39.02589417,-94.24755096,2022-12-18 07:39:41
IHOP,20100 E. Valley View Circle,,Independence,MO,64057,,39.0383606,-94.34394836,2022-12-18 07:39:41
IHOP,4149 Sterling Ave,,Kansas City,MO,64133,,39.04652023,-94.44714355,2022-12-18 07:39:41
IHOP,1919 Prairie Crossing St,,Kansas City,KS,66111,,39.12738037,-94.8208313,2022-12-18 07:39:41
IHOP,3928 Rainbow Blvd.,,Kansas City,KS,66103,,39.05636978,-94.61212158,2022-12-18 07:39:41
IHOP,10000 East 350 Hwy,,Raytown,MO,64138,,38.98651886,-94.46379852,2022-12-18 07:39:41
IHOP,5870 Antioch Rd,,Merriam,KS,66202,,39.02330399,-94.68722534,2022-12-18 07:39:41
IHOP,628 Ne 291 Hwy,,Lees Summit,MO,64086,,38.92301178,-94.36103058,2022-12-18 07:39:41
IHOP,15350 Shawnee Mission Pkwy,,Shawnee,KS,66217,,39.00899124,-94.76428223,2022-12-18 07:39:41
IHOP,9099 Metcalf Ave,,Overland Park,KS,66212,,38.96406937,-94.66751862,2022-12-18 07:39:41
IHOP,12128 S US Hwy 71,,Grandview,MO,64030,,38.90414047,-94.5250473,2022-12-18 07:39:41
IHOP,729 N Charles St,,Warrensburg,MO,64093,,38.77256012,-93.73417664,2022-12-18 07:39:41
IHOP,6936 W 119th St,,Overland Park,KS,66209,,38.91331863,-94.66641998,2022-12-18 07:39:41
IHOP,15410 W 119th St,,Olathe,KS,66062,,38.91381073,-94.76513672,2022-12-18 07:39:41
IHOP,8400 W 151st Street,,Overland Park,KS,66223,,38.85499954,-94.68460083,2022-12-18 07:39:41
IHOP,220 Peculiar Dr,,Belton,MO,64012,,38.81116104,-94.50437164,2022-12-18 07:39:41
IHOP,20014 W. 153rd St,,Olathe,KS,66062,,38.85152054,-94.81658936,2022-12-18 07:39:41
IHOP,4661 Bauer Farm Dr.,,Lawrence,KS,66049,,38.97220993,-95.30173492,2022-12-18 07:39:41
IHOP,3102 Iowa St,,Lawrence,KS,66046,,38.92771912,-95.2598114,2022-12-18 07:39:41
IHOP,551 NW US Hwy 24,,Topeka,KS,66608,,39.09040451,-95.66913605,2022-12-18 07:39:41
IHOP,4510 W 41st St,,Sioux Falls,SD,57106,,43.51530075,-96.7822876,2022-12-18 07:39:41
IHOP,1731 Sw Wanamaker Rd,,Topeka,KS,66604,,39.03475189,-95.76244354,2022-12-18 07:39:41
IHOP,101 Goodfood Place,,Manhattan,KS,66502,,39.19031906,-96.55938721,2022-12-18 07:39:41
IHOP,321 East Ash St,,Junction City,KS,66441,,39.01462173,-96.82476807,2022-12-18 07:39:41
IHOP,2831 W. 18th Ave,,Emporia,KS,66801,,38.42297363,-96.21856689,2022-12-18 07:39:41
IHOP,535 W. Diamond Dr,,Salina,KS,67401,,38.87765121,-97.61493683,2022-12-18 07:39:41
IHOP,2273 S 9th St,,Salina,KS,67401,,38.80091095,-97.61200714,2022-12-18 07:39:41
IHOP,4000 General Hays Rd,,Hays,KS,67601,,38.89823914,-99.31522369,2022-12-18 07:39:41
IHOP,1807 E 17th Ave,,Hutchinson,KS,67501,,38.07078171,-97.89498138,2022-12-18 07:39:41
IHOP,3505 N Rock Rd,,Wichita,KS,67226,,37.74697113,-97.24506378,2022-11-14 19:32:46
IHOP,11855 E Kellogg Dr,,Wichita,KS,67207,,37.67861176,-97.20040131,2022-12-18 07:39:41
IHOP,3204 N. Maize Rd,,Wichita,KS,67205,,37.73718262,-97.46248627,2022-12-18 07:39:41
IHOP,4870 S Washington Ave,,Wichita,KS,67216,,37.64773941,-97.33481598,2022-12-18 07:39:41
IHOP,515 S Ridge Circle,,Wichita,KS,67209,,37.67591858,-97.42630005,2022-12-18 07:39:41
IHOP,1906 N. Rock Rd,,Derby,KS,67037,,37.56760025,-97.24349976,2022-12-18 07:39:41
IHOP,1701 45th St SW,,Fargo,ND,58103,,46.85371017,-96.86244202,2022-12-18 07:39:41
IHOP,3951 32Nd Ave South,,Grand Forks,ND,58201,,47.8888588,-97.08538055,2022-12-18 06:25:07
IHOP,455 Sterling Lyon Parkway,,Winnipeg,MB,R3P 1E9,,49.84260178,-97.21126556,2022-12-18 06:25:07
IHOP,550 Disk Dr,,Rapid City,SD,57701,,44.10813141,-103.22274017,2022-12-18 06:25:14
IHOP,1938 Dell Range Blvd,,Cheyenne,WY,82009,,41.1606102,-104.79342651,2022-12-18 07:39:41
IHOP,2833 King Ave W,,Billings,MT,59102,,45.75571823,-108.58538818,2022-12-18 06:25:09
IHOP,1687 N. 19th Ave,,Bozeman,MT,59718,,45.69625092,-111.06317902,2022-12-18 06:25:09
IHOP,2463 S 25th E,,Ammon,ID,83406,,43.47537994,-111.98397827,2022-12-18 06:25:11
IHOP,3700 N Reserve St,,Missoula,MT,59808,,46.90372086,-114.0384903,2022-12-18 06:25:09
IHOP,2425 US Hwy 93 North,,Kalispell,MT,59901,,48.23859024,-114.329422,2022-12-18 06:25:09
IHOP,1818 Mayor Magrath Drive South,,Lethbridge,AB,T1K 2R5,,49.67418289,-112.80164337,2022-12-18 06:25:09
IHOP,3292 Dunmore Road Southeast,,Medicine Hat,AB,T1B 2R4,,50.00431824,-110.64375305,2022-12-18 06:25:09
IHOP,4122 Yellowstone Ave,,Pocatello,ID,83202,,42.90806961,-112.4658432,2022-12-18 06:25:07
IHOP,14706 E Indiana Ave,,Spokane,WA,99216,,47.67570114,-117.21031189,2022-12-18 06:25:08
IHOP,5403 E Sprague Ave,,SPOKANE,WA,99212,,47.65747833,-117.33152771,2022-12-18 06:25:08
IHOP,4209 N Division St,,Spokane,WA,99207,,47.69676971,-117.41153717,2022-12-18 06:25:08
IHOP,5015 N Rd 68,,Pasco,WA,99301,,46.27275848,-119.184021,2022-12-18 06:25:08
IHOP,6511 West Canal Dr,,Kennewick,WA,99336,,46.22634888,-119.20935059,2022-12-18 06:25:08
IHOP,7959 W Emerald St,,Boise,ID,83704,,43.61169815,-116.2808609,2022-12-18 06:25:08
IHOP,3599 S Federal Way,,Boise,ID,83705,,43.5694313,-116.18546295,2022-12-18 06:25:09
IHOP,3525 E Fairview Ave,,Meridian,ID,83642,,43.61917877,-116.35105896,2022-12-18 06:25:08
IHOP,500-70 Shawville Blvd.,Shawnessy Town Centre,Calgary,AB,T2Y 2Z3,,50.90466309,-114.0657959,2022-12-18 06:25:12
IHOP,901 64 Ave NE #4170,,Calgary,AB,T2E 7P4,,51.1086235,-114.03931427,2022-12-18 06:25:12
IHOP,2117 S Range Line Rd,,Joplin,MO,64804,,37.06856918,-94.47769165,2022-12-18 07:39:41
IHOP,3451 East US 412 Highway,,Siloam Springs,AR,72761,,36.18149567,-94.50939941,2022-12-18 07:39:41
IHOP,1410 Se Washington Blvd,,Bartlesville,OK,74006,,36.73271561,-95.9342804,2022-12-18 07:39:41
IHOP,9005 N. 121st East Ave.,,OWASSO,OK,74055,,36.28636169,-95.84773254,2022-12-18 07:39:41
IHOP,2020 S. Cherokee Streeet,,Catoosa,OK,74015,,36.16770172,-95.75942993,2022-12-18 07:39:41
IHOP,3130 S Memorial Dr,,Tulsa,OK,74145,,36.11801147,-95.88707733,2022-12-18 07:39:41
IHOP,1901 E. Hillside Dr,,Broken Arrow,OK,74012,,36.06312943,-95.7678299,2022-12-18 07:39:41
IHOP,11020 East 71st St,(71st & Garnet),Tulsa,OK,74133,,36.06045151,-95.85379028,2022-12-18 07:39:41
IHOP,7007 South Memorial Drive,,Tulsa,OK,74133,,36.06280136,-95.88583374,2022-12-18 07:39:41
IHOP,101 S Hwy 97,,Sand Springs,OK,74063,,36.13528824,-96.11457825,2022-12-18 07:39:41
IHOP,7123 S Lewis Ave,(Lewis & 71st),Tulsa,OK,74136,,36.05984879,-95.95739746,2022-12-18 07:39:41
IHOP,8222 E 103rd St South,Suite 100,Tulsa,OK,74133,,36.01369858,-95.88459778,2022-12-18 07:39:41
IHOP,12101 South Waco Ave,,Sapulpa,OK,74066,,35.98733139,-96.01587677,2022-12-18 07:39:41
IHOP,1600 North 32Nd St,,Muskogee,OK,74401,,35.7656517,-95.40189362,2022-12-18 07:39:41
IHOP,611 N Main St,,Stillwater,OK,74075,,36.12911987,-97.0582962,2022-12-18 07:39:41
IHOP,4125 W Owen K. Garriott Rd,,Enid,OK,73703,,36.39025116,-97.92933655,2022-12-18 07:39:41
IHOP,185 W Interstate Pkwy,,Shawnee,OK,74804,,35.3830986,-96.92655182,2022-12-18 07:39:41
IHOP,1220 E 2Nd St,,Edmond,OK,73034,,35.6523819,-97.46350861,2022-12-18 07:39:41
IHOP,1421 S Air Depot Blvd,,Midwest City,OK,73110,,35.4509697,-97.40650177,2022-12-18 07:39:41
IHOP,2624 W Memorial Rd,,Oklahoma City,OK,73134,,35.60821915,-97.56226349,2022-12-18 07:39:41
IHOP,5201 N Classen Blvd,,Oklahoma City,OK,73118,,35.52383041,-97.53543854,2022-12-18 07:39:41
IHOP,401 E. California Ave,,Oklahoma City,OK,73104,,35.46548843,-97.50588226,2022-12-18 07:39:41
IHOP,7708 Nw Expy,,Oklahoma City,OK,73132,,35.56293869,-97.65081787,2022-12-18 07:39:41
IHOP,2 W I-240 Service Rd,,Oklahoma City,OK,73139,,35.39126968,-97.51294708,2022-12-18 07:39:41
IHOP,701 S Meridian Ave,,Oklahoma City,OK,73108,,35.45888138,-97.60170746,2022-12-18 07:39:41
IHOP,2501 S Service Rd,,Moore,OK,73160,,35.31520844,-97.49088287,2022-12-18 07:39:41
IHOP,1049 12th Ave NE,,Norman,OK,73071,,35.23062897,-97.4230423,2022-12-18 07:39:41
IHOP,11312 Westmark Dr,,Yukon,OK,73099,,35.46569061,-97.72257233,2022-12-18 07:39:41
IHOP,840 Ed Noble Pkwy,,Norman,OK,73072,,35.20783997,-97.48249817,2022-12-18 07:39:41
IHOP,1068 E. State Hwy 152,,Mustang,OK,73064,,35.39122009,-97.70270538,2022-12-18 07:39:41
IHOP,901 Westside Dr,,Durant,OK,74701,,34.00612259,-96.40139771,2022-12-18 07:39:41
IHOP,2520 Veterans Blvd,,Ardmore,OK,73401,,34.20138168,-97.16188049,2022-12-18 07:39:41
IHOP,701 N US Hwy 75,,Denison,TX,75020,,33.7637291,-96.5865097,2022-12-18 07:39:41
IHOP,12252 Ruppe Rd,,Davis,OK,73030,,34.50915146,-97.17277527,2022-12-18 07:39:41
IHOP,2617 N US Hwy 75,,Sherman,TX,75090,,33.66485977,-96.60964966,2022-12-18 07:39:41
IHOP,1544 State Highway 9,,Norman,OK,73072,,35.18159103,-97.50000763,2022-12-18 07:39:41
IHOP,1410 West Wyatt Earp Blvd,,Dodge City,KS,67801,,37.75351715,-100.0319519,2022-12-18 06:25:08
IHOP,1001 Highway 40,,Oakley,KS,67748,,39.11891556,-100.81346893,2022-12-18 06:25:08
IHOP,2507 East Crestway Dr,,Garden City,KS,67846,,37.98104858,-100.84095764,2022-12-18 07:39:41
IHOP,2704 Centennial Blvd,,Liberal,KS,67901,,37.06877136,-100.92210388,2022-12-18 07:39:41
IHOP,4020 Nw Cache Rd,,Lawton,OK,73505,,34.62292099,-98.44434357,2022-12-18 07:39:41
IHOP,777 Casino Ave,,Thackerville,OK,73459,,33.75780487,-97.1320343,2022-12-18 07:39:41
IHOP,1004 Broad St,,Wichita Falls,TX,76301,,33.90541077,-98.49790192,2022-12-18 07:39:41
IHOP,402 N Interstate 35,,Gainesville,TX,76240,,33.62768173,-97.15260315,2022-12-18 07:39:41
IHOP,4025 Southwest Pkwy,,Wichita Falls,TX,76308,,33.85744095,-98.54659271,2022-12-18 07:39:41
IHOP,1711 East Interstate 40,,Amarillo,TX,79102,,35.19321823,-101.81858826,2022-12-18 07:39:41
IHOP,2100 S Western St,,Amarillo,TX,79109,,35.19002151,-101.88464355,2022-12-18 07:39:41
IHOP,2495 William Ave,,Limon,CO,80828,,39.27511978,-103.70880127,2022-12-18 07:39:41
IHOP,11133 S Parker Rd,,Parker,CO,80134,,39.51259995,-104.76487732,2022-12-18 07:39:41
IHOP,5749 Stetson Hill Blvd,,Colorado Springs,CO,80917,,38.9106102,-104.7213974,2022-12-18 07:39:41
IHOP,6005 Constitution Ave,,Colorado Springs,CO,80915,,38.8708992,-104.71662903,2022-12-18 07:39:41
IHOP,5820 S Parker Rd,,Aurora,CO,80015,,39.61185074,-104.81092834,2022-12-18 07:39:41
IHOP,13700 E Mississippi Ave,,Aurora,CO,80012,,39.69620132,-104.83267212,2022-12-18 07:39:41
IHOP,13650 E. Colfax Ave,Suite L,Aurora,CO,80011,,39.74010086,-104.82830048,2022-12-18 07:39:41
IHOP,6450 South Hwy 85-87,,Fountain,CO,80817,,38.73823166,-104.73290253,2022-12-18 07:39:41
IHOP,512 N Chelton Rd,,Colorado Springs,CO,80909,,38.84059906,-104.76692963,2022-12-18 07:39:41
IHOP,8065 N Academy Blvd,,Colorado Springs,CO,80920,,38.94816971,-104.80259705,2022-12-18 07:39:41
IHOP,575 Genoa Way,,Castle Rock,CO,80109,,39.41072083,-104.86839294,2022-12-18 07:39:41
IHOP,962 S 4th Ave,,Brighton,CO,80601,,39.97060013,-104.81790161,2022-12-18 07:39:41
IHOP,7017 S Clinton St,,Greenwood Village,CO,80112,,39.58885956,-104.88059235,2022-12-18 07:39:41
IHOP,4701 N Frwy Rd,,Pueblo,CO,81008,,38.32098007,-104.61666107,2022-12-18 07:39:41
IHOP,3090 N. Chestnut St,,Colorado Springs,CO,80907,,38.8764534,-104.83718109,2022-12-18 07:39:41
IHOP,2290 Southgate Rd,,Colorado Springs,CO,80906,,38.79853821,-104.81799316,2022-12-18 07:39:41
IHOP,2701 W 29th St,,Greeley,CO,80631,,40.3914299,-104.72512054,2022-12-18 07:39:41
IHOP,3730 Quebec St,,Denver,CO,80207,,39.76914978,-104.90099335,2022-12-18 07:39:41
IHOP,9565 S University Blvd,,Highlands Ranch,CO,80126,,39.54278183,-104.94171143,2022-12-18 07:39:41
IHOP,1595 S. Colorado Blvd,,Denver,CO,80222,,39.68769836,-104.94130707,2022-12-18 07:39:41
IHOP,3167 W. Colorado Avenue.,,Colorado Springs,CO,80904,,38.85469818,-104.87529755,2022-12-18 07:39:41
IHOP,2015 S Pueblo Blvd,,Pueblo,CO,81005,,38.23128891,-104.66284943,2022-12-18 07:39:41
IHOP,800 Englewood Pkwy,,Englewood,CO,80110,,39.65460968,-104.99607849,2022-12-18 07:39:41
IHOP,221 W. 104th Ave,,Northglenn,CO,80234,,39.88578033,-104.98945618,2022-12-18 07:39:41
IHOP,7733 W Long Dr,,Littleton,CO,80123,,39.61114883,-105.08255005,2022-12-18 07:39:41
IHOP,4730 W 120th Ave,,Westminster,CO,80020,,39.9135704,-105.04741669,2022-12-18 07:39:41
IHOP,389 S. Wadsworth Blvd,,Lakewood,CO,80226,,39.70945358,-105.08294678,2022-12-18 07:39:41
IHOP,5280 Wadsworth Bypass,,Arvada,CO,80002,,39.79275894,-105.07971954,2022-12-18 07:39:41
IHOP,5450 Stone Creek Circle,,Loveland,CO,80538,,40.40782166,-104.99829865,2022-12-18 07:39:41
IHOP,401 Center Dr,,Superior,CO,80027,,39.95785141,-105.17053223,2022-12-18 07:39:41
IHOP,2040 Ken Pratt Blvd,,Longmont,CO,80501,,40.14391708,-105.12835693,2022-12-18 07:39:41
IHOP,1502 Oakridge Dr,,Fort Collins,CO,80525,,40.52312851,-105.05185699,2022-12-18 07:39:41
IHOP,1675 28th St,,Boulder,CO,80301,,40.01623917,-105.25887299,2022-12-18 07:39:41
IHOP,108 Latigo Lane,,CAON CITY,CO,81212,,38.44764709,-105.18180084,2022-12-18 07:39:41
IHOP,701 N. Interstate 27,,Plainview,TX,79072,,34.18655014,-101.75084686,2022-12-18 07:39:41
IHOP,811 E. 21st St,,Clovis,NM,88101,,34.4189682,-103.19542694,2022-12-18 07:39:41
IHOP,5224 Seawall Blvd,,Galveston,TX,77551,,29.27119064,-94.81942749,2022-12-18 06:25:07
IHOP,401 Fm 2094 Rd,,Clear Lake Shores,TX,77565,,29.54027939,-95.02590942,2022-12-18 06:25:07
IHOP,6406 Interstate 45,,La Marque,TX,77568,,29.40329933,-95.03517151,2022-12-18 06:25:07
IHOP,7353 Fm 1960 Rd E,,Humble,TX,77346,,29.99872971,-95.16719818,2022-12-18 06:25:07
IHOP,803 E Nasa Pkwy,,Webster,TX,77598,,29.54487991,-95.10888672,2022-12-18 06:25:07
IHOP,3646 East Sam Houston Pkwy S,,Pasadena,TX,77505,,29.65510941,-95.15724945,2022-12-18 06:25:07
IHOP,13405 East Frwy,,Houston,TX,77015,,29.77132988,-95.18565369,2022-12-18 06:25:07
IHOP,3605 Spencer Hwy,,Pasadena,TX,77504,,29.66546059,-95.18827057,2022-12-18 06:25:07
IHOP,11222 Fuqua St,,Houston,TX,77089,,29.6133709,-95.21877289,2022-12-18 06:25:07
IHOP,23681 Church St,,Porter,TX,77365,,30.10333061,-95.23782349,2022-12-18 06:25:07
IHOP,23746 Eastex Freeway,,Kingwood,TX,77339,,30.0629158,-95.24801636,2022-12-18 06:25:07
IHOP,19711 Eastex Frwy,,Humble,TX,77338,,30.00259972,-95.26982117,2022-12-18 06:25:07
IHOP,6888 Gulf Fwy,,Houston,TX,77087,,29.7013092,-95.29662323,2022-12-18 06:25:07
IHOP,2829 Broadway St,,Pearland,TX,77581,,29.5559597,-95.26241302,2022-12-18 06:25:07
IHOP,15 E Crosstimbers St,,Houston,TX,77022,,29.82889938,-95.37927246,2022-12-18 06:25:07
IHOP,197 Greens Rd,,Houston,TX,77060,,29.94945908,-95.41506958,2022-12-18 06:25:07
IHOP,25619 IH 45 N,,Spring,TX,77380,,30.13351059,-95.44551849,2022-12-18 06:25:07
IHOP,1414 Cypress Station.,,Houston,TX,77090,,30.01988983,-95.43733215,2022-12-18 06:25:07
IHOP,1508 Interstate 45 S,,CONROE,TX,77304,,30.28520966,-95.46179199,2022-12-18 06:25:07
IHOP,2515 Southwest Fwy,,Houston,TX,77098,,29.72993088,-95.4168396,2022-12-18 06:25:07
IHOP,6508 Washington Ave,,Houston,TX,77007,,29.77658081,-95.4272995,2022-12-18 06:25:07
IHOP,3110 Silverlake Village Dr,,Pearland,TX,77584,,29.55298996,-95.38661194,2022-12-18 06:25:07
IHOP,12340 Northwest Freeway,,Houston,TX,77092,,29.83678627,-95.48613739,2022-12-18 06:25:07
IHOP,21312 Kuykendahl Rd,,Spring,TX,77379,,30.07753181,-95.5164032,2022-12-18 06:25:07
IHOP,8515 West Loop S,,Houston,TX,77096,,29.68848038,-95.45802307,2022-12-18 06:25:07
IHOP,5790 Fm 1960 Rd W,,Houston,TX,77069,,29.97854996,-95.51599121,2022-12-18 06:25:07
IHOP,5729 Westheimer Rd,,Houston,TX,77057,,29.73760986,-95.47840118,2022-12-18 06:25:07
IHOP,8607 Southwest Fwy,,Houston,TX,77074,,29.68660927,-95.53079987,2022-12-18 06:25:07
IHOP,22607 Tomball Pkwy,,Tomball,TX,77375,,30.01346016,-95.59194946,2022-12-18 06:25:07
IHOP,3008 Hwy 30 W,,Huntsville,TX,77340,,30.71884918,-95.57254028,2022-12-18 06:25:07
IHOP,2940 W Sam Houston Pkwy S,,Houston,TX,77042,,29.73306084,-95.55861664,2022-12-18 06:25:07
IHOP,11225 Katy Frwy,,Houston,TX,77079,,29.78384972,-95.58106995,2022-12-18 06:25:07
IHOP,9220 Hwy 6,,Missouri City,TX,77459,,29.53840065,-95.53160095,2022-12-18 06:25:07
IHOP,13335 Fm 1960 Rd W,,Houston,TX,77065,,29.91567039,-95.61682129,2022-12-18 06:25:07
IHOP,12725 Southwest Frwy,,Stafford,TX,77477,,29.63496017,-95.58473969,2022-12-18 06:25:07
IHOP,5911 Hwy 6 N,,Houston,TX,77084,,29.85829926,-95.64557648,2022-12-18 06:25:07
IHOP,6759 Hwy 6 S,Presidio Square,Houston,TX,77083,,29.70647049,-95.64347839,2022-12-18 06:25:07
IHOP,16530 Southwest Frwy,,Sugar Land,TX,77479,,29.59185982,-95.63230896,2022-12-18 06:25:07
IHOP,26301 Northwest Hwy,,Cypress,TX,77429,,29.97385025,-95.70355988,2022-12-18 06:25:07
IHOP,202 E Hwy 332,,Lake Jackson,TX,77566,,29.04107094,-95.4548111,2022-12-18 06:25:07
IHOP,19989 Katy Frwy,,Houston,TX,77094,,29.78223038,-95.71768188,2022-12-18 07:39:41
IHOP,22610 Bellaire Blvd,,Richmond,TX,77406,,29.6903553,-95.77126312,2022-12-18 07:39:41
IHOP,24515 Katy Frwy,,Katy,TX,77494,,29.78450012,-95.79650116,2022-12-18 07:39:41
IHOP,6737 Reading Rd,,Rosenberg,TX,77471,,29.54210091,-95.75630188,2022-12-18 07:39:41
IHOP,4434 State Highway 6 South,,College Station,TX,77845,,30.56185913,-96.26248932,2022-12-18 07:39:41
IHOP,758 North Earl Rudder Frwy,,Bryan,TX,77802,,30.66950035,-96.33439636,2022-12-18 07:39:41
IHOP,103 College Ave,,College Station,TX,77840,,30.62273979,-96.34143829,2022-12-18 07:39:41
IHOP,1220 Mockingbird Lane,,Sulphur Springs,TX,75482,,33.11955261,-95.5949707,2022-12-18 07:39:41
IHOP,7606 Ne Zac Lentz Pkwy,,Victoria,TX,77904,,28.86436081,-96.998909,2022-12-18 07:39:41
IHOP,111 S. Interstate Hwy 45,,Ennis,TX,75119,,32.33306885,-96.61566925,2022-12-18 07:39:41
IHOP,4109 South Jack Kultgen Expy,,Waco,TX,76706,,31.50915909,-97.14347839,2022-12-18 07:39:41
IHOP,1705 N I-35,,Bellmead,TX,76705,,31.6053009,-97.10479736,2022-12-18 07:39:41
IHOP,270 E. Interstate 20,,Terrell,TX,75160,,32.70138931,-96.27778625,2022-12-18 07:39:41
IHOP,7006 Wesley St,,Greenville,TX,75402,,33.0977211,-96.11071014,2022-12-18 07:39:41
IHOP,2616 Ridge Rd,,Rockwall,TX,75087,,32.89828873,-96.47032166,2022-12-18 07:39:41
IHOP,701 Interstate Hwy 30,,Mesquite,TX,75150,,32.83876038,-96.60064697,2022-12-18 07:39:41
IHOP,101 Grand Junction Blvd,,Mesquite,TX,75149,,32.76868057,-96.62538147,2022-12-18 07:39:41
IHOP,2592 W FM 544,,Wylie,TX,75098,,33.01110077,-96.57250214,2022-12-18 07:39:41
IHOP,1313 W Centerville Rd,,Garland,TX,75041,,32.85733032,-96.64782715,2022-12-18 07:39:41
IHOP,5175 N. President George Bush Hwy,,Garland,TX,75040,,32.96295166,-96.63989258,2022-12-18 07:39:41
IHOP,7317 Gaston Ave,,Dallas,TX,75214,,32.81225204,-96.73054504,2022-12-18 07:39:41
IHOP,1206 N Hwy 77,,Waxahachie,TX,75165,,32.41857147,-96.84001923,2022-12-18 07:39:41
IHOP,790 N. I-35 E,,Lancaster,TX,75146,,32.59804916,-96.82171631,2022-12-18 07:39:41
IHOP,7830 N. Central Expy,,Dallas,TX,75206,,32.85939026,-96.76953125,2022-12-18 07:39:41
IHOP,933 N Central Expy,,Plano,TX,75075,,33.01411057,-96.70935059,2022-12-18 07:39:41
IHOP,4770 Vista Wood Blvd,,Dallas,TX,75232,,32.68658447,-96.82505035,2022-12-18 07:39:41
IHOP,1010 S Central Expy,,Richardson,TX,75080,,32.93923187,-96.74790192,2022-12-18 07:39:41
IHOP,315 Central Expy North,,Allen,TX,75013,,33.10686111,-96.67669678,2022-12-18 07:39:41
IHOP,1960 N Central Expy,,Mc Kinney,TX,75070,,33.21908188,-96.63456726,2022-12-18 07:39:41
IHOP,1626 W Mockingbird Lane,,Dallas,TX,75235,,32.82184982,-96.8572998,2022-12-18 07:39:41
IHOP,4804 W Plano Pkwy,,Plano,TX,75093,,33.01554108,-96.79332733,2022-12-18 07:39:41
IHOP,205 E Fm 1382,,Cedar Hill,TX,75104,,32.59738159,-96.93974304,2022-12-18 07:39:41
IHOP,4333 DFW Turnpike,,Dallas,TX,75211,,32.76789093,-96.89697266,2022-12-18 07:39:41
IHOP,3910 Belt Line Rd,,Addison,TX,75001,,32.95275879,-96.84922028,2022-12-18 07:39:41
IHOP,2310 Stemmons Trail,,Dallas,TX,75220,,32.86034012,-96.88970184,2022-12-18 07:39:41
IHOP,2480 Preston Rd,,Frisco,TX,75034,,33.09944153,-96.80457306,2022-12-18 07:39:41
IHOP,2825 Forest Lane,,Dallas,TX,75234,,32.90940094,-96.88261414,2022-12-18 07:39:41
IHOP,4103 S Carrier Pkwy,,Grand Prairie,TX,75052,,32.67412949,-97.0094986,2022-12-18 07:39:41
IHOP,2625 Old Denton Rd,,Carrollton,TX,75007,,32.98451996,-96.91085815,2022-12-18 07:39:41
IHOP,9509 Dallas Pkwy,,Frisco,TX,75034,,33.15684891,-96.84107971,2022-12-18 07:39:41
IHOP,4801 Hwy 121,,The Colony,TX,75056,,33.06771851,-96.88687897,2022-12-18 07:39:41
IHOP,1375 US Highway 380,,Frisco,TX,75033,,33.21910095,-96.88020325,2022-12-18 07:39:41
IHOP,900 Market Place,,Irving,TX,75063,,32.91709137,-96.95995331,2022-12-18 07:39:41
IHOP,2345 S Stemmons Expy,,Lewisville,TX,75067,,33.00691986,-96.97464752,2022-12-18 07:39:41
IHOP,1801 N Belt Line Rd,,Irving,TX,75061,,32.83312988,-96.99420166,2022-12-18 07:39:41
IHOP,2610 N International Pkwy,Terminal E; Gate 8,Dallas,TX,75261,,32.89035797,-97.03662109,2022-12-18 07:39:41
IHOP,2060 N State Hwy 360,,Grand Prairie,TX,75050,,32.78416061,-97.05882263,2022-12-18 07:39:41
IHOP,5252 S. State Hwy 360,,Grand Prairie,TX,75052,,32.64453888,-97.06156921,2022-12-18 07:39:41
IHOP,2600 Long Prairie Rd,,Flower Mound,TX,75022,,33.01992035,-97.0701828,2022-12-18 07:39:41
IHOP,1315 Wet N Wild Way,,Arlington,TX,76011,,32.76050949,-97.09181213,2022-12-18 07:39:41
IHOP,2710 State Hwy 121,,Euless,TX,76039,,32.87641144,-97.09802246,2022-12-18 07:39:41
IHOP,3317 E State Hwy 114,,Southlake,TX,76092,,32.93647003,-97.0996933,2022-12-18 07:39:41
IHOP,2309 Airport Fwy,,Euless,TX,76040,,32.83676147,-97.12065125,2022-12-18 07:39:41
IHOP,1105 W Interstate Hwy 20,,Arlington,TX,76017,,32.67802811,-97.12419891,2022-12-18 07:39:41
IHOP,1951 Hwy 287 N,,Mansfield,TX,76063,,32.59526062,-97.14730072,2022-12-18 07:39:41
IHOP,3200 North Interstate 35,,Denton,TX,76201,,33.22306824,-97.17071533,2022-12-18 07:39:41
IHOP,8640 E Frwy (I-30),,Fort Worth,TX,76120,,32.75905991,-97.16803741,2022-12-18 07:39:41
IHOP,6240 Precinct Line Rd,,Hurst,TX,76054,,32.8609314,-97.18557739,2022-12-18 07:39:41
IHOP,5950 Interstate 20 W,,Arlington,TX,76017,,32.67224121,-97.19976807,2022-12-18 07:39:41
IHOP,700 N. Tarrant Parkway,Suite 108,Keller,TX,76248,,32.89889908,-97.2385025,2022-12-18 07:39:41
IHOP,5050 State Hwy 114,,Northlake,TX,76262,,33.02774811,-97.26963043,2022-12-18 07:39:41
IHOP,203 I-35 Hwy Ne,,Hillsboro,TX,76645,,32.01062012,-97.09410095,2022-12-18 07:39:41
IHOP,3860 NE Loop 820,,Fort Worth,TX,76137,,32.8387413,-97.29167938,2022-12-18 07:39:41
IHOP,12750 North Frwy,,Fort Worth,TX,76177,,32.95729828,-97.30883789,2022-12-18 07:39:41
IHOP,908 N Burleson Blvd,,Burleson,TX,76028,,32.56129837,-97.31773376,2022-12-18 07:39:41
IHOP,1664 S University Dr,,Fort Worth,TX,76107,,32.72623062,-97.36180115,2022-12-18 07:39:41
IHOP,3700 Altamesa Blvd,,Fort Worth,TX,76133,,32.65071869,-97.37290192,2022-12-18 07:39:41
IHOP,4600 W. Bailey  Boswell Rd.,,Fort Worth,TX,76179,,32.88140106,-97.39360046,2022-12-18 07:39:41
IHOP,5901 SW Loop 820,,Fort Worth,TX,76132,,32.68222046,-97.41251373,2022-12-18 07:39:41
IHOP,5920 Quebec St,,Fort Worth,TX,76135,,32.80567932,-97.42668152,2022-12-18 07:39:41
IHOP,2234 N Main St,,Cleburne,TX,76033,,32.38426208,-97.39089203,2022-12-18 07:39:41
IHOP,801 S Hwy 287,,Decatur,TX,76234,,33.22948074,-97.59290314,2022-12-18 07:39:41
IHOP,2015 S Cherry Lane,,White Settlement,TX,76108,,32.73931122,-97.45139313,2022-12-18 07:39:41
IHOP,2005 S Main St,,Weatherford,TX,76086,,32.73171997,-97.79058075,2022-12-18 07:39:41
IHOP,3750 S Clack St,,Abilene,TX,79606,,32.40586853,-99.76609039,2022-12-18 07:39:41
IHOP,1627 University Ave,,Lubbock,TX,79401,,33.57852936,-101.87030029,2022-12-18 07:39:41
IHOP,3911 S Loop 289,,Lubbock,TX,79423,,33.52867889,-101.89852905,2022-12-18 07:39:41
IHOP,2025 Main St.,,Alamosa,CO,81101,,37.47185516,-105.88623047,2022-12-18 07:39:41
IHOP,3913 Bell Dr,,Temple,TX,76502,,31.09160042,-97.38847351,2022-12-18 07:39:41
IHOP,700 West Central Texas Expy,,Killeen,TX,76541,,31.10622025,-97.7454834,2022-12-18 07:39:41
IHOP,170 East Central Texas Expy,,Harker Heights,TX,76548,,31.07263947,-97.6754837,2022-12-18 07:39:41
IHOP,750 South Interstate 35,,Georgetown,TX,78628,,30.64184952,-97.68914795,2022-12-18 07:39:41
IHOP,2002 N Ih 35,,Round Rock,TX,78681,,30.52919006,-97.69168091,2022-12-18 07:39:41
IHOP,800 East Whitestone Blvd,,Cedar Park,TX,78613,,30.52309036,-97.8212738,2022-12-18 07:39:41
IHOP,18709 Limestone Commercial Dr,,Pflugerville,TX,78660,,30.4673748,-97.59593201,2022-12-18 07:39:41
IHOP,13201 Ranch Rd 620 N,,Austin,TX,78717,,30.4676609,-97.7953186,2022-12-18 07:39:41
IHOP,14310 North Ih-35,,Austin,TX,78728,,30.43375969,-97.67066193,2022-12-18 07:39:41
IHOP,11654 Research Blvd,,Austin,TX,78759,,30.41658974,-97.74726868,2022-12-18 07:39:41
IHOP,7710 North FM 620 Rd.,,Austin,TX,78726,,30.41010094,-97.85079956,2022-12-18 07:39:41
IHOP,901 E Koenig Lane,,Austin,TX,78751,,30.32056046,-97.70986176,2022-12-18 07:39:41
IHOP,707 E Cesar Chavez St,,Austin,TX,78701,,30.2610302,-97.73731995,2022-12-18 07:39:41
IHOP,1101 S Mo Pac Expy,,Austin,TX,78746,,30.26523972,-97.78147888,2022-12-18 07:39:41
IHOP,8801 South Interstate Hwy 35,,Austin,TX,78744,,30.1679306,-97.78414917,2022-12-18 07:39:41
IHOP,165 Hargraves Drive #100,,AUSTIN,TX,77837,,30.20656395,-97.97572327,2022-12-18 07:39:41
IHOP,5401 Kyle Center Dr,,Kyle,TX,78640,,30.01099396,-97.86277008,2022-12-18 07:39:41
IHOP,4302 College Hills Blvd,,San Angelo,TX,76904,,31.41945076,-100.4851532,2022-12-18 07:39:41
IHOP,2507 West Loop 250 N,,Midland,TX,79705,,32.03617859,-102.11715698,2022-12-18 07:39:41
IHOP,1429 Sidney Baker,,Kerrville,TX,78028,,30.05907059,-99.1265564,2022-12-18 07:39:41
IHOP,1113 N IH 35,,San Marcos,TX,78666,,29.88541985,-97.92137909,2022-12-18 07:39:41
IHOP,817 Interstate 35 N,,New Braunfels,TX,78130,,29.69729996,-98.09890747,2022-12-18 07:39:41
IHOP,2777 N Hwy 123 Byp,,Seguin,TX,78155,,29.60133934,-97.95133972,2022-12-18 07:39:41
IHOP,17220 Interstate Hwy 35 North,,Schertz,TX,78154,,29.59654045,-98.28180695,2022-12-18 07:39:41
IHOP,6831 North Loop 1604 East,,San Antonio,TX,78247,,29.59407043,-98.35231018,2022-12-18 07:39:41
IHOP,8107 Agora Pkwy,,Selma,TX,78154,,29.56290054,-98.32811737,2022-12-18 07:39:41
IHOP,17242 Autry Road,,San Antonio,TX,78247,,29.59867859,-98.41986847,2022-12-18 07:39:41
IHOP,203 N. Loop 1604,,San Antonio,TX,78232,,29.60984039,-98.49569702,2022-12-18 07:39:41
IHOP,14424 San Pedro Ave,,San Antonio,TX,78232,,29.5730896,-98.47869873,2022-12-18 07:39:41
IHOP,5821 Worth Pkwy,,San Antonio,TX,78257,,29.61319923,-98.59960175,2022-12-18 07:39:41
IHOP,6519 FM 78,,San Antonio,TX,78244,,29.48110008,-98.36025238,2022-12-18 07:39:41
IHOP,12780 W Ih 10,,San Antonio,TX,78230,,29.56200981,-98.5917511,2022-12-18 07:39:41
IHOP,9911 W Interstate 10,,San Antonio,TX,78230,,29.53370094,-98.5633316,2022-12-18 07:39:41
IHOP,3820 Broadway St,,San Antonio,TX,78209,,29.46183968,-98.46591949,2022-12-18 07:39:41
IHOP,6031 West Ih 10,,San Antonio,TX,78201,,29.48550987,-98.53623199,2022-12-18 07:39:41
IHOP,11613 Bandera Rd,,San Antonio,TX,78250,,29.54985046,-98.66472626,2022-12-18 07:39:41
IHOP,"849 E. Commerce St., Ste. 657",,San Antonio,TX,78205,,29.423563,-98.48535156,2022-12-18 07:39:41
IHOP,5920 Bandera Rd,,Leon Valley,TX,78238,,29.48288918,-98.6026535,2022-12-18 07:39:41
IHOP,739 Hot Wells Blvd,,San Antonio,TX,78223,,29.36903,-98.45342255,2022-12-18 07:39:41
IHOP,10622 Culebra Rd,,San Antonio,TX,78251,,29.49193954,-98.70063782,2022-12-18 07:39:41
IHOP,3115 Se Military Dr,,San Antonio,TX,78223,,29.35223961,-98.44142151,2022-12-18 07:39:41
IHOP,107 SW Loop 410,,San Antonio,TX,78245,,29.43618011,-98.64746094,2022-12-18 07:39:41
IHOP,3523 Roosevelt Ave,,San Antonio,TX,78214,,29.35437965,-98.48171234,2022-12-18 07:39:41
IHOP,1500 SW Loop 410,,San Antonio,TX,78227,,29.41922951,-98.64864349,2022-12-18 07:39:41
IHOP,2634 SW Military Dr,,San Antonio,TX,78224,,29.35622025,-98.53833008,2022-12-18 07:39:41
IHOP,1133 W Oaklawn Rd,,Pleasanton,TX,78064,,28.95359612,-98.49493408,2022-12-18 07:39:41
IHOP,301 East Interstate 20,,Midland,TX,79701,,31.97466087,-102.06761169,2022-12-18 07:39:41
IHOP,2973 John Ben Shepperd Pkwy,,Odessa,TX,79762,,31.88330078,-102.33126831,2022-12-18 07:39:41
IHOP,2203 Veterans Blvd,,Del Rio,TX,78840,,29.38949966,-100.90466309,2022-12-18 07:39:41
IHOP,3600 N. Lovington Hwy,,Hobbs,NM,88240,,32.73900986,-103.15908051,2022-12-18 07:39:41
IHOP,794 Lucky Eagle Dr,,Eagle Pass,TX,78852,,28.71087646,-100.49126434,2022-12-18 07:39:41
IHOP,2529 South Canal St,,Carlsbad,NM,88220,,32.39136887,-104.2203598,2022-12-18 07:39:41
IHOP,1830 Hwy 181,,Portland,TX,78374,,27.89213753,-97.30963898,2022-12-18 07:39:41
IHOP,5202 S Padre Island Dr,,Corpus Christi,TX,78411,,27.71204948,-97.37682343,2022-12-18 07:39:41
IHOP,2037 S Padre Island Dr,,Corpus Christi,TX,78416,,27.7371006,-97.43379974,2022-12-18 07:39:41
IHOP,3300 E. Main St.,,Alice,TX,78332,,27.76779556,-98.03908539,2022-12-18 07:39:41
IHOP,2612 S. 77 Expy,,Kingsville,TX,78363,,27.49230957,-97.84525299,2022-12-18 07:39:41
IHOP,7503 San Dario Ave,,Laredo,TX,78045,,27.57036018,-99.5018692,2022-12-18 07:39:41
IHOP,1102 N ED CAREY DR,,HARLINGEN,TX,78550,,26.1687603,-97.67627716,2022-12-18 07:39:41
IHOP,2105 W Lincoln St,,Harlingen,TX,78552,,26.1812706,-97.71898651,2022-12-18 07:39:41
IHOP,2716 W. University Dr,,Edinburg,TX,78539,,26.30497932,-98.19116211,2022-12-18 07:39:41
IHOP,517 E Trenton Rd,,Edinburg,TX,78539,,26.2614975,-98.16533661,2022-12-18 07:39:41
IHOP,4321 N 10th St,,Mc Allen,TX,78504,,26.2427597,-98.22379303,2022-12-18 07:39:41
IHOP,314 N. Shary Rd,,Mission,TX,78572,,26.20401955,-98.28661346,2022-12-18 07:39:41
IHOP,1900 S 10th St,,Mc Allen,TX,78503,,26.18722916,-98.23316193,2022-12-18 07:39:41
IHOP,1601 S Cage Blvd,,Pharr,TX,78577,,26.17765045,-98.18650055,2022-12-18 07:39:41
IHOP,2201 West Expy 83,,Weslaco,TX,78599,,26.17196083,-98.01177979,2022-12-18 07:39:41
IHOP,"Carretera Camino A Huinala No. 100, Local -P05",Colonia Valle de Huinala,Apodaca,MX-NLE,66640,,25.7475605,-100.20101929,2022-12-18 07:39:41
IHOP,Paseo De Leones 99 Local 101,Colonia Cumbres Elite 64349,Monterrey,MX-NLE,64100,,25.7385025,-100.40505981,2022-12-18 07:39:41
IHOP,Eugenio Garza Sada 602 Sur,Colonia Arroyo Seco,Monterrey,MX-NLE,64740,,25.63837242,-100.28697968,2022-12-18 07:39:41
IHOP,Calle La Alianza #100-B,Colonia del Valle,Garza Garcia,MX-NLE,66265,,25.65346336,-100.35868835,2022-12-18 07:39:41
IHOP,2430 Pablo Kisel Blvd,,Brownsville,TX,78526,,25.95743942,-97.50569916,2022-12-18 06:25:16
IHOP,1004 Main Street,,Brownsville,TX,78526,,25.94849968,-97.48179626,2022-12-18 06:25:16
IHOP,Blvd Eulaio Gutierrez Trevino #2275,Col. Ex Hacienda San Jose de Los Cerritos,Saltillo,MX-COA,25293,,25.46196747,-100.95217896,2022-12-18 06:25:16
IHOP,2304 N Main St,,Roswell,NM,88201,,33.4210701,-104.52340698,2022-12-18 07:39:41
IHOP,105 S 1st St,,Artesia,NM,88210,,32.84207916,-104.3971405,2022-12-18 07:39:41
IHOP,3301 Cerrillos Rd,,Santa Fe,NM,87507,,35.64965057,-106.00160217,2022-12-18 07:39:41
IHOP,7500 Menaul Blvd NE,,Albuquerque,NM,87110,,35.10889816,-106.56096649,2022-12-18 07:39:41
IHOP,1400 Mercantile Ave,,Albuquerque,NM,87107,,35.1352005,-106.61112976,2022-12-18 07:39:41
IHOP,5221 Ouray Rd NW,,ALBUQUERQUE,NM,87120,,35.11291885,-106.70098877,2022-12-18 07:39:41
IHOP,1413 South White Sands Blvd,,Alamogordo,NM,88310,,32.87702942,-105.96006012,2022-12-18 07:39:41
IHOP,1580 Main St NW,,Los Lunas,NM,87031,,34.814785,-106.75189209,2022-12-18 07:39:41
IHOP,1889 N. Zaragoza Rd,,El Paso,TX,79936,,31.76015091,-106.27134705,2022-12-18 06:25:11
IHOP,1341 George Dieter Dr,,El Paso,TX,79936,,31.72668076,-106.30336761,2022-12-18 06:25:11
IHOP,4500 Hondo Pass,,El Paso,TX,79904,,31.86931229,-106.4389267,2022-12-18 06:25:11
IHOP,6080 Gateway East,,El Paso,TX,79905,,31.78079033,-106.41034698,2022-12-18 06:25:11
IHOP,655 Sunland Park Dr,,El Paso,TX,79912,,31.81988907,-106.54364014,2022-12-18 06:25:11
IHOP,7061 S. Desert Blvd,,Canutillo,TX,79835,,31.91248131,-106.58678436,2022-12-18 06:25:11
IHOP,2900 N Telshor Blvd,,Las Cruces,NM,88011,,32.35177994,-106.76422119,2022-12-18 07:39:41
IHOP,351 E. University Ave,,Las Cruces,NM,88005,,32.28248978,-106.76586151,2022-12-18 07:39:41
IHOP,813 E. Pine St,,Deming,NM,88030,,32.26958084,-107.7498703,2022-12-18 07:39:41
IHOP,7945 E Broadway Blvd,,Tucson,AZ,85710,,32.22145081,-110.8234024,2022-12-18 07:39:41
IHOP,2420 Hwy 6 And 50,,Grand Junction,CO,81505,,39.09046936,-108.60481262,2022-12-18 07:39:41
IHOP,100 Gateway Blvd,,Rock Springs,WY,82901,,41.57901001,-109.24922943,2022-12-18 07:39:41
IHOP,3546 E Main St,,Farmington,NM,87402,,36.75109863,-108.15886688,2022-12-18 07:39:41
IHOP,2654 E. Route 66,,Flagstaff,AZ,86004,,35.20817947,-111.61064148,2022-12-18 07:39:41
IHOP,980 West 200 North,,Cedar City,UT,84720,,37.68136978,-113.07579041,2022-12-18 06:25:07
IHOP,742 South 1270 West,,Payson,UT,84651,,40.03239822,-111.75460052,2022-12-18 06:25:07
IHOP,1852 West 500 S,,Springville,UT,84663,,40.16059875,-111.64404297,2022-12-18 06:25:07
IHOP,850 W 1250 S,,Orem,UT,84058,,40.27492905,-111.71565247,2022-12-18 06:25:07
IHOP,925 W State Rd,,American Fork,UT,84003,,40.3868103,-111.8224411,2022-12-18 06:25:07
IHOP,1194 Draper Pkwy.,,DRAPER,UT,84020,,40.52799988,-111.85690308,2022-12-18 06:25:07
IHOP,10815 S State St,,Sandy,UT,84070,,40.55493164,-111.89038086,2022-12-18 06:25:07
IHOP,4550 S Highland Dr,,Holladay,UT,84117,,40.67253113,-111.84133148,2022-12-18 06:25:07
IHOP,5277 S State St,,Murray,UT,84107,,40.65660095,-111.88778687,2022-12-18 06:25:07
IHOP,7188 Plaza Center Dr,,West Jordan,UT,84084,,40.62062073,-111.97966003,2022-12-18 06:25:07
IHOP,307 West 2100 S,,Salt Lake City,UT,84115,,40.72515869,-111.90006256,2022-12-18 06:25:07
IHOP,635 East 400 South,,Salt Lake City,UT,84102,,40.760952,-111.87310791,2022-12-18 06:25:07
IHOP,3383 Decker Lake Dr,,West Valley City,UT,84119,,40.69873047,-111.94699097,2022-12-18 06:25:07
IHOP,3122 South 5600 West,,West Valley City,UT,84120,,40.7034111,-112.02552032,2022-12-18 06:25:07
IHOP,2487 South 800 West,,Woods Cross,UT,84087,,40.86319351,-111.90164185,2022-12-18 06:25:07
IHOP,388 North Market Place Dr,,Centerville,UT,84014,,40.92105865,-111.88748169,2022-12-18 06:25:07
IHOP,920 N Main St,,Layton,UT,84041,,41.07371902,-111.97833252,2022-12-18 06:25:07
IHOP,947 W Riverdale Rd,,Riverdale,UT,84405,,41.17668915,-112.00216675,2022-12-18 06:25:07
IHOP,189 12th St,PO Box 13375,Ogden,UT,84412,,41.24414825,-111.97606659,2022-12-18 06:25:07
IHOP,1040 N Main St,,Logan,UT,84341,,41.7507019,-111.83412933,2022-12-18 06:25:07
IHOP,1944 Blue Lakes Blvd N,,Twin Falls,ID,83301,,42.59661102,-114.45436859,2022-12-18 06:25:07
IHOP,1420 Nampa Caldwell Blvd,,Nampa,ID,83651,,43.6024704,-116.59805298,2022-12-18 06:25:08
IHOP,30 NE Bend River Mall Drive,,Bend,OR,97701,,44.08419037,-121.30532837,2022-12-18 06:25:08
IHOP,2704 Triple L Loop,,Ellensburg,WA,98926,,47.00813675,-120.58903503,2022-12-18 06:25:08
IHOP,"1950 Harvey Avenue, #200",,Kelowna,BC,V1Y 8J8,,49.88276291,-119.45083618,2022-12-18 06:25:08
IHOP,1433 Nw Sammamish Rd,,Issaquah,WA,98027,,47.55120087,-122.06004333,2022-12-18 06:25:08
IHOP,925 Frontier Circle East Suite 200,,Lake Stevens,WA,98258,,48.00550079,-122.10749817,2022-12-18 06:25:08
IHOP,27149 185th Ave SE,,Covington,WA,98042,,47.35837936,-122.0980072,2022-12-18 06:25:08
IHOP,14747 NE 20th St,,Bellevue,WA,98007,,47.62717056,-122.14363098,2022-12-18 06:25:08
IHOP,16518 Twin Lakes Ave,,Marysville,WA,98271,,48.14662933,-122.18903351,2022-12-18 06:25:08
IHOP,3710 Broadway,,Everett,WA,98201,,47.96821976,-122.20165253,2022-12-18 06:25:08
IHOP,10301 Evergreen Way,,Everett,WA,98204,,47.90436935,-122.24363708,2022-12-18 06:25:08
IHOP,610 Rainier Ave S,,Renton,WA,98057,,47.47463989,-122.21420288,2022-12-18 06:25:08
IHOP,24060 104th Ave SE,,Kent,WA,98031,,47.38539886,-122.20189667,2022-12-18 06:25:08
IHOP,4300 196th St SW,,Lynnwood,WA,98036,,47.82057953,-122.291008,2022-12-18 06:25:08
IHOP,45466 Yale Rd West,,Chilliwack,BC,V2P3Z8,,49.14736938,-121.96475983,2022-12-18 06:25:08
IHOP,17250 Southcenter Pkwy,,Tukwila,WA,98188,,47.44902039,-122.26213837,2022-12-18 06:25:08
IHOP,1044 Outlet Collection Way SW,,Auburn,WA,98001,,47.29629898,-122.24461365,2022-12-18 06:25:08
IHOP,950 E Madison St,,Seattle,WA,98122,,47.61185074,-122.31967163,2022-12-18 06:25:08
IHOP,20402 International Blvd,,Seatac,WA,98198,,47.41878891,-122.29651642,2022-12-18 06:25:08
IHOP,10002 Aurora Ave N,,Seattle,WA,98133,,47.70233917,-122.34438324,2022-12-18 06:25:08
IHOP,2001 Frwy Dr,,Mount Vernon,WA,98273,,48.43841171,-122.34693909,2022-12-18 06:25:08
IHOP,178 Sw Campus Dr,,Federal Way,WA,98023,,47.29018021,-122.33566284,2022-12-18 06:25:08
IHOP,275 S Green Springs Dr,,Washington,UT,84780,,37.12641907,-113.52272797,2022-12-18 06:25:07
IHOP,5280 East Craig Rd,,Las Vegas,NV,89115,,36.24087906,-115.05792999,2022-12-18 06:25:09
IHOP,352 N Nellis Blvd,,Las Vegas,NV,89110,,36.16559982,-115.06170654,2022-12-18 06:25:09
IHOP,2026 W Craig Rd,,North Las Vegas,NV,89032,,36.23987961,-115.17241669,2022-12-18 06:25:09
IHOP,5970 Centennial Center Blvd,,Las Vegas,NV,89149,,36.27127075,-115.26319122,2022-12-18 06:25:09
IHOP,4860 Boulder Hwy,,Las Vegas,NV,89121,,36.1156311,-115.06841278,2022-12-18 06:25:09
IHOP,6870 W Cheyenne Ave,,Las Vegas,NV,89108,,36.21934891,-115.24492645,2022-12-18 06:25:09
IHOP,1201 S Boulder Hwy,,Henderson,NV,89015,,36.01675034,-114.95848083,2022-12-18 06:25:09
IHOP,1809 S Las Vegas Blvd,,Las Vegas,NV,89104,,36.14953995,-115.15283966,2022-12-18 06:25:09
IHOP,1230 W Warm Springs Rd,,Henderson,NV,89014,,36.05670166,-115.03849792,2022-12-18 06:25:09
IHOP,3260 E Tropicana Ave,,Las Vegas,NV,89121,,36.10047913,-115.10385132,2022-12-18 06:25:09
IHOP,3780 S Maryland Pkwy,,Las Vegas,NV,89119,,36.12065125,-115.13716888,2022-12-18 06:25:09
IHOP,1401 S Decatur Blvd,,Las Vegas,NV,89102,,36.15406036,-115.20748901,2022-12-18 06:25:09
IHOP,9651 Trailwood Dr,,Las Vegas,NV,89134,,36.19105911,-115.30625916,2022-12-18 06:25:09
IHOP,3595 S Rainbow Blvd,,Las Vegas,NV,89103,,36.12322998,-115.24355316,2022-12-18 06:25:09
IHOP,2450 E Pebble Rd,,Henderson,NV,89074,,36.02804184,-115.11727142,2022-12-18 06:25:09
IHOP,7490 S. Las Vegas Blvd,,Las Vegas,NV,89123,,36.05373001,-115.17166901,2022-12-18 06:25:09
IHOP,9480 W Sahara Ave,,Las Vegas,NV,89117,,36.14485931,-115.30108643,2022-12-18 06:25:09
IHOP,7305 South Rainbow Suite 100,,Las Vegas,NV,89113,,36.05554962,-115.24337006,2022-12-18 06:25:09
IHOP,5170 S Fort Apache Rd,,Las Vegas,NV,89148,,36.09513855,-115.29689026,2022-12-18 06:25:09
IHOP,3600 N Stockton Hill Rd,,Kingman,AZ,86401,,35.22724152,-114.03598785,2022-12-18 06:25:09
IHOP,100 W. Primm Blvd,,Primm,NV,89019,,35.609272,-115.39208221,2022-12-18 06:25:09
IHOP,600 Hwy 95,,Bullhead City,AZ,86429,,35.17021942,-114.56565857,2022-12-18 06:25:09
IHOP,3000 N. Glassford Hill Rd,,Prescott Valley,AZ,86314,,34.58592987,-112.34208679,2022-12-18 07:39:41
IHOP,101 Paseo Del Sol,,Lake Havasu City,AZ,86403,,34.47502899,-114.34815979,2022-12-18 06:25:09
IHOP,9976 W Happy Valley Pkwy,,Peoria,AZ,85383,,33.71170044,-112.27420044,2022-12-18 07:39:41
IHOP,2103 West Happy Valley Rd,,Phoenix,AZ,85085,,33.71237946,-112.1047821,2022-12-18 07:39:41
IHOP,13734 W Bell Rd,,Surprise,AZ,85374,,33.63909149,-112.35442352,2022-12-18 07:39:41
IHOP,8359 W Bell Rd,,Peoria,AZ,85382,,33.63771057,-112.23619843,2022-12-18 07:39:41
IHOP,4201 W. Bell Road,,PHOENIX,AZ,85053,,33.63942719,-112.14891052,2022-12-18 07:39:41
IHOP,6601 W Peoria Ave,,Glendale,AZ,85302,,33.58134842,-112.20072174,2022-12-18 07:39:41
IHOP,10603 W Olive Ave,,Peoria,AZ,85345,,33.56520844,-112.28771973,2022-12-18 07:39:41
IHOP,2841 Lenwood Rd,,Barstow,CA,92311,,34.85070038,-117.08187103,2022-12-18 06:25:07
IHOP,2508 N Central Ave,,Phoenix,AZ,85004,,33.47558975,-112.07402039,2022-12-18 07:39:41
IHOP,2000 West Northern Ave,,Phoenix,AZ,85021,,33.55335999,-112.10188293,2022-12-18 07:39:41
IHOP,1743 E. Camelback Rd,,Phoenix,AZ,85016,,33.50920105,-112.04440308,2022-12-18 07:39:41
IHOP,1230 N 51st Ave,,Phoenix,AZ,85043,,33.46175003,-112.1696167,2022-12-18 07:39:41
IHOP,2501 N 44th St,,Phoenix,AZ,85008,,33.4752388,-111.98660278,2022-12-18 07:39:41
IHOP,2529 N 75th Ave,,Phoenix,AZ,85035,,33.47544098,-112.22012329,2022-12-18 07:39:41
IHOP,4501 E Cactus Rd,,Phoenix,AZ,85032,,33.59933853,-111.98719025,2022-12-18 07:39:41
IHOP,2090 East Baseline Rd,,Phoenix,AZ,85042,,33.37828064,-112.03560638,2022-12-18 07:39:41
IHOP,705 S Rural Ave,ASU,Tempe,AZ,85281,,33.42288208,-111.92584991,2022-12-18 07:39:41
IHOP,8950 E Mountain View Rd,,Scottsdale,AZ,85258,,33.57561874,-111.8864212,2022-12-18 07:39:41
IHOP,913 N. Dobson Rd,,Mesa,AZ,85201,,33.43302155,-111.87084961,2022-12-18 07:39:41
IHOP,1491 N Dysart Rd,,Avondale,AZ,85323,,33.45632935,-112.34042358,2022-12-18 07:39:41
IHOP,5020 E Ray Rd,,Phoenix,AZ,85044,,33.32040024,-111.97530365,2022-12-18 07:39:41
IHOP,935 W Elliott Rd,,Chandler,AZ,85225,,33.34931183,-111.85664368,2022-12-18 07:39:41
IHOP,3495 East Baseline Rd,,Gilbert,AZ,85234,,33.37863922,-111.75596619,2022-12-18 07:39:41
IHOP,1150 N Higley Rd,,Mesa,AZ,85205,,33.43695831,-111.72013855,2022-12-18 07:39:41
IHOP,3877 S. Arizona Ave,,Chandler,AZ,85248,,33.2496376,-111.83991241,2022-12-18 07:39:41
IHOP,2100 S Power Rd,,Mesa,AZ,85208,,33.37733841,-111.6882782,2022-12-18 07:39:41
IHOP,10662 E. Southern Ave,,Mesa,AZ,85209,,33.3937912,-111.60048676,2022-12-18 07:39:41
IHOP,20429 N. John Wayne Parkway,,Maricopa,AZ,85138,,33.06549835,-112.04709625,2022-12-18 07:39:41
IHOP,20710 E. Victoria Lane,,Queen Creek,AZ,85142,,33.22330856,-111.68599701,2022-12-18 07:39:41
IHOP,2064 E. Florence Blvd,,Casa Grande,AZ,85122,,32.88029861,-111.69837952,2022-12-18 07:39:41
IHOP,8445 N Cerius StrAve,,Tucson,AZ,85742,,32.35982132,-111.0849762,2022-12-18 07:39:41
IHOP,4187 N Oracle Rd,,Tucson,AZ,85705,,32.2824707,-110.97889709,2022-12-18 07:39:41
IHOP,1500 W Grant Rd,,Tucson,AZ,85745,,32.25093842,-110.99887085,2022-12-18 07:39:41
IHOP,5101 E Grant Rd,,Tucson,AZ,85712,,32.25106812,-110.88375854,2022-12-18 07:39:41
IHOP,1963 W. Valencia Rd,,Tucson,AZ,85746,,32.13313293,-111.00842285,2022-12-18 07:39:41
IHOP,575 E 16th St,,Yuma,AZ,85365,,32.69802094,-114.61431885,2022-12-18 07:39:41
IHOP,1671 N Industrial Park Dr,,Nogales,AZ,85621,,31.36319923,-110.94844818,2022-12-18 07:39:41
IHOP,2362 S 4th St,,El Centro,CA,92243,,32.77244186,-115.55255127,2022-12-18 06:25:09
IHOP,42150 Jackson St.,,Indio,CA,92203,,33.73894119,-116.21658325,2022-12-18 06:25:09
IHOP,79892 Hwy 111,,La Quinta,CA,92253,,33.70774841,-116.27149963,2022-12-18 06:25:09
IHOP,34199 Monterey Ave,,Rancho Mirage,CA,92270,,33.80041885,-116.38864136,2022-12-18 06:25:09
IHOP,57044 29 Palms Hwy,,Yucca Valley,CA,92284,,34.12139893,-116.42089844,2022-12-18 06:25:09
IHOP,34031 Date Palm Dr,,Cathedral City,CA,92234,,33.80110931,-116.45864868,2022-12-18 06:25:09
IHOP,471 S Indian Canyon Dr,,Palm Springs,CA,92262,,33.81608963,-116.54577637,2022-12-18 06:25:09
IHOP,730 W Ramsey St,,Banning,CA,92220,,33.92527008,-116.88449097,2022-12-18 06:25:09
IHOP,180 North Sanderson Ave,,Hemet,CA,92545,,33.74898148,-117.00611877,2022-12-18 06:25:09
IHOP,32135 US Hwy 79,,Temecula,CA,92592,,33.48065948,-117.09855652,2022-12-18 06:25:13
IHOP,1630 Industrial Park Ave,,Redlands,CA,92374,,34.06505966,-117.20970917,2022-12-18 06:25:13
IHOP,16080 Perris Blvd,,Moreno Valley,CA,92551,,33.88840103,-117.22619629,2022-12-18 06:25:13
IHOP,26035 Newport Rd,,Menifee,CA,92584,,33.68410873,-117.20480347,2022-12-18 06:25:13
IHOP,2575 Highland Ave,,Highland,CA,92346,,34.13555145,-117.2309494,2022-12-18 06:25:08
IHOP,24318 Hemlock Ave,,Moreno Valley,CA,92557,,33.94205856,-117.24002075,2022-12-18 06:25:13
IHOP,1688 N Perris Blvd,,Perris,CA,92571,,33.80210876,-117.23004913,2022-12-18 06:25:13
IHOP,25340 Madison Ave,,Murrieta,CA,92562,,33.55411148,-117.19499969,2022-12-18 06:25:13
IHOP,1340 E. Valley Pkwy,,Escondido,CA,92027,,33.1319313,-117.06434631,2022-12-18 06:25:16
IHOP,219 E Hospitality Lane,,San Bernardino,CA,92408,,34.0656395,-117.28227997,2022-12-18 06:25:13
IHOP,354 W El Norte Pkwy,,Escondido,CA,92026,,33.14363098,-117.09604645,2022-12-18 06:25:16
IHOP,1286 Oakdale Ave,,El Cajon,CA,92021,,32.80231857,-116.93673706,2022-12-18 06:25:15
IHOP,16759 Bernardo Center Dr,,San Diego,CA,92128,,33.01808929,-117.07467651,2022-12-18 06:25:15
IHOP,361 E Alessandro Blvd,,Riverside,CA,92508,,33.91598892,-117.32607269,2022-12-18 06:25:13
IHOP,9708 Mission Gorge Rd,,Santee,CA,92071,,32.83898926,-116.98571777,2022-12-18 06:25:15
IHOP,4023 University Pkwy,,San Bernardino,CA,92407,,34.16466141,-117.3321228,2022-12-18 06:25:08
IHOP,1320 University Ave,,Riverside,CA,92507,,33.97547913,-117.34081268,2022-12-18 06:25:13
IHOP,3637 Avocado Blvd,,La Mesa,CA,91941,,32.746521,-116.96044159,2022-12-18 06:25:15
IHOP,18248 Collier Ave,,Lake Elsinore,CA,92530,,33.69264984,-117.34253693,2022-12-18 06:25:13
IHOP,14794 La Paz Dr,,Victorville,CA,92395,,34.51950836,-117.31633759,2022-12-18 06:25:07
IHOP,1020 W San Marcos Blvd,,San Marcos,CA,92069,,33.13476944,-117.19033813,2022-12-18 06:25:16
IHOP,632 Sycamore Ave,,Vista,CA,92083,,33.16680908,-117.21572876,2022-12-18 06:25:16
IHOP,8747 Broadway,,La Mesa,CA,91941,,32.75202179,-117.01019287,2022-12-18 06:25:15
IHOP,13233 Main St,,Hesperia,CA,92345,,34.42638016,-117.37490845,2022-12-18 06:25:07
IHOP,2258 Otay Lakes Rd,,Chula Vista,CA,91915,,32.64748001,-116.96630859,2022-12-18 06:25:15
IHOP,9781 Sierra Ave,,Fontana,CA,92335,,34.07543564,-117.43536377,2022-12-18 06:25:08
IHOP,8440 Mira Mesa Blvd,,San Diego,CA,92126,,32.91305161,-117.14208221,2022-12-18 06:25:15
IHOP,4253 Oceanside Blvd,,Oceanside,CA,92056,,33.20858002,-117.28099823,2022-12-18 06:25:16
IHOP,16866 Foothill Blvd,,Fontana,CA,92335,,34.10705948,-117.43666077,2022-12-18 06:25:08
IHOP,5851 University Ave,,San Diego,CA,92115,,32.74964905,-117.0710907,2022-12-18 06:25:15
IHOP,2390 Roll Dr,,San Diego,CA,92154,,32.55500031,-116.93779755,2022-12-18 06:25:15
IHOP,10301 Magnolia Ave,,Riverside,CA,92505,,33.91212845,-117.4618988,2022-12-18 06:25:13
IHOP,2169 Fenton Pkwy,,San Diego,CA,92108,,32.77981949,-117.12880707,2022-12-18 06:25:15
IHOP,4291 Camino De La Plaza,,San Diego,CA,92173,,32.54520035,-117.0410614,2022-12-18 06:25:15
IHOP,1206 Broadway,,Chula Vista,CA,91911,,32.60649872,-117.08026886,2022-12-18 06:25:15
IHOP,615 Saturn Blvd,,San Diego,CA,92154,,32.5845871,-117.0921402,2022-12-18 06:25:15
IHOP,1430 E Plaza Blvd,,National City,CA,91950,,32.67652893,-117.09136963,2022-12-18 06:25:15
IHOP,6135 Balboa Ave,,San Diego,CA,92111,,32.81998062,-117.17540741,2022-12-18 06:25:15
IHOP,3335 Midway Dr,,San Diego,CA,92110,,32.75009918,-117.21212769,2022-12-18 06:25:15
IHOP,856 Grand Ave,,San Diego,CA,92109,,32.79508972,-117.25402832,2022-12-18 06:25:15
IHOP,1806 Oceanside Blvd,,Oceanside,CA,92054,,33.19258881,-117.35871124,2022-12-18 06:25:16
IHOP,915 Avenida Pico,,San Clemente,CA,92673,,33.45338821,-117.60761261,2022-12-18 06:25:16
IHOP,23592 Rockfield Blvd,,Lake Forest,CA,92630,,33.63066864,-117.71875763,2022-12-18 06:25:13
IHOP,2450 Wardlow Rd,,Corona,CA,92880,,33.8816185,-117.61190796,2022-12-18 06:25:13
IHOP,4422 Ontario Mills Pkwy,,Ontario,CA,91764,,34.06962967,-117.55502319,2022-12-18 06:25:08
IHOP,2285 S Archibald Ave,,Ontario,CA,91761,,34.03205872,-117.59268951,2022-12-18 06:25:08
IHOP,18542 Macarthur Blvd,,Irvine,CA,92612,,33.6785202,-117.85951233,2022-12-18 06:25:16
IHOP,1740 E Edinger Ave,,Santa Ana,CA,92705,,33.72631073,-117.84182739,2022-12-18 06:25:13
IHOP,7228 Archibald Ave,,Rancho Cucamonga,CA,91701,,34.12308121,-117.59394073,2022-12-18 06:25:08
IHOP,1001 E 17th St,,Santa Ana,CA,92701,,33.76012039,-117.85704041,2022-12-18 06:25:13
IHOP,2407 S. Bristol St,,Santa Ana,CA,92704,,33.71500778,-117.88513947,2022-12-18 06:25:13
IHOP,12585 Central Ave,,Chino,CA,91710,,34.02492142,-117.68904114,2022-12-18 06:25:08
IHOP,80 N Euclid Ave,,Upland,CA,91786,,34.0946312,-117.65061188,2022-12-18 06:25:08
IHOP,3125 Harbor Blvd,,Costa Mesa,CA,92626,,33.68355179,-117.9196701,2022-12-18 06:25:15
IHOP,50 Rio Rancho Rd,,Pomona,CA,91766,,34.03321457,-117.75324249,2022-12-18 06:25:08
IHOP,2250 E Lincoln Ave,,Anaheim,CA,92806,,33.83905029,-117.88482666,2022-12-18 06:25:13
IHOP,1201 Foothill Blvd,,La Verne,CA,91750,,34.11911011,-117.78061676,2022-12-18 06:25:07
IHOP,903 W Arrow Hwy,,San Dimas,CA,91773,,34.10710144,-117.82467651,2022-12-18 06:25:07
IHOP,38045 47th St E Suite I,,Palmdale,CA,93552,,34.57463074,-118.04575348,2022-12-18 07:39:41
IHOP,702 S Citrus Ave,,Covina,CA,91723,,34.07707977,-117.88977814,2022-12-18 06:25:07
IHOP,1650 W Ave K,,Lancaster,CA,93534,,34.67470169,-118.1608963,2022-12-18 07:39:41
IHOP,39176 10th St W,,Palmdale,CA,93551,,34.59492874,-118.14710999,2022-12-18 07:39:41
IHOP,988 Hamilton Rd,,Duarte,CA,91010,,34.13302994,-117.98455048,2022-12-18 06:25:07
IHOP,3111 Baldwin Park Blvd,,Baldwin Park,CA,91706,,34.06988144,-117.97969818,2022-12-18 06:25:07
IHOP,18261 Gale Ave,,City Of Industry,CA,91748,,33.99647141,-117.90585327,2022-12-18 06:25:08
IHOP,1113 S Baldwin Ave,,Arcadia,CA,91007,,34.12657166,-118.05516052,2022-12-18 06:25:07
IHOP,297 S Randolph Ave,,Brea,CA,92821,,33.91333389,-117.89057159,2022-12-18 06:25:08
IHOP,3506 Rosemead Blvd,,Rosemead,CA,91770,,34.07387161,-118.07225037,2022-12-18 06:25:07
IHOP,880 S Arroyo Pkwy,,Pasadena,CA,91105,,34.13055038,-118.1470871,2022-12-18 06:25:07
IHOP,6520 Foothill Blvd,,Tujunga,CA,91042,,34.24560165,-118.27507019,2022-12-18 06:25:07
IHOP,1301 W Imperial Hwy,,La Habra,CA,90631,,33.91754913,-117.96047974,2022-12-18 06:25:08
IHOP,15344 Whittier Blvd.,,WHITTIER,CA,90603,,33.94633865,-117.99938202,2022-12-18 06:25:08
IHOP,701 S Fremont Ave,,Alhambra,CA,91803,,34.08626938,-118.15216827,2022-12-18 06:25:07
IHOP,151 W Orangethorpe Ave,,Fullerton,CA,92832,,33.85974121,-117.92632294,2022-12-18 06:25:13
IHOP,605 N Glendale Ave,,Glendale,CA,91206,,34.15497971,-118.24299622,2022-12-18 06:25:07
IHOP,18677 Soledad Canyon Rd,,Santa Clarita,CA,91351,,34.41627884,-118.46127319,2022-12-18 07:39:41
IHOP,11139 Washington Blvd,,Whittier,CA,90606,,33.97254944,-118.07263184,2022-12-18 06:25:08
IHOP,2060 S. Atlantic Blvd,,Monterey Park,CA,91754,,34.03995132,-118.14230347,2022-12-18 06:25:07
IHOP,830 N Euclid St,,Anaheim,CA,92801,,33.84392166,-117.94138336,2022-12-18 06:25:13
IHOP,15140 La Mirada Blvd,,La Mirada,CA,90638,,33.89479065,-118.00789642,2022-12-18 06:25:08
IHOP,1560 S Harbor Blvd,,Anaheim,CA,92802,,33.80918121,-117.91478729,2022-12-18 06:25:13
IHOP,1840 S Harbor Blvd,,Anaheim,CA,92802,,33.80250931,-117.91490936,2022-12-18 06:25:13
IHOP,913 N San Fernando Blvd,,Burbank,CA,91504,,34.18671036,-118.31716919,2022-12-18 06:25:07
IHOP,2227 N Figueroa St,,Los Angeles,CA,90065,,34.08338928,-118.22332764,2022-12-18 06:25:07
IHOP,12623 Norwalk Blvd,,Norwalk,CA,90650,,33.91633987,-118.07299805,2022-12-18 06:25:08
IHOP,7950 Beach Blvd,,Buena Park,CA,90620,,33.8474617,-117.99758911,2022-12-18 06:25:13
IHOP,26135 Bouquet Canyon Rd,,Saugus,CA,91350,,34.41846848,-118.54234314,2022-12-18 07:39:41
IHOP,1225 Truman St,,San Fernando,CA,91340,,34.28559875,-118.44291687,2022-12-18 07:39:41
IHOP,3252 Riverside Dr,,Bakersfield,CA,93308,,35.38336182,-119.0421524,2022-12-18 07:39:41
IHOP,9220 Rosedale Hwy,,BAKERSFIELD,CA,93312,,35.38441849,-119.10463715,2022-12-18 07:39:41
IHOP,1627 S Mooney Blvd,,Visalia,CA,93277,,36.31602097,-119.31421661,2022-12-18 07:39:41
IHOP,710 Woollomes Ave,Suite 101,Delano,CA,93215,,35.74717331,-119.24993134,2022-12-18 07:39:41
IHOP,1004 E. Prosperity Ave,,Tulare,CA,93274,,36.22502899,-119.33345032,2022-12-18 07:39:41
IHOP,780 W. El Monte Way,,Dinuba,CA,93618,,36.54544067,-119.40261841,2022-12-18 07:39:41
IHOP,29541 Stockdale Hwy,,Bakersfield,CA,93312,,35.35432053,-119.33139801,2022-12-18 07:39:41
IHOP,24737 Pico Canyon Rd,,Stevenson Ranch,CA,91381,,34.38005829,-118.56793213,2022-12-18 07:39:41
IHOP,180 North 11th Ave,,Hanford,CA,93230,,36.32490158,-119.65534973,2022-12-18 07:39:41
IHOP,8555 Vesper Ave,,Panorama City,CA,91402,,34.22621918,-118.45039368,2022-12-18 06:25:07
IHOP,6343 Laurel Canyon Blvd,,North Hollywood,CA,91606,,34.18600082,-118.39679718,2022-12-18 06:25:07
IHOP,16943 Devonshire St,,Granada Hills,CA,91344,,34.2578392,-118.50145721,2022-12-18 06:25:07
IHOP,1100 Shaw Ave,Sierra Vista Mall,Clovis,CA,93612,,36.80807114,-119.69477844,2022-12-18 07:39:41
IHOP,7006 W Sunset Blvd,,Hollywood,CA,90028,,34.09782028,-118.34175873,2022-12-18 06:25:07
IHOP,800 S Flower St,,Los Angeles,CA,90017,,34.04706955,-118.26010895,2022-12-18 06:25:07
IHOP,3165 W 6th St,,Los Angeles,CA,90020,,34.06393814,-118.29067993,2022-12-18 06:25:07
IHOP,7131 Eastern Ave,,Bell Gardens,CA,90201,,33.96823883,-118.16522217,2022-12-18 06:25:08
IHOP,11414 Paramount Blvd,,Downey,CA,90241,,33.9412117,-118.13881683,2022-12-18 06:25:08
IHOP,4752 Galleria Pkwy,,Sparks,NV,89436,,39.57786179,-119.73999786,2022-12-18 07:39:41
IHOP,9786 S Virginia St,,Reno,NV,89511,,39.44144058,-119.77047729,2022-12-18 07:39:41
IHOP,1800 S Virginia St,,Reno,NV,89502,,39.50642014,-119.80323029,2022-12-18 07:39:41
IHOP,10150 N Mccarran Blvd,,Reno,NV,89503,,39.52582932,-119.86168671,2022-12-18 07:39:41
IHOP,3730 Lake Tahoe Blvd,,South Lake Tahoe,CA,96150,,38.94966125,-119.95443726,2022-12-18 07:39:41
IHOP,746 Taylorville Rd,,Grass Valley,CA,95949,,39.20201874,-121.06249237,2022-12-18 07:39:41
IHOP,2525 Iron Point Rd,,Folsom,CA,95630,,38.64551926,-121.11691284,2022-12-18 07:39:41
IHOP,6751 Stanford Ranch Rd,,Rocklin,CA,95677,,38.78038025,-121.26506805,2022-12-18 07:39:41
IHOP,100 North Sunrise Ave,,Roseville,CA,95661,,38.74465179,-121.26660156,2022-12-18 07:39:41
IHOP,4821 Madison Ave,,Sacramento,CA,95841,,38.66125107,-121.35135651,2022-12-18 07:39:41
IHOP,3525 Bradshaw Rd,,Sacramento,CA,95827,,38.55871964,-121.33569336,2022-12-18 07:39:41
IHOP,3001 N St,,Sacramento,CA,95816,,38.6398201,-121.40599823,2022-12-18 07:39:41
IHOP,2035 Arden Way,,Sacramento,CA,95825,,38.5965004,-121.4178009,2022-12-18 07:39:41
IHOP,1310 Franklin Rd,,Yuba City,CA,95993,,39.12657928,-121.63523102,2022-12-18 07:39:41
IHOP,3800 Northgate Blvd,,Sacramento,CA,95834,,38.63782883,-121.47686005,2022-12-18 07:39:41
IHOP,9170 E Stockton Blvd,,Elk Grove,CA,95624,,38.42496872,-121.39147186,2022-12-18 07:39:41
IHOP,2941 Advantage Lane,,Sacramento,CA,95834,,38.65454102,-121.52758026,2022-12-18 07:39:41
IHOP,4770 Florin Rd,,Sacramento,CA,95823,,38.49565887,-121.44992065,2022-12-18 07:39:41
IHOP,779 Ikea Court,,West Sacramento,CA,95605,,38.5900383,-121.54942322,2022-12-18 07:39:41
IHOP,1421 Meadowview Rd,,Sacramento,CA,95832,,38.48165131,-121.50453949,2022-12-18 07:39:41
IHOP,1230 W Kettleman Lane,,Lodi,CA,95240,,38.11518097,-121.28772736,2022-12-18 07:39:41
IHOP,1674 E Hammer Lane,,Stockton,CA,95210,,38.02051926,-121.29180908,2022-12-18 07:39:41
IHOP,2098 W Orangeburg Ave,,Modesto,CA,95350,,37.66701126,-121.03041077,2022-12-18 07:39:41
IHOP,1669 E Hatch Rd,,Modesto,CA,95351,,37.60955811,-120.9664917,2022-12-18 07:39:41
IHOP,2716 W. March Lane,,Stockton,CA,95219,,37.98392868,-121.34492493,2022-12-18 07:39:41
IHOP,1745 Cowell Blvd,,Davis,CA,95618,,38.54019928,-121.73032379,2022-12-18 07:39:41
IHOP,1150 E Yosemite Ave,,Manteca,CA,95336,,37.79727173,-121.19972992,2022-12-18 07:39:41
IHOP,1625 Countryside Dr,,Turlock,CA,95380,,37.50785065,-120.87577057,2022-12-18 07:39:41
IHOP,2201 W Cleveland Ave,,Madera,CA,93637,,36.97510147,-120.08351898,2022-12-18 07:39:41
IHOP,7119 N Fresno St,,Fresno,CA,93720,,36.83993912,-119.78208923,2022-12-18 07:39:41
IHOP,3418 W Shaw Ave,,Fresno,CA,93711,,36.80858994,-119.85397339,2022-12-18 07:39:41
IHOP,3020 Tulare St,,Fresno,CA,93721,,36.74124908,-119.77947235,2022-12-18 07:39:41
IHOP,3120 Naglee Rd,,Tracy,CA,95304,,37.75867081,-121.46160889,2022-12-18 07:39:41
IHOP,2290 Loveridge Rd,,PITTSBURG,CA,94565,,38.00864029,-121.87126923,2022-12-18 07:39:41
IHOP,1601 N Texas St,,Fairfield,CA,94533,,38.25857925,-122.03443146,2022-12-18 07:39:41
IHOP,4567 1st St,,Livermore,CA,94551,,37.69852829,-121.74233246,2022-12-18 07:39:41
IHOP,4619 Clayton Rd,,Concord,CA,94521,,37.96263123,-121.98535156,2022-12-18 07:39:41
IHOP,2495 Hilltop Dr,,REDDING,CA,96002,,40.57238007,-122.3576889,2022-12-18 07:39:41
IHOP,201 Soscol Ave,,Napa,CA,94559,,38.28266907,-122.27477264,2022-12-18 07:39:41
IHOP,1190 Arnold Dr,,Martinez,CA,94553,,37.99349976,-122.10095978,2022-12-18 07:39:41
IHOP,2910 North Main St,,Walnut Creek,CA,94597,,37.9272995,-122.06118011,2022-12-18 07:39:41
IHOP,6379 Dublin Blvd,,Dublin,CA,94568,,37.70574951,-121.9090271,2022-12-18 07:39:41
IHOP,114 Plaza Dr,,Vallejo,CA,94591,,38.13307953,-122.21613312,2022-12-18 07:39:41
IHOP,22222 Foothill Blvd,,Hayward,CA,94541,,37.68053055,-122.08531189,2022-12-18 07:39:41
IHOP,3401 Klose Way,,Richmond,CA,94806,,37.98437881,-122.31931305,2022-12-18 07:39:41
IHOP,765 East Calaveras Blvd,,Milpitas,CA,95035,,37.43397903,-121.89333344,2022-12-18 07:39:41
IHOP,32010 Dyer St,,Union City,CA,94587,,37.60005951,-122.0700531,2022-12-18 07:39:41
IHOP,11511 San Pablo Ave,,El Cerrito,CA,94530,,37.92382812,-122.31787109,2022-12-18 07:39:41
IHOP,5687 Jarvis Ave,,Newark,CA,94560,,37.55278015,-122.04766846,2022-12-18 07:39:41
IHOP,4101 San Pablo Ave,,Emeryville,CA,94608,,37.83256912,-122.28057098,2022-12-18 07:39:41
IHOP,644 N 1st St,,San Jose,CA,95112,,37.34809113,-121.89907837,2022-12-18 07:39:41
IHOP,101 Curtner Ave. #60,,San Jose,CA,95125,,37.30202103,-121.86437225,2022-12-18 07:39:41
IHOP,2745 4th St,,Santa Rosa,CA,95405,,38.44987106,-122.68946075,2022-12-18 07:39:41
IHOP,981 Blossom Hill Rd,,San Jose,CA,95123,,37.25099182,-121.86702728,2022-12-18 07:39:41
IHOP,144 Vintage Way,,Novato,CA,94945,,38.090271,-122.5555191,2022-12-18 07:39:41
IHOP,1401 Fulton Rd,,Santa Rosa,CA,95403,,38.45336914,-122.77007294,2022-12-18 07:39:41
IHOP,5312 Old Redwood Hwy,,Petaluma,CA,94954,,38.27627182,-122.66870117,2022-12-18 07:39:41
IHOP,1825 4th St,,San Rafael,CA,94901,,37.97404099,-122.5398407,2022-12-18 07:39:41
IHOP,200 Beach St,,San Francisco,CA,94133,,37.80772018,-122.41272736,2022-12-18 07:39:41
IHOP,531 Foster City Blvd,,Foster City,CA,94404,,37.56259918,-122.27057648,2022-12-18 07:39:41
IHOP,491 Veterans Blvd,,Redwood City,CA,94063,,37.49539185,-122.23493195,2022-12-18 07:39:41
IHOP,1012 Miller Ave,,San Jose,CA,95129,,37.30965805,-122.01329803,2022-12-18 07:39:41
IHOP,316 S Airport Blvd,,South San Francisco,CA,94080,,37.64535904,-122.40570068,2022-12-18 07:39:41
IHOP,510 El Camino Real,,Belmont,CA,94002,,37.52579117,-122.28260803,2022-12-18 07:39:41
IHOP,2398 Junipero Serra Blvd,,Daly City,CA,94015,,37.69343948,-122.47160339,2022-12-18 07:39:41
IHOP,590 El Camino Real,,San Bruno,CA,94066,,37.62530136,-122.41387939,2022-12-18 07:39:41
IHOP,1549 41st Ave,,Capitola,CA,95010,,36.9727211,-121.96515656,2022-12-18 07:39:41
IHOP,1075 N Davis Rd,,SALINAS,CA,93907,,36.69755173,-121.66863251,2022-12-18 07:39:41
IHOP,212 Madonna Rd,,San Luis Obispo,CA,93405,,35.26356888,-120.67739105,2022-12-18 07:39:41
IHOP,1383 Center Dr,,Medford,OR,97501,,42.31019974,-122.85369873,2022-12-18 07:39:41
IHOP,5655 Wilshire Blvd,,Los Angeles,CA,90036,,34.06256866,-118.35157013,2022-12-18 06:25:07
IHOP,3625 Stocker St,,Los Angeles,CA,90008,,34.00812149,-118.33621979,2022-12-18 06:25:07
IHOP,8461 Santa Monica Blvd,,Los Angeles,CA,90069,,34.0903511,-118.37529755,2022-12-18 06:25:07
IHOP,1880 W Slauson Ave,,Los Angeles,CA,90047,,33.9889183,-118.31038666,2022-12-18 06:25:07
IHOP,6300 Santa Fe Ave,,Huntington Park,CA,90255,,33.98313141,-118.22984314,2022-12-18 06:25:08
IHOP,2912 S Sepulveda Blvd,,Los Angeles,CA,90064,,34.02848053,-118.42902374,2022-12-18 06:25:07
IHOP,4410 Century Blvd,,Inglewood,CA,90304,,33.94551849,-118.3533783,2022-12-18 06:25:08
IHOP,8600 S Sepulveda Blvd,,Los Angeles,CA,90045,,33.95967865,-118.39588928,2022-12-18 06:25:08
IHOP,12115 Ohio Ave,,Los Angeles,CA,90025,,34.04008102,-118.46330261,2022-12-18 06:25:07
IHOP,4070 Lincoln Blvd,,Marina Del Rey,CA,90292,,33.9888382,-118.44596863,2022-12-18 06:25:07
IHOP,4014 Tweedy Blvd,,South Gate,CA,90280,,33.94348145,-118.20149231,2022-12-18 06:25:08
IHOP,755 N Pacific Coast Hwy,,El Segundo,CA,90245,,33.9262085,-118.39650726,2022-12-18 06:25:08
IHOP,15635 Ventura Blvd,,Encino,CA,91436,,34.15544128,-118.47470856,2022-12-18 06:25:07
IHOP,249 E Compton Blvd,,Compton,CA,90220,,33.89625168,-118.22093964,2022-12-18 06:25:08
IHOP,16230 Paramount Blvd,,Paramount,CA,90723,,33.88690186,-118.1595993,2022-12-18 06:25:08
IHOP,19100 Ventura Blvd,,Tarzana,CA,91356,,34.17237854,-118.54895782,2022-12-18 06:25:07
IHOP,21716 Avalon Blvd,,Carson,CA,90745,,33.83137131,-118.26341248,2022-12-18 06:25:08
IHOP,700 E 45th St,,Long Beach,CA,90807,,33.83956909,-118.18347931,2022-12-18 06:25:15
IHOP,5316 Lakewood Blvd,,Lakewood,CA,90712,,33.85432816,-118.14209747,2022-12-18 06:25:08
IHOP,24631 Crenshaw Blvd,,Torrance,CA,90505,,33.8019104,-118.32862091,2022-12-18 06:25:15
IHOP,9012 Tampa Ave,,Northridge,CA,91324,,34.23364639,-118.55289459,2022-12-18 06:25:07
IHOP,22810 Vanowen St,,West Hills,CA,91307,,34.19343948,-118.62435913,2022-12-18 06:25:07
IHOP,21103 Devonshire St,,Chatsworth,CA,91311,,34.25753021,-118.5932312,2022-12-18 07:39:41
IHOP,2050 N Bellflower Blvd,,Long Beach,CA,90815,,33.7937088,-118.12506104,2022-12-18 06:25:15
IHOP,29403 S Western Ave,,Rancho Palos Verdes,CA,90275,,33.75122833,-118.30944824,2022-12-18 06:25:15
IHOP,4991 Lincoln Ave,,Cypress,CA,90630,,33.83208084,-118.04640961,2022-12-18 06:25:15
IHOP,5031 Kanan Rd,,Agoura,CA,91301,,34.14516068,-118.76223755,2022-12-18 06:25:07
IHOP,18782 Beach Blvd,,Huntington Beach,CA,92648,,33.68970871,-117.98828125,2022-12-18 06:25:15
IHOP,200 Main St,,Huntington Beach,CA,92648,,33.65866089,-118.00022888,2022-12-18 06:25:15
IHOP,2315 Michael Dr,,Newbury Park,CA,91320,,34.18278122,-118.92759705,2022-12-18 07:39:41
IHOP,718 W Ventura St,,Fillmore,CA,93015,,34.39585876,-118.91845703,2022-12-18 07:39:41
IHOP,202 Nicholson Ave,,SANTA MARIA,CA,93454,,34.9516716,-120.41615295,2022-12-18 07:39:41
IHOP,1620 E Daily Dr,,Camarillo,CA,93010,,34.21879959,-119.04987335,2022-12-18 07:39:41
IHOP,1931 N Oxnard Blvd,,Oxnard,CA,93036,,34.21977997,-119.17765808,2022-12-18 07:39:41
IHOP,747 West Channel Islands Boulevard,,PORT HUENEME,CA,93041,,34.17609406,-119.22119141,2022-12-18 07:39:41
IHOP,1771 S Victoria Ave,,VENTURA,CA,93003,,34.25748825,-119.21102905,2022-12-18 07:39:41
IHOP,1114 Casitas Pass Rd,,Carpinteria,CA,93013,,34.39606094,-119.51261902,2022-12-18 07:39:41
IHOP,1701 State St,,Santa Barbara,CA,93101,,34.42808151,-119.71125031,2022-12-18 07:39:41
IHOP,3215 W 11th Ave,,Eugene,OR,97402,,44.04850006,-123.14129639,2022-12-18 07:39:41
IHOP,3427 Gateway St,,Springfield,OR,97477,,44.08338928,-123.04115295,2022-12-18 06:25:08
IHOP,407 Lancaster Dr Ne,,Salem,OR,97301,,44.93394089,-122.98355103,2022-12-18 06:25:08
IHOP,1101 NE Hwy 99W,,Mcminnville,OR,97128,,45.22570038,-123.18710327,2022-12-18 06:25:08
IHOP,19709 S Highway 213,,Oregon City,OR,97045,,45.32109833,-122.57849884,2022-12-18 06:25:08
IHOP,16814 SW Edy Road,Suite 121,Sherwood,OR,97140,,45.36539841,-122.85070038,2022-12-18 06:25:08
IHOP,3269 Kaopaka St,,Honolulu,HI,96819,,21.33515167,-157.91452026,2022-12-18 06:25:14
IHOP,1850 Ala Moana Blvd,,Honolulu,HI,96815,,21.28478622,-157.83650208,2022-12-18 06:25:14
IHOP,2211 Kuhio Ave,,Honolulu,HI,96815,,21.28112984,-157.82815552,2022-12-18 06:25:14
IHOP,70 E Kaahumanu Ave,Maui Mall,Kahului,HI,96732,,20.89209557,-156.46511841,2022-12-18 06:25:14
IHOP,111 E. Puainako St,Prince Kuhio Plaza,Hilo,HI,96720,,19.69529343,-155.06384277,2022-12-18 06:25:16
IHOP,15935 SW Regatta Lane,,Beaverton,OR,97006,,45.51684189,-122.84078979,2022-12-18 06:25:08
IHOP,849 Ne 25th Ave,,Hillsboro,OR,97124,,45.52920914,-122.95612335,2022-12-18 06:25:08
IHOP,4931 SE 82nd Ave,,Portland,OR,97266,,45.48683167,-122.57910919,2022-12-18 06:25:08
IHOP,9840 NE Cascades Parkway,,PORTLAND,OR,97220,,45.57361984,-122.561409,2022-12-18 06:25:08
IHOP,7951 NE Vancouver Plaza Dr,,Vancouver,WA,98662,,45.65190887,-122.59044647,2022-12-18 06:25:08
IHOP,22583 Ne Glisan St,,Wood Village,OR,97060,,45.5282402,-122.43097687,2022-12-18 06:25:08
IHOP,1520 Cooper Point Rd SW,,Olympia,WA,98502,,47.03517151,-122.93698883,2022-12-18 06:25:08
IHOP,3519 Martin Way E,,Olympia,WA,98506,,47.04674911,-122.84549713,2022-12-18 06:25:08
IHOP,13333 Meridian E,,Puyallup,WA,98373,,47.13497162,-122.29247284,2022-12-18 06:25:08
IHOP,10005 Lakewood Dr SW,,Tacoma,WA,98499,,47.16627884,-122.50726318,2022-12-18 06:25:08
IHOP,7445 S Hosmer,,TACOMA,WA,98408,,47.18856049,-122.46131897,2022-12-18 06:25:08
IHOP,1802 S Mildred St,,Tacoma,WA,98465,,47.24475861,-122.52687836,2022-12-18 06:25:08
IHOP,3150 Nw Bucklin Hill Rd,,Silverdale,WA,98383,,47.65080643,-122.69194031,2022-12-18 06:25:08
IHOP,420 West Bakerview Rd,,Bellingham,WA,98226,,48.78993988,-122.49623108,2022-12-18 06:25:08
IHOP,"2429 152nd Street, Unit 107",24 Johnston Plaza,White Rock,BC,V4B 4P3,,49.04605865,-122.80168915,2022-12-18 06:25:08
IHOP,19700 Langley Bypass,,Langley,BC,V3A 7B1,,49.11002731,-122.67674255,2022-12-18 06:25:08
IHOP,8170 120th Street,,Surrey,BC,V3W 3N3,,49.15205002,-122.88991547,2022-12-18 06:25:08
IHOP,6780 Number 3 Road,,Richmond,BC,V6Y 2C4,,49.16447067,-123.13607788,2022-12-18 06:25:08
IHOP,514 8th Ave,,New Westminster,BC,V3L 2Y3,,49.21605301,-122.92327118,2022-12-18 06:25:08
IHOP,173-9855 Austin Ave,,Burnaby,BC,V3J 1N4,,49.2515564,-122.89671326,2022-12-18 06:25:08
IHOP,2755 Lougheed Highway,Poco Place Shopping Center,Port Coquitlam,BC,V3B 5Y9,,49.27370453,-122.78858185,2022-12-18 06:25:08
IHOP,501 E Tudor Rd,,Anchorage,AK,99503,,61.18156815,-149.87496948,2022-12-18 06:25:19
IHOP,11100 Old Seward Hwy,,Anchorage,AK,99515,,61.12033844,-149.86514282,2022-12-18 06:25:19
IHOP,1106 North Muldoon Rd,,Anchorage,AK,99504,,61.22613144,-149.7428894,2022-12-18 06:25:19
IHOP,1890 East Parks Hwy,,Wasilla,AK,99654,,61.57477951,-149.40342712,2022-12-18 06:25:19
IHOP,115 Parkingway,,Quincy,MA,02169,,42.24642181,-71.00327301,2022-12-18 07:39:41
IHOP,981 Cassville-White Road,,Cartersville,GA,30121,US,34.27410126,-84.80770111,2022-12-18 07:39:41
IHOP,645 Fairview Rd,,Simpsonville,SC,29680,US,34.71284866,-82.25538635,2022-12-18 07:39:41
IHOP,15505 Rockridge Road,,NEW BERLIN,WI,53151,US,42.95097733,-88.10723877,2022-12-18 07:39:41
IHOP,3429 W 13th St,,Grand Island,NE,68803,US,40.59889984,-98.39230347,2022-12-18 07:39:41
IHOP,7127 Hollister Ave,#30,Goleta,CA,93117,US,34.42882538,-119.87680054,2022-12-18 07:39:41
IHOP,613 E Aurora Rd,,Macedonia,OH,44056,US,41.31435394,-81.5165863,2022-12-18 07:39:41
IHOP,8537 Georgia Avenue,,Silver Spring,MD,20910,US,38.99647522,-77.02705383,2022-12-18 07:39:41
IHOP,204 Calhoun Street,,Cincinnati,OH,45219,US,39.12865448,-84.51608276,2022-11-20 16:22:07
IHOP,6550 E Lloyd Expy,,Evansville,IN,47715,US,37.97748184,-87.47174835,2022-12-18 07:39:41
IHOP,"778 Beal Parkway, Suite 100",,Ft. Walton,FL,32547,US,30.44470978,-86.63909912,2022-12-18 07:39:41
IHOP,1401 E Monte Vista Ave,,Vacaville,CA,95688,US,38.3631897,-121.96897125,2022-12-18 07:39:41
IHOP,12310 South Highway 33,,Santa Nella,CA,95322,US,37.10935211,-121.01448822,2022-12-18 07:39:41
IHOP,1025 Peppers Ferry Road,,Wytheville,VA,24382,US,36.96519852,-81.06780243,2022-12-18 07:39:41
IHOP,17507 Canyon Pkwy. E.,,Tacoma,WA,98446,US,47.09730148,-122.35520172,2022-12-18 06:25:08
IHOP,8075 South Access Road West,,Clyde,TX,79510,US,32.41770554,-99.52676392,2022-12-18 07:39:41
IHOP,3900 Petro Rd,,West Memphis,AR,72301,US,35.15380096,-90.13700104,2022-12-18 06:25:07
IHOP,632 N Canal Blvd,,Thibodaux,LA,70301,US,29.81287956,-90.81513214,2022-12-18 07:39:41
IHOP,35 South Homestead Blvd,,Homestead,FL,33030,US,25.46918678,-80.47168732,2022-12-18 06:25:15
IHOP,61 Kane Street,,West Hartford,CT,06119,US,41.75094604,-72.71740723,2022-12-18 07:39:41
IHOP,37-56 Junction Blvd,,Jackson Heights,NY,11372,US,40.75024414,-73.87004089,2022-12-18 07:39:41
IHOP,2580 Mountain Rd,,Moncton,CA,E1C 2T9,CA,46.13040924,-64.87991333,2022-12-18 07:39:41
IHOP,134-60 Springfield Blvd,,Queens,NY,11413,US,40.6792984,-73.75610352,2022-12-18 07:39:41
IHOP,345 Chalan San Antonio,,Tamuning,GU,96931,US,13.49138641,144.78189087,2022-12-18 07:39:41
IHOP,32 Newtown Rd,,Danbury,CT,06810,US,,,2022-11-14 19:45:43
IHOP,3151 N Rock Road,,Wichita,KS,67226,US,37.74107742,-97.2450943,2022-12-18 07:39:41
IHOP,10151 Brook Road,,Glen Allen,VA,23059,US,37.6731987,-77.45709229,2022-12-18 07:39:41
IHOP,5821 Dennis McCarthy Drive,,Lebec,CA,93243,US,34.98526382,-118.94805145,2022-12-18 07:39:41
IHOP,Avenida PerifRico No. 3276 Y No. 3278,Colonia Esperanza,Mexico City,MX-TAB,09910,MX,19.31525612,-99.07681274,2022-12-18 06:25:20
IHOP,1315 West Pacheco Blvd,,Los Banos,CA,98635,US,37.0564537,-120.87129211,2022-12-18 07:39:41
IHOP,80 Hogan Court,,Bedford,NS,B4B 2H1,US,44.69589615,-63.6911087,2022-12-18 07:39:41
IHOP,IHOP Playa del Carmen,"Calle 5ta Av. #455, esq. calle 8 Nte.",Playa Del Carmen,MX-YUC,77720,US,20.65227699,-87.05314636,2022-12-13 15:34:02
IHOP,8834 Lake Road,,Seville,OH,44273,US,41.03319931,-81.90830231,2022-12-18 07:39:41
IHOP,6800 Thompson Road,,Baytown,TX,77521,US,29.79663086,-95.03100586,2022-12-18 06:25:07
