company_name,address_line_1,address_line_2,city,state_alpha,postal_code,country_code,latitude,longitude,when_verified
Olive Garden,480 Howe Ave,,Cuyahoga Falls,OH,442214957,US,41.11862564,-81.47831726,2022-12-18 07:39:42
Olive Garden,3924 Medina Road,,Akron,OH,443332445,US,41.13540649,-81.64019012,2022-12-18 07:39:42
Olive Garden,4810 Dressler Road,,Canton,OH,447182544,US,40.85137939,-81.43354034,2022-12-18 07:39:42
Olive Garden,8383 Day Drive,,Parma,OH,441295610,US,41.38002396,-81.74285126,2022-12-18 07:39:42
Olive Garden,17500 Bagley Road,,Middleburg Heights,OH,441302550,US,41.37241364,-81.82261658,2022-12-18 07:39:42
Olive Garden,26000 Harvard Road,,Beachwood,OH,441226142,US,41.44905853,-81.49710083,2022-12-18 07:39:42
Olive Garden,25984 Lorain Road,,North Olmsted,OH,440702736,US,41.42093658,-81.91004944,2022-12-18 07:39:42
Olive Garden,1635 West River Road,,Elyria,OH,440352715,US,41.3975029,-82.10647583,2022-12-18 07:39:42
Olive Garden,7740 Mentor Ave,,Mentor,OH,440605501,US,41.65969086,-81.36418152,2022-12-18 07:39:42
Olive Garden,5740 Youngstown-Warren Rd,,Niles,OH,444464708,US,41.20912552,-80.74878693,2022-12-18 06:54:29
Olive Garden,1580 North Main Street,,Salinas,CA,939065101,US,36.71197128,-121.65387726,2022-12-18 07:39:42
Olive Garden,3400 Clares Street,,Capitola,CA,950102548,US,36.97789383,-121.96904755,2022-12-18 07:39:42
Olive Garden,940 Blossom Hill Road,,San Jose,CA,951231202,US,37.24986649,-121.86453247,2022-12-18 07:39:42
Olive Garden,2226 Eastridge Loop,,San Jose,CA,951221465,US,37.32564926,-121.81072235,2022-12-18 07:39:42
Olive Garden,1350 Great Mall Drive,,Milpitas,CA,950358037,US,37.41297531,-121.89582825,2022-12-18 07:39:42
Olive Garden,39145 Farwell Dr,,Fremont,CA,945381014,US,37.531353,-121.99934387,2022-12-18 07:39:42
Olive Garden,24688 Hesperian Blvd,,Hayward,CA,945452434,US,37.64782333,-122.10655975,2022-12-18 07:39:42
Olive Garden,3140 Naglee Road,,Tracy,CA,953047319,US,37.75926208,-121.46160126,2022-12-18 07:39:42
Olive Garden,2749 Countryside Drive,,Turlock,CA,953808434,US,37.51702881,-120.87966156,2022-12-18 07:39:42
Olive Garden,2200 Plaza Parkway,,Modesto,CA,953506222,US,37.67105484,-121.03768921,2022-12-18 07:39:42
Olive Garden,4195 Century Blvd,,Pittsburg,CA,945657102,US,38.00699615,-121.84217834,2022-12-18 07:39:42
Olive Garden,1630 North Bechtle Ave,,Springfield,OH,455041572,US,39.94638824,-83.83310699,2022-12-18 07:39:42
Olive Garden,2865 Centre Dr.,,Beavercreek,OH,453242671,US,39.77304459,-84.05092621,2022-12-18 07:39:42
Olive Garden,6722 Miller Lane,,Dayton,OH,454142661,US,39.84470367,-84.19086456,2022-12-18 07:39:42
Olive Garden,2789 Miamisburg Centerville Rd,,Dayton,OH,454593729,US,39.63755798,-84.22044373,2022-12-18 07:39:42
Olive Garden,5450 Renner Rd,,Columbus,OH,432288962,US,39.98199844,-83.14792633,2022-12-18 07:39:42
Olive Garden,6710 Roosevelt Ave,,Middletown,OH,45005,US,39.49250412,-84.33107758,2022-12-18 07:39:42
Olive Garden,7160 Sawmill Road,,Columbus,OH,432351943,US,40.11062622,-83.08991241,2022-12-18 07:39:42
Olive Garden,1514 Stringtown Rd,,Grove City,OH,431239743,US,39.87884521,-83.03842926,2022-12-18 07:39:42
Olive Garden,1250 Polaris Parkway,,Columbus,OH,432402036,US,40.14251328,-82.98622894,2022-12-18 07:39:42
Olive Garden,4900 Fields-Ertel Road,,Cincinnati,OH,452498202,US,39.29321671,-84.31314087,2022-12-18 07:39:42
Olive Garden,4860 N. Hamilton Rd.,,Columbus,OH,432301756,US,40.05692291,-82.8627243,2022-12-18 07:39:42
Olive Garden,4111 National Road East,,Richmond,IN,473743725,US,39.83052063,-84.84613037,2022-12-18 07:39:42
Olive Garden,2439 Taylor Square Drive,,Reynoldsburg,OH,430689500,US,39.93508911,-82.78853607,2022-12-18 07:39:42
Olive Garden,1936 Roschman Ave,,Lima,OH,458043444,US,40.72626495,-84.07460785,2022-12-18 07:39:42
Olive Garden,7179 Dixie Hwy,,Fairfield,OH,450145542,US,39.31072998,-84.48830414,2022-12-18 07:39:42
Olive Garden,1417 N Bridge St,,Chillicothe,OH,456014128,US,39.36462402,-82.97544098,2022-12-18 07:39:42
Olive Garden,3290 Vandercar Way,,Cincinnati,OH,452091012,US,39.158535,-84.42545319,2022-12-18 07:39:42
Olive Garden,3725 Stone Creek Blvd,,Cincinnati,OH,452511457,US,39.25289154,-84.60531616,2022-12-18 07:39:42
Olive Garden,475 Ohio Pike,,Cincinnati,OH,452553337,US,39.07096481,-84.30874634,2022-12-18 07:39:42
Olive Garden,2093 Schorrway Dr.,,Lancaster,OH,431308412,US,39.73470306,-82.62554932,2022-12-18 07:39:42
Olive Garden,898 Hebron Rd.,,Heath,OH,430561170,US,40.02707291,-82.44392395,2022-12-18 07:39:42
Olive Garden,15115 US 224 East,,Findlay,OH,458408737,US,41.05565643,-83.5895462,2022-12-18 07:39:42
Olive Garden,7844 Mall Road,,Florence,KY,410421408,US,38.99290848,-84.65148926,2022-12-18 07:39:42
Olive Garden,304 W. McGalliard Rd.,,Muncie,IN,473031107,US,40.21949768,-85.38939667,2022-12-18 07:39:42
Olive Garden,558 N Lexington Springmill Rd,,Mansfield,OH,449063821,US,40.76667786,-82.58969116,2022-12-18 07:39:42
Olive Garden,853 Boardman-Poland Rd,,Boardman Township,OH,445125116,US,41.02370071,-80.63643646,2022-12-18 06:54:29
Olive Garden,5205 Milan Road,,Sandusky,OH,448707135,US,41.40523911,-82.66182709,2022-12-18 07:39:42
Olive Garden,5945 Peach Street,,Erie,PA,165093439,US,42.06405258,-80.09281158,2022-12-18 06:54:29
Olive Garden,1716 Route 228,,Cranberry Township,PA,160665320,US,40.68488693,-80.08389282,2022-12-18 06:54:29
Olive Garden,6000 Robinson Center Drive,,Pittsburgh,PA,152054859,US,40.4503746,-80.16152191,2022-12-18 06:54:29
Olive Garden,40 McIntyre Square Drive,,Pittsburgh,PA,152377301,US,40.55324173,-80.01940155,2022-12-18 06:54:29
Olive Garden,971 Greentree Road,,Pittsburgh,PA,152203303,US,40.41982651,-80.04571533,2022-12-18 06:54:29
Olive Garden,11325 NE 124th Street,,Kirkland,WA,980344304,US,47.71089172,-122.1895752,2022-12-18 07:39:42
Olive Garden,310 Strander Blvd,,Tukwila,WA,981882939,US,47.45627213,-122.25763702,2022-12-18 07:39:42
Olive Garden,4221 196th Street SW,,Lynnwood,WA,980366718,US,47.82138062,-122.29055023,2022-12-18 07:39:42
Olive Garden,3204 NW Randall Way,,Silverdale,WA,983837952,US,47.65969467,-122.69379425,2022-12-18 07:39:42
Olive Garden,1310 SE Everett Mall Way,,Everett,WA,982082831,US,47.91151428,-122.21463776,2022-12-18 07:39:42
Olive Garden,35030 Enchanted Pkwy,,Federal Way,WA,980038326,US,47.28782272,-122.31304169,2022-12-18 07:39:42
Olive Garden,1921 S 72nd Street,,Tacoma,WA,984081240,US,47.19351959,-122.46140289,2022-12-18 07:39:42
Olive Garden,3803 9th Street,,Puyallup,WA,983733666,US,47.15641785,-122.30293274,2022-12-18 07:39:42
Olive Garden,10326 Quil Ceda Blvd,,Tulalip,WA,982719164,US,48.08993912,-122.18648529,2022-12-18 07:39:42
Olive Garden,2400 Capital Mall Dr S.W.,,Olympia,WA,985025000,US,47.04024887,-122.93209839,2022-12-18 07:39:42
Olive Garden,1809 Marketplace Drive,,Burlington,WA,982333205,US,48.45146942,-122.33834839,2022-12-18 07:39:42
Olive Garden,4276 Guide Meridian,,Bellingham,WA,982266476,US,48.79550171,-122.48518372,2022-12-18 06:54:29
Olive Garden,615 Valley Mall Parkway,,East Wenatchee,WA,988024837,US,47.41290283,-120.29115295,2022-12-18 07:39:42
Olive Garden,3094 Helmsdale Place,,Lexington,KY,405092212,US,38.0102272,-84.42173767,2022-12-18 06:54:29
Olive Garden,3385 Nicholasville Road,,Lexington,KY,405033601,US,37.98916245,-84.52539825,2022-12-18 06:54:29
Olive Garden,2168 Lantern Ridge Drive,,Richmond,KY,404756011,US,37.73806,-84.32524109,2022-12-18 06:25:08
Olive Garden,9730 Von Allmen Ct,,Louisville,KY,402412833,US,38.31113434,-85.57191467,2022-12-18 06:54:29
Olive Garden,1320 Hurstbourne Lane,,Louisville,KY,402225761,US,38.22654724,-85.57832336,2022-12-18 06:54:29
Olive Garden,4811 R Outer Loop,,Louisville,KY,402193200,US,38.13942719,-85.673172,2022-12-18 06:54:29
Olive Garden,1230 Veterans Parkway,,Clarksville,IN,471292394,US,38.32788086,-85.7600708,2022-12-18 06:54:29
Olive Garden,12 Mall Rd.,Huntington Mall,Barboursville,WV,255041821,US,38.42021561,-82.26335144,2022-12-18 06:54:29
Olive Garden,1350 W 49th St.,Bldg. 1,Hialeah,FL,330123218,US,25.86624146,-80.30991364,2022-12-18 06:25:11
Olive Garden,8201 W Flagler,,Miami,FL,331442027,US,25.770298,-80.32905579,2022-12-18 06:25:11
Olive Garden,11425 Pines Blvd,,Pembroke Pines,FL,330264103,US,26.00837517,-80.30086517,2022-12-18 06:25:11
Olive Garden,17985 Biscayne Blvd,,Aventura,FL,331602502,US,25.94199944,-80.14808655,2022-12-18 06:25:11
Olive Garden,8925 SW 162nd Avenue,,Miami,FL,331966434,US,25.68351746,-80.4548111,2022-12-18 06:25:11
Olive Garden,807 S University Drive,,Plantation,FL,333243317,US,26.11145782,-80.25115967,2022-12-18 06:25:11
Olive Garden,20345 S Dixie Highway,,Cutler Bay,FL,331891266,US,25.57741547,-80.37020111,2022-12-18 06:25:12
Olive Garden,1555 N University Dr,,Coral Springs,FL,330716041,US,26.25063324,-80.25244141,2022-12-18 06:25:11
Olive Garden,5550 N Federal Hwy,,Fort Lauderdale,FL,333083209,US,26.19538689,-80.1114502,2022-12-18 06:25:11
Olive Garden,2575 NE 8th Street,,Homestead,FL,330335333,US,25.47836113,-80.4408493,2022-12-18 06:25:12
Olive Garden,22161 Powerline Road,,Boca Raton,FL,334335046,US,26.34775162,-80.15428162,2022-12-18 06:25:11
Olive Garden,1001 N. Congress Ave.,,Boynton Beach,FL,334263306,US,26.53608513,-80.09116364,2022-12-18 06:25:11
Olive Garden,5801 Lake Worth Road,,Lake Worth,FL,334633209,US,26.61955452,-80.13475037,2022-12-18 06:25:11
Olive Garden,10280 Forest Hill Blvd,,Wellington,FL,334149332,US,26.65044594,-80.20919037,2022-12-18 06:25:11
Olive Garden,3533 North Lake Blvd,Bldg. 1,West Palm Beach,FL,334031625,US,26.80903435,-80.09056854,2022-12-18 06:25:11
Olive Garden,1565 5th Avenue S,,Naples,FL,341023437,US,26.13902473,-81.78318024,2022-12-18 06:25:11
Olive Garden,3447 NW Federal Way,,Jensen Beach,FL,349574403,US,27.24740791,-80.27250671,2022-12-18 06:25:11
Olive Garden,10221 SW Meeting St,,Port Saint Lucie,FL,349872360,US,27.26570129,-80.42861176,2022-12-18 06:25:11
Olive Garden,8091 Plaza Del Lago Drive,,Estero,FL,339285300,US,26.40587997,-81.80888367,2022-12-18 06:25:11
Olive Garden,10020 University Plaza Drive,Gulf Coast Town Center,Fort Myers,FL,339136012,US,26.49233818,-81.78594971,2022-12-18 06:25:11
Olive Garden,2819 Oneida Street,,Green Bay,WI,543045754,US,44.47409439,-88.07427216,2022-12-18 06:25:13
Olive Garden,1275 N. Casaloma,,Appleton,WI,549138408,US,44.27244949,-88.47698212,2022-12-18 06:25:16
Olive Garden,1190 S Koeller St,,Oshkosh,WI,549026171,US,44.00815201,-88.58124542,2022-12-18 06:25:16
Olive Garden,N 91 W15848 Falls Parkway,,Menomonee Falls,WI,530512312,US,43.18397903,-88.10644531,2022-12-18 06:25:16
Olive Garden,2800 N US 31 S,,Traverse City,MI,496844529,US,44.72843552,-85.64513397,2022-12-18 06:54:29
Olive Garden,101 N Brand Boulevard,,Glendale,CA,912032639,US,34.14743042,-118.25562286,2022-12-18 06:54:29
Olive Garden,1741 N. Victory Place,Bldg. R6,Burbank,CA,915021646,US,34.1906395,-118.32901001,2022-12-18 06:54:29
Olive Garden,430 E Huntington Drive,,Arcadia,CA,910063748,US,34.13970566,-118.02187347,2022-12-18 06:54:29
Olive Garden,4835 Venice Blvd,,Los Angeles,CA,900195664,US,34.04675293,-118.34179688,2022-12-18 06:54:29
Olive Garden,1866 Montebello Town Ctr,,Montebello,CA,906402166,US,34.03736496,-118.08231354,2022-12-18 06:54:29
Olive Garden,6000 Sepulveda Blvd,Suite # 1220,Culver City,CA,902306425,US,33.98505783,-118.39508057,2022-12-18 06:54:29
Olive Garden,9253 Firestone Blvd,,Downey,CA,902415320,US,33.93312454,-118.11826324,2022-12-18 06:54:29
Olive Garden,13500 Whittier Blvd,,Whittier,CA,906051934,US,33.96162033,-118.03090668,2022-12-18 06:54:29
Olive Garden,19724 Nordhoff Place,,Chatsworth,CA,913116604,US,34.23480988,-118.56331635,2022-12-18 06:54:29
Olive Garden,17585 Castleton St,,City Of Industry,CA,917481702,US,33.99472809,-117.92025757,2022-12-18 06:54:29
Olive Garden,582 N Lone Hill Ave,,San Dimas,CA,917731725,US,34.11248398,-117.82848358,2022-12-18 06:54:29
Olive Garden,6501 Fallbrook Ave,,West Hills,CA,913073519,US,34.1882515,-118.62373352,2022-12-18 06:54:29
Olive Garden,2610 N. Sepulveda Blvd.,,Manhattan Beach,CA,902662724,US,33.89498901,-118.39511108,2022-12-18 06:25:12
Olive Garden,11171 183rd Street,,Cerritos,CA,907035415,US,33.86613464,-118.09643555,2022-12-18 06:25:12
Olive Garden,20532 Avalon Blvd,,Carson,CA,907463284,US,33.84516525,-118.2638092,2022-12-18 06:25:12
Olive Garden,27003 McBean Pkwy,,Santa Clarita,CA,913555145,US,34.42073059,-118.56327057,2022-12-18 06:54:29
Olive Garden,270 Brea Mall Way,,Brea,CA,928215703,US,33.9168396,-117.88317871,2022-12-18 06:54:29
Olive Garden,8386 La Palma Ave,,Buena Park,CA,906203208,US,33.8463707,-117.98794556,2022-12-18 06:25:12
Olive Garden,1051 W Rancho Vista Blvd,,Palmdale,CA,935513961,US,34.60606384,-118.14978027,2022-12-18 06:54:29
Olive Garden,23442 Hawthorne Blvd,,Torrance,CA,905054705,US,33.81263733,-118.34989166,2022-12-18 06:25:12
Olive Garden,6874 Katella Avenue,,Cypress,CA,906305108,US,33.80251312,-118.01258087,2022-12-18 06:25:12
Olive Garden,9251 Monte Vista,,Montclair,CA,917631746,US,34.08572006,-117.69783783,2022-12-18 06:54:29
Olive Garden,3801 Grand Avenue,,Chino,CA,917105431,US,33.99967957,-117.72129059,2022-12-18 06:54:29
Olive Garden,2330 N. Tustin St.,,Orange,CA,928653706,US,33.8290596,-117.83667755,2022-12-18 06:25:18
Olive Garden,3147 SE Military Drive,,San Antonio,TX,782233813,US,29.35236359,-98.43816376,2022-12-18 06:54:29
Olive Garden,7811 S IH 35,,San Antonio,TX,782241480,US,29.35137367,-98.53485107,2022-12-18 06:54:29
Olive Garden,7920 N IH 35,,San Antonio,TX,782182206,US,29.50754929,-98.3973465,2022-12-18 06:54:29
Olive Garden,6155 NW Loop 410,,San Antonio,TX,782383302,US,29.47112083,-98.61525726,2022-12-18 06:54:29
Olive Garden,13730 San Pedro,,San Antonio,TX,782324332,US,29.56600761,-98.48057556,2022-12-18 06:54:29
Olive Garden,2150 IKEA-RBFCU Pkway,,Live Oak,TX,782332795,US,29.56359291,-98.34082031,2022-12-18 06:54:29
Olive Garden,423 W Loop 1604 S,,San Antonio,TX,782453993,US,29.42707443,-98.71218872,2022-12-18 06:54:29
Olive Garden,5439 W Loop 1604 N,,San Antonio,TX,782537307,US,29.48952484,-98.70831299,2022-12-18 06:54:29
Olive Garden,15814 Interstate 10 West,,San Antonio,TX,782579515,US,29.59245682,-98.60029602,2022-12-18 06:54:29
Olive Garden,22503 N US Hwy 281,Bldg 1,San Antonio,TX,782587630,US,29.6506691,-98.45124817,2022-12-18 06:54:29
Olive Garden,1354 N Interstate 35 Frontage Rd,,New Braunfels,TX,781302815,US,29.70278931,-98.09077454,2022-12-18 07:39:42
Olive Garden,1305 S  I-35,,San Marcos,TX,786667736,US,29.86619568,-97.94122314,2022-12-18 07:39:42
Olive Garden,3940 S Lamar Blvd,,Austin,TX,787047902,US,30.23712921,-97.79225922,2022-12-18 07:39:42
Olive Garden,8833 Burnet Road,,Austin,TX,787577009,US,30.37149048,-97.72614288,2022-12-18 07:39:42
Olive Garden,12827 Ranch Rd 620 N,,Austin,TX,787501219,US,30.46593475,-97.80200195,2022-12-18 07:39:42
Olive Garden,100 Sundance Pkwy,,Round Rock,TX,786817922,US,30.48425674,-97.6763916,2022-12-18 07:39:42
Olive Garden,7609 NE Zac Lentz Parkway,,Victoria,TX,779041553,US,28.86221123,-96.99848938,2022-12-18 07:39:42
Olive Garden,1401 South I-35,,Georgetown,TX,786265419,US,30.63057327,-97.69077301,2022-12-18 07:39:42
Olive Garden,1246 Old Country Rd,,Westbury,NY,115905651,US,40.74533463,-73.5997467,2022-12-18 07:39:42
Olive Garden,200 Baychester Ave,Suite 208A,Bronx,NY,104754583,US,40.86443329,-73.82772827,2022-12-18 07:39:42
Olive Garden,92-10 59th Avenue,,Elmhurst,NY,113735025,US,40.73403168,-73.8686142,2022-12-18 07:39:42
Olive Garden,610 W Sunrise Hwy,,Valley Stream,NY,115811010,US,40.66514969,-73.72261047,2022-12-18 07:39:42
Olive Garden,505 Gateway Dr,,Brooklyn,NY,112392801,US,40.65149307,-73.86933899,2022-12-18 07:39:42
Olive Garden,9025 Xavier Drive,,Yonkers,NY,107041315,US,40.92910385,-73.85186768,2022-12-18 07:39:42
Olive Garden,2 Times Square,,New York,NY,100367301,US,40.75933456,-73.98466492,2022-12-18 07:39:42
Olive Garden,500 Route 3 West,,Secaucus,NJ,070943701,US,40.79079056,-74.05198669,2022-12-18 07:39:42
Olive Garden,1684 Shore Parkway,,Brooklyn,NY,112146434,US,40.59391785,-73.99821472,2022-12-18 07:39:42
Olive Garden,1620 Bergen Town Center,,Paramus,NJ,076525028,US,40.91658783,-74.05825806,2022-12-18 07:39:42
Olive Garden,1715 Sunrise Highway,,Bay Shore,NY,117066007,US,40.73714066,-73.24433136,2022-12-18 07:39:42
Olive Garden,83 Route 23 South,,Wayne,NJ,074706937,US,40.89199448,-74.25323486,2022-12-18 07:39:42
Olive Garden,275 Route 22 East,,Springfield,NJ,070813554,US,40.68481064,-74.32305145,2022-12-18 07:39:42
Olive Garden,510 Woodbridge Center Drive,,Woodbridge,NJ,070951306,US,40.55644608,-74.30482483,2022-12-18 07:39:42
Olive Garden,257 Centereach Mall,,Centereach,NY,117202738,US,40.85911942,-73.08216858,2022-12-18 07:39:42
Olive Garden,230 Route 35,,Eatontown,NJ,077242103,US,40.28453445,-74.05080414,2022-12-18 07:39:42
Olive Garden,1317 Centennial Ave,,Piscataway,NJ,088544321,US,40.55289841,-74.44069672,2022-12-18 07:39:42
Olive Garden,777 Route 18,,East Brunswick,NJ,088164934,US,40.4213829,-74.37768555,2022-12-18 07:39:42
Olive Garden,36 Backus Ave.,,Danbury,CT,068107329,US,41.37471008,-73.48648834,2022-12-18 07:39:42
Olive Garden,323 Mt Hope Ave,,Rockaway,NJ,078661645,US,40.90874863,-74.54786682,2022-12-18 07:39:42
Olive Garden,1300 Interstate Drive,,Cookeville,TN,385014129,US,36.1375618,-85.50730133,2022-12-18 06:25:08
Olive Garden,10923 Parkside Drive,,Knoxville,TN,379341959,US,35.90348434,-84.14802551,2022-12-18 06:25:08
Olive Garden,7206 Kingston Pike,,Knoxville,TN,379195601,US,35.93014145,-84.02788544,2022-12-18 06:25:08
Olive Garden,244 Hamilton Crossing Dr,,Alcoa,TN,377012262,US,35.76768112,-83.98670197,2022-12-18 07:39:42
Olive Garden,4499 Keith St. NW,,Cleveland,TN,373124820,US,35.20116806,-84.84656525,2022-12-18 07:39:42
Olive Garden,5525 Highway 153,,Hixson,TN,373433748,US,35.14558411,-85.24990082,2022-12-18 06:54:29
Olive Garden,2200 Hamilton Place Blvd,,Chattanooga,TN,374216021,US,35.03693771,-85.1567688,2022-12-18 07:39:42
Olive Garden,1710 Old Fort Parkway,,Murfreesboro,TN,371293351,US,35.84704971,-86.41815186,2022-12-18 06:54:29
Olive Garden,401 South Mt. Juliet Road,Suite 115,Mount Juliet,TN,371228545,US,36.16711044,-86.51348114,2022-12-18 06:54:29
Olive Garden,1570 Parkway,,Sevierville,TN,378622847,US,35.83507919,-83.57289124,2022-12-18 06:25:08
Olive Garden,3220 Scottsville Road,,Bowling Green,KY,421046311,US,36.93983841,-86.41986084,2022-12-18 06:54:29
Olive Garden,1131 Bell Road,,Antioch,TN,370133701,US,36.04545212,-86.66461182,2022-12-18 06:54:29
Olive Garden,1711 Gallatin Road N,,Madison,TN,371152123,US,36.2950325,-86.70002747,2022-12-18 06:54:29
Olive Garden,2540 E Morris Blvd,,Morristown,TN,378131946,US,36.22215271,-83.26137543,2022-12-18 06:25:08
Olive Garden,200 N. Galleria Dr.,,Middletown,NY,109413037,US,41.46292877,-74.37175751,2022-12-18 07:39:42
Olive Garden,600 Shoppes At Stroud,,Stroudsburg,PA,18360,US,40.98788834,-75.23322296,2022-12-18 07:39:42
Olive Garden,2044 South Road,,Poughkeepsie,NY,126015844,US,41.62917709,-73.91514587,2022-12-18 07:39:42
Olive Garden,1500 Scranton-Carbondale Hwy,,Scranton,PA,185081136,US,41.47000885,-75.63716888,2022-12-18 07:39:42
Olive Garden,762 US Route 202 S,,Bridgewater,NJ,088072551,US,40.57512283,-74.66387177,2022-12-18 07:39:42
Olive Garden,50 Kunkle Dr.,,Easton,PA,180452662,US,40.68517685,-75.25336456,2022-12-18 07:39:42
Olive Garden,561 Arena Hub Plaza,,Wilkes Barre,PA,187026840,US,41.24309158,-75.84060669,2022-12-18 07:39:42
Olive Garden,891 Foxcroft Avenue,,Martinsburg,WV,254011852,US,39.44916916,-77.98861694,2022-12-18 07:39:42
Olive Garden,17410 Valley Mall Road,,Hagerstown,MD,217406937,US,39.62641525,-77.76734161,2022-12-18 07:39:42
Olive Garden,2590 S. Pleasant Valley Road,,Winchester,VA,226017010,US,39.15354156,-78.17531586,2022-12-18 07:39:42
Olive Garden,990 Norland Ave & Walker Road,,Chambersburg,PA,172014203,US,39.93917084,-77.62754059,2022-12-18 07:39:42
Olive Garden,5609 Spectrum Dr.,,Frederick,MD,217038301,US,39.38478088,-77.40325165,2022-12-18 07:39:42
Olive Garden,45970 Waterview Plaza,,Sterling,VA,201666556,US,39.03324127,-77.4102478,2022-12-18 07:39:42
Olive Garden,3315 Pleasant Valley Blvd,,Altoona,PA,166024311,US,40.48350525,-78.40050507,2022-12-18 07:39:42
Olive Garden,500 Gorsuch Rd,,Westminster,MD,211576530,US,39.56868744,-76.97947693,2022-12-18 07:39:42
Olive Garden,10 Wilson Ave,,Hanover,PA,173315249,US,39.82878876,-76.99947357,2022-12-18 07:39:42
Olive Garden,7501 Broken Branch Lane,,Manassas,VA,201092657,US,38.79130173,-77.51480103,2022-12-18 07:39:42
Olive Garden,12980 Fair Lakes Shopping Center,,Fairfax,VA,220335176,US,38.85869217,-77.39118958,2022-12-18 07:39:42
Olive Garden,8133 Leesburg Pike,,Vienna,VA,221822751,US,38.91539001,-77.22716522,2022-12-18 07:39:42
Olive Garden,6520 Carlisle Pike,,Mechanicsburg,PA,170505251,US,40.24674225,-77.02727509,2022-12-18 07:39:42
Olive Garden,6 Restaurant Park Dr,,Owings Mills,MD,211173522,US,39.40451431,-76.79347229,2022-12-18 07:39:42
Olive Garden,3548-52 S Jefferson Street,,Falls Church,VA,220413119,US,38.84697342,-77.11894989,2022-12-18 07:39:42
Olive Garden,3480 East West Highway,,Hyattsville,MD,207821914,US,38.96725082,-76.95853424,2022-12-18 07:39:42
Olive Garden,14650 Baltimore Ave.,,Laurel,MD,207074954,US,39.09144974,-76.85848999,2022-12-18 07:39:42
Olive Garden,8315 Benson Drive,,Columbia,MD,210453116,US,39.18602753,-76.79949188,2022-12-18 07:39:42
Olive Garden,1340 Kenneth Road,,York,PA,174042282,US,39.973629,-76.76464081,2022-12-18 07:39:42
Olive Garden,5163 Route 30,,Greensburg,PA,156016692,US,40.30300903,-79.49927521,2022-12-18 07:39:42
Olive Garden,517 W Main Street,,Uniontown,PA,154012601,US,39.90818405,-79.74279022,2022-12-18 07:39:42
Olive Garden,14405 Gideon Drive,,Woodbridge,VA,221924634,US,38.6385994,-77.29702759,2022-12-18 07:39:42
Olive Garden,1945 Waddle Road,,State College,PA,168031639,US,40.81708527,-77.89910889,2022-12-18 07:39:42
Olive Garden,7061 Arundel Mills Circle,,Hanover,MD,210761387,US,39.1545105,-76.72914886,2022-12-18 07:39:42
Olive Garden,800 North 8th St,,West Dundee,IL,601181286,US,42.10260773,-88.2898941,2022-12-18 06:25:08
Olive Garden,3785 E. Main St.,,Saint Charles,IL,601742465,US,41.92066574,-88.26951599,2022-12-18 06:25:08
Olive Garden,332 W Army Trail Road,,Bloomingdale,IL,601082681,US,41.93852234,-88.10733795,2022-12-18 06:25:08
Olive Garden,1925 East Golf Road,,Schaumburg,IL,601735007,US,42.05018234,-88.03296661,2022-12-18 06:25:12
Olive Garden,630 East Rand Road,,Arlington Heights,IL,600044004,US,42.10930252,-87.97434235,2022-12-18 06:25:12
Olive Garden,620 S Route 59,,Naperville,IL,605400900,US,41.76131058,-88.20528412,2022-12-18 06:25:08
Olive Garden,3451 Shoppers Drive,,McHenry,IL,600515408,US,42.36717606,-88.26702881,2022-12-18 06:25:16
Olive Garden,1211 Butterfield Road,,Downers Grove,IL,605151067,US,41.83374405,-88.0178833,2022-12-18 06:25:08
Olive Garden,701 N Milwaukee Avenue,,Vernon Hills,IL,600611556,US,42.23947906,-87.94382477,2022-12-18 06:25:12
Olive Garden,2620 Route 34,,Oswego,IL,605438406,US,41.70265579,-88.30940247,2022-12-18 06:25:08
Olive Garden,215 S. Weber Road,,Bolingbrook,IL,604901502,US,41.69274521,-88.12397766,2022-12-18 06:25:08
Olive Garden,1315 W North Ave,,Melrose Park,IL,601601518,US,41.90878296,-87.8484726,2022-12-18 06:25:08
Olive Garden,5590 Northridge Dr,,Gurnee,IL,600314903,US,42.37817001,-87.94063568,2022-12-18 06:25:12
Olive Garden,7513 W Cermak Road,,North Riverside,IL,605461405,US,41.84988403,-87.80900574,2022-12-18 06:25:08
Olive Garden,3303 W Touhy Road,,Lincolnwood,IL,607122716,US,42.01104736,-87.71199036,2022-12-18 06:25:12
Olive Garden,3555 West Addison St,,Chicago,IL,606184202,US,41.94622803,-87.71716309,2022-12-18 06:25:12
Olive Garden,6367 E State Street,,Rockford,IL,611082540,US,42.26705933,-88.99204254,2022-12-18 06:25:08
Olive Garden,4801 W 77th,,Burbank,IL,604591586,US,41.75382233,-87.7420578,2022-12-18 06:25:08
Olive Garden,15215 South LaGrange Road,,Orland Park,IL,604623978,US,41.61362076,-87.8527298,2022-12-18 06:25:08
Olive Garden,10110 77th Street,,Pleasant Prairie,WI,531581145,US,42.56641006,-87.93093872,2022-12-18 06:25:12
Olive Garden,5220 W 211th St,,Matteson,IL,604431634,US,41.50669861,-87.73793793,2022-12-18 06:25:08
Olive Garden,6000 Durand Avenue,,Racine,WI,534065016,US,42.69792938,-87.85340881,2022-12-18 06:25:12
Olive Garden,9080 SW Freeway,,Houston,TX,770741503,US,29.68549156,-95.53350067,2022-12-18 07:39:42
Olive Garden,2929 Southwest Freeway,#160,Houston,TX,770984523,US,29.72955322,-95.42491913,2022-12-18 07:39:42
Olive Garden,1010 Old Spanish Trail,,Houston,TX,770541708,US,29.69158936,-95.41491699,2022-12-18 07:39:42
Olive Garden,9750 Katy Freeway,,Houston,TX,770556209,US,29.78622055,-95.53574371,2022-12-18 07:39:42
Olive Garden,2750 Highway 6,West Oaks Mall,Houston,TX,770821706,US,29.73029518,-95.6450119,2022-12-18 07:39:42
Olive Garden,10830 Northwest Freeway,,Houston,TX,770927304,US,29.81620598,-95.46406555,2022-12-18 07:39:42
Olive Garden,5005 Sweetwater Blvd.,,Sugar Land,TX,774793464,US,29.58756447,-95.63401794,2022-12-18 07:39:42
Olive Garden,2808 Smith Ranch Road,,Pearland,TX,775845253,US,29.55748367,-95.38635254,2022-12-18 07:39:42
Olive Garden,21220 Katy Freeway,,Katy,TX,774497773,US,29.78619957,-95.73940277,2022-12-18 07:39:42
Olive Garden,24221 Southwest Freeway,,Rosenberg,TX,774715983,US,29.54409218,-95.75045013,2022-12-18 07:39:42
Olive Garden,7525 FM 1960 W,,Houston,TX,770705805,US,29.9641037,-95.54159546,2022-12-18 07:39:42
Olive Garden,12711 Gulf Freeway,,Houston,TX,770344513,US,29.61571312,-95.21424866,2022-12-18 06:25:10
Olive Garden,15770 North Freeway,,Houston,TX,770905807,US,29.99598312,-95.42405701,2022-12-18 07:39:42
Olive Garden,4641 E Sam Houston Parkway S,,Pasadena,TX,775053949,US,29.64025307,-95.158638,2022-12-18 06:25:10
Olive Garden,15525 Wallisville Road,,Houston,TX,770494611,US,29.80959129,-95.16159058,2022-12-18 07:39:42
Olive Garden,28040 Highway 290,,Cypress,TX,774335450,US,29.98824692,-95.73827362,2022-12-18 07:39:42
Olive Garden,1310 W Bay Area Blvd,,Friendswood,TX,775462637,US,29.53974533,-95.14444733,2022-12-18 06:25:10
Olive Garden,14231 East Sam Houston Parkway N,,Houston,TX,77044,US,29.92697334,-95.20220947,2022-12-18 07:39:42
Olive Garden,162 N Bypass 35,,Alvin,TX,775112539,US,29.42471123,-95.22615814,2022-12-18 06:25:10
Olive Garden,9632 FM 1960,,Humble,TX,773384039,US,30.00428963,-95.27806854,2022-12-18 07:39:42
Olive Garden,6955 N Grand Parkway West,,Spring,TX,773891801,US,30.08658409,-95.52587891,2022-12-18 07:39:42
Olive Garden,519 Emily Dr,,Clarksburg,WV,263015509,US,39.26747894,-80.28713989,2022-12-18 06:25:10
Olive Garden,109 Grand Central Avenue,,Vienna,WV,261054109,US,39.29925919,-81.54873657,2022-12-18 06:54:29
Olive Garden,111 Cross Terrace Blvd,,Charleston,WV,253099461,US,38.31750107,-81.71752167,2022-12-18 06:25:08
Olive Garden,1000 University Town Centre Drive,,Morgantown,WV,265012268,US,39.65523148,-80.00466156,2022-12-18 06:25:08
Olive Garden,510 Cabela Drive,,Triadelphia,WV,260591044,US,40.05515289,-80.60154724,2022-12-18 06:54:29
Olive Garden,4289 Robert C. Byrd Drive,,Beckley,WV,258012223,US,37.8147583,-81.18703461,2022-12-18 06:25:08
Olive Garden,371 Washington Road,,Washington,PA,153012701,US,40.18834686,-80.22005463,2022-12-18 06:54:29
Olive Garden,907 Howard St.,,Zanesville,OH,437013769,US,39.94638824,-82.00029755,2022-12-18 06:54:29
Olive Garden,20080 Langley Bypass,,Langley,BC,V3A9J7,CA,49.11300659,-122.66669464,2022-12-18 06:54:29
Olive Garden,1888 South Willow St,,Manchester,NH,031032364,US,42.9491806,-71.43338776,2022-12-18 07:39:42
Olive Garden,223 Loudon Rd.,,Concord,NH,033016054,US,43.2218399,-71.49586487,2022-12-18 07:39:42
Olive Garden,422 Middlesex Road,,Tyngsboro,MA,018791021,US,42.69578934,-71.43839264,2022-12-18 07:39:42
Olive Garden,90 Pleasant Valley Ave,,Methuen,MA,018447212,US,42.74265289,-71.15563965,2022-12-18 07:39:42
Olive Garden,3 Orchard Hill Park Drive,,Leominster,MA,014537019,US,42.52341461,-71.71334839,2022-12-18 06:25:08
Olive Garden,2048 Woodbury Ave.,,Newington,NH,038012819,US,43.09619522,-70.79825592,2022-12-18 07:39:42
Olive Garden,728 Donald Lynch Blvd,,Marlborough,MA,017524719,US,42.35250854,-71.61587524,2022-12-18 06:25:08
Olive Garden,153 Andover St,,Danvers,MA,019231450,US,42.55776596,-70.9686203,2022-12-18 07:39:42
Olive Garden,1 Worcester Rd,,Framingham,MA,017015359,US,42.29931259,-71.39458466,2022-12-18 06:25:08
Olive Garden,7 Tobias Boland Way,,Worcester,MA,016072103,US,42.23203659,-71.78873444,2022-12-18 06:25:08
Olive Garden,11 B Allstate Rd,,Dorchester,MA,021251663,US,42.32607269,-71.06302643,2022-12-18 06:25:08
Olive Garden,401 Technology Center Drive,,Stoughton,MA,020724724,US,42.15525055,-71.06656647,2022-12-18 06:25:08
Olive Garden,392 Patriot Place South,TS Building,Foxboro,MA,020355102,US,42.08600998,-71.27138519,2022-12-18 06:25:08
Olive Garden,919 Riverdale Street,,West Springfield,MA,010894613,US,42.12891006,-72.6247406,2022-12-18 06:25:08
Olive Garden,200 Gorham Road,Ste. 800,South Portland,ME,041062409,US,43.63315964,-70.32582855,2022-12-18 07:39:42
Olive Garden,1240 Newport Ave.,,South Attleboro,MA,027038032,US,41.90024948,-71.35426331,2022-12-18 06:25:11
Olive Garden,41 Hazard Ave,,Enfield,CT,060823711,US,41.99025726,-72.57762146,2022-12-18 06:25:08
Olive Garden,102 Colony Place Rd,,Plymouth,MA,023607233,US,41.9544754,-70.71430206,2022-12-18 06:25:12
Olive Garden,31 Universal Blvd,,Warwick,RI,028864239,US,41.70291901,-71.49581146,2022-12-18 06:25:10
Olive Garden,1550 Pleasant Valley Rd,,Manchester,CT,060421637,US,41.80663681,-72.55576324,2022-12-18 07:39:42
Olive Garden,1498 W.O. Ezell Blvd,,Spartanburg,SC,293011553,US,34.93741226,-81.98656464,2022-12-18 06:54:29
Olive Garden,3290 N. Pleasantburg Drive,,Greenville,SC,296092925,US,34.89173889,-82.4025116,2022-12-18 07:39:42
Olive Garden,2695 Laurens Road,,Greenville,SC,296073817,US,34.81980896,-82.34017181,2022-12-18 06:54:29
Olive Garden,400 Airport Rd,,Arden,NC,287048531,US,35.44613266,-82.53425598,2022-12-18 06:54:29
Olive Garden,121 Tunnel Rd,,Asheville,NC,288051817,US,35.59266663,-82.53159332,2022-12-18 06:54:29
Olive Garden,200 Station Drive,,Anderson,SC,296211187,US,34.55962372,-82.69223785,2022-12-18 07:39:42
Olive Garden,432 Cox Road,,Gastonia,NC,280540609,US,35.26373672,-81.13289642,2022-12-18 06:54:29
Olive Garden,519 John Ross Parkway,,Rock Hill,SC,297308910,US,34.94163513,-80.98018646,2022-12-18 06:54:29
Olive Garden,2261 Highway 70,,Hickory,NC,286025165,US,35.70326996,-81.29535675,2022-12-18 06:54:29
Olive Garden,9421 Pineville Matthews Road,,Pineville,NC,281347546,US,35.08642578,-80.87741852,2022-12-18 06:54:29
Olive Garden,8225 Northlake Commons Blvd,,Charlotte,NC,282162272,US,35.34841919,-80.85461426,2022-12-18 06:54:29
Olive Garden,438 Talbert Road,,Mooresville,NC,281178035,US,35.58044434,-80.85334778,2022-12-18 06:54:29
Olive Garden,8010 Concord Mills Blvd,,Concord,NC,280274417,US,35.3704834,-80.71530151,2022-12-18 06:54:29
Olive Garden,2983 Monroe Way,,Monroe,NC,281107761,US,35.02247238,-80.57969666,2022-12-18 06:54:29
Olive Garden,274 Harbison Blvd,,Columbia,SC,292122232,US,34.07219696,-81.15850067,2022-12-18 06:54:29
Olive Garden,1852 US Highway 421,,Wilkesboro,NC,286972278,US,36.1505127,-81.20142365,2022-12-18 06:54:29
Olive Garden,1903 N Roan Street,,Johnson City,TN,376013115,US,36.33585358,-82.37328339,2022-12-18 06:25:08
Olive Garden,10136-112 Two Notch Road,,Columbia,SC,292294399,US,34.11749268,-80.88056946,2022-12-18 06:54:29
Olive Garden,1425 Klumac Road,,Salisbury,NC,281479087,US,35.63697815,-80.4887619,2022-12-18 06:54:29
Olive Garden,9750 Midlothian Turnpike,,Richmond,VA,232354973,US,37.50376511,-77.57535553,2022-12-18 07:39:42
Olive Garden,11829 W Broad St,,Richmond,VA,232331065,US,37.65322876,-77.62217712,2022-12-18 07:39:42
Olive Garden,7113 West Broad Street,,Richmond,VA,232943703,US,37.61203003,-77.52079773,2022-12-18 07:39:42
Olive Garden,4467 S Laburnum Ave,,Henrico,VA,232312419,US,37.52636337,-77.35423279,2022-12-18 07:39:42
Olive Garden,600 Southpark Blvd,,Colonial Heights,VA,238343627,US,37.24464035,-77.39110565,2022-12-18 07:39:42
Olive Garden,2150 Richmond Rd.,,Williamsburg,VA,231852756,US,37.30006409,-76.72844696,2022-12-18 07:39:42
Olive Garden,2811 Plank Road,,Fredericksburg,VA,224014947,US,38.29759216,-77.50879669,2022-12-18 07:39:42
Olive Garden,12560 Jefferson Ave,,Newport News,VA,236024314,US,37.13093948,-76.51327515,2022-12-18 07:39:42
Olive Garden,1049 W. Mercury Blvd,,Hampton,VA,236663308,US,37.04232788,-76.38253784,2022-12-18 07:39:42
Olive Garden,45265 Abell House Lane,,California,MD,206193210,US,38.29973984,-76.51071167,2022-12-18 07:39:42
Olive Garden,4117 Chesapeake Square Blvd,,Chesapeake,VA,233212200,US,36.82467651,-76.41027832,2022-12-18 07:39:42
Olive Garden,4038 Wards Road,,Lynchburg,VA,245022944,US,37.34486771,-79.18917847,2022-12-18 06:54:29
Olive Garden,3620 Crain Hwy,,Waldorf,MD,206034810,US,38.61274338,-76.92340851,2022-12-18 07:39:42
Olive Garden,45 Burgess Road,,Harrisonburg,VA,228019731,US,38.43504333,-78.84833527,2022-12-18 07:39:42
Olive Garden,5920 East Va Beach Blvd,,Norfolk,VA,235022402,US,36.85588455,-76.20275116,2022-12-18 07:39:42
Olive Garden,1631 Ring Road,,Chesapeake,VA,233202838,US,36.77656174,-76.2293396,2022-12-18 07:39:42
Olive Garden,683 Lynnhaven Parkway,,Virginia Beach,VA,234527320,US,36.82205963,-76.06760406,2022-12-18 07:39:42
Olive Garden,1961 Jonesboro Road,,McDonough,GA,302535972,US,33.46387863,-84.2195282,2022-12-18 07:39:42
Olive Garden,1380 Highway 85 N,,Fayetteville,GA,302147800,US,33.47763824,-84.438797,2022-12-18 07:39:42
Olive Garden,1176 Mount Zion Road,,Morrow,GA,302602220,US,33.5720253,-84.35177612,2022-12-18 07:39:42
Olive Garden,3390 Camp Creek Parkway,,East Point,GA,303445708,US,33.65688705,-84.50067902,2022-12-18 07:39:42
Olive Garden,3011 Turner Hill Road,,Lithonia,GA,300382529,US,33.69350052,-84.08946228,2022-12-18 07:39:42
Olive Garden,212 Newnan Crossing BYP,,Newnan,GA,30265,US,33.39199448,-84.76265717,2022-12-18 07:39:42
Olive Garden,6710 Douglas Blvd,,Douglasville,GA,301351599,US,33.72889328,-84.75001526,2022-12-18 07:39:42
Olive Garden,2467 Cobb Parkway SE,,Smyrna,GA,300803000,US,33.89205551,-84.47644806,2022-12-18 07:39:42
Olive Garden,4749 Ashford Dunwoody Road,,Dunwoody,GA,303385570,US,33.93320465,-84.33695984,2022-12-18 07:39:42
Olive Garden,1565 Scenic Hwy S,,Snellville,GA,300782129,US,33.8872757,-84.01050568,2022-12-18 07:39:42
Olive Garden,3565 Mall Blvd,,Duluth,GA,300964710,US,33.95798492,-84.13240051,2022-12-18 07:39:42
Olive Garden,905 Holcomb Bridge Rd,,Roswell,GA,300761905,US,34.02741623,-84.33535767,2022-12-18 07:39:42
Olive Garden,429 Barrett Pkwy,,Kennesaw,GA,301444959,US,34.01223755,-84.56300354,2022-12-18 07:39:42
Olive Garden,1379 South Park Street,,Carrollton,GA,301174433,US,33.55581665,-85.07431793,2022-12-18 07:39:42
Olive Garden,3220 Buford Dr,,Buford,GA,305194956,US,34.06424713,-83.9906311,2022-12-18 07:39:42
Olive Garden,4950 Riverside Drive,,Macon,GA,31210,US,32.92580414,-83.71298218,2022-12-18 07:39:42
Olive Garden,2040 Cumming Highway,,Canton,GA,301158071,US,34.23618317,-84.4541626,2022-12-18 07:39:42
Olive Garden,3666 Atlanta Highway,,Athens,GA,306063149,US,33.93981934,-83.45901489,2022-12-18 07:39:42
Olive Garden,15 Wallace Blvd,,Dawsonville,GA,305340112,US,34.35303497,-84.04827881,2022-12-18 07:39:42
Olive Garden,1175 Dawsonville Hwy NW,,Gainesville,GA,305012601,US,34.3026886,-83.85978699,2022-12-18 07:39:42
Olive Garden,3020 Watson Blvd,,Warner Robins,GA,310938500,US,32.61756134,-83.69297791,2022-12-18 07:39:42
Olive Garden,5555 G Whittlesey Blvd,,Columbus,GA,319097213,US,32.54498672,-84.94715881,2022-12-18 07:39:42
Olive Garden,789 Turner Mccall Blvd. NE,,Rome,GA,301612719,US,34.26124573,-85.17003632,2022-12-18 07:39:42
Olive Garden,5995 20th Street,,Vero Beach,FL,329664678,US,27.63825989,-80.45011139,2022-12-18 06:25:11
Olive Garden,16601 N Torrence Ave,,Lansing,IL,604381039,US,41.59309387,-87.55805206,2022-12-18 06:25:08
Olive Garden,10445 Indianapolis Blvd,,Highland,IN,463223511,US,41.52344131,-87.47058105,2022-12-18 06:25:08
Olive Garden,1900 Southlake Mall Drive,,Merrillville,IN,464106636,US,41.47068787,-87.31160736,2022-12-18 06:25:08
Olive Garden,20988 Salmon Run Mall Loop Rd,,Watertown,NY,136012290,US,43.97526169,-75.95533752,2022-12-18 06:25:12
Olive Garden,4636 Commercial Dr,,New Hartford,NY,134136203,US,43.08766174,-75.31243896,2022-12-18 07:39:42
Olive Garden,4125 Route 31,,Clay,NY,130418757,US,43.18632126,-76.22879791,2022-12-18 06:25:11
Olive Garden,3147 Erie Blvd East,,Syracuse,NY,132141201,US,43.05533218,-76.07635498,2022-12-18 06:25:11
Olive Garden,756 A Glen Street,,Queensbury,NY,128042029,US,43.33050919,-73.67198181,2022-12-18 06:54:29
Olive Garden,3242 North Gloster Street,,Tupelo,MS,388040943,US,34.30032349,-88.70679474,2022-12-18 06:25:15
Olive Garden,375 Cox Creek Parkway,,Florence,AL,356301539,US,34.84001923,-87.6375351,2022-12-18 06:54:29
Olive Garden,2100 McFarland Blvd E,,Tuscaloosa,AL,354045804,US,33.19099426,-87.52709198,2022-12-18 07:39:42
Olive Garden,7778 Winchester Road,,Memphis,TN,381252305,US,35.04985809,-89.80430603,2022-12-18 06:25:12
Olive Garden,6615 Airways Blvd,,Southaven,MS,386718116,US,34.95716858,-89.99073029,2022-12-18 06:25:12
Olive Garden,1102 Beltline Rd,,Decatur,AL,356016546,US,34.56273651,-86.97615814,2022-12-18 07:39:42
Olive Garden,5679 Poplar Ave,Suite 1,Memphis,TN,381193854,US,35.10420609,-89.87258911,2022-12-18 06:25:11
Olive Garden,4015 S. Lafountain,,Kokomo,IN,469026913,US,40.43836212,-86.12802887,2022-12-18 07:39:42
Olive Garden,4151 South Street,,Lafayette,IN,479054876,US,40.4169426,-86.82842255,2022-12-18 07:39:42
Olive Garden,10206 N Michigan Road,,Carmel,IN,460327947,US,39.93376541,-86.23416901,2022-12-18 07:39:42
Olive Garden,13285 Tegler Drive,,Noblesville,IN,460605411,US,39.99488449,-85.9289093,2022-12-18 07:39:42
Olive Garden,6130 E 82nd Street,,Indianapolis,IN,462501500,US,39.90584946,-86.06122589,2022-12-18 07:39:42
Olive Garden,4118 Scatterfield Rd.,,Anderson,IN,460132627,US,40.07278442,-85.65219116,2022-12-18 07:39:42
Olive Garden,10243 E Us Highway 36,,Avon,IN,461237985,US,39.76319885,-86.34144592,2022-12-18 07:39:42
Olive Garden,8155 E Washington,,Indianapolis,IN,462196813,US,39.77272034,-86.02378845,2022-12-18 07:39:42
Olive Garden,1274 US Highway 31,,Greenwood,IN,461424501,US,39.633358,-86.12606049,2022-12-18 07:39:42
Olive Garden,315 Coliseum Blvd W,,Fort Wayne,IN,468051008,US,41.11748123,-85.144104,2022-12-18 07:39:42
Olive Garden,4441 S. Franklin St,,Michigan City,IN,463607396,US,41.67026901,-86.89501953,2022-12-18 06:25:10
Olive Garden,6410 Grape Road,,Mishawaka,IN,465451103,US,41.71900177,-86.18711853,2022-12-18 06:25:10
Olive Garden,3003 Brittany Court,,Elkhart,IN,465145553,US,41.72822571,-85.97255707,2022-12-18 06:25:10
Olive Garden,2048 N State Route 50,,Bourbonnais,IL,609144410,US,41.1872406,-87.85041046,2022-12-18 07:39:42
Olive Garden,3820 South US Hwy 41,,Terre Haute,IN,478024108,US,39.42060852,-87.41473389,2022-12-18 07:39:42
Olive Garden,320 North Jacob Dr,,Bloomington,IN,474044823,US,39.16921234,-86.57296753,2022-12-18 07:39:42
Olive Garden,4701 American Blvd W,,Bloomington,MN,554371125,US,44.85741043,-93.34018707,2022-12-18 07:39:42
Olive Garden,3290 Central Park Village Drive,Central Park,Eagan,MN,551212055,US,44.83791733,-93.16806793,2022-12-18 07:39:42
Olive Garden,11390 Wayzata Blvd,,Minnetonka,MN,553052002,US,44.97187805,-93.42369843,2022-12-18 07:39:42
Olive Garden,1525 County Road C,,Roseville,MN,551133103,US,45.0214653,-93.1651535,2022-12-18 07:39:42
Olive Garden,1451 County Road 42 W,,Burnsville,MN,553066200,US,44.74580002,-93.29875946,2022-12-18 07:39:42
Olive Garden,12520 Elm Creek Blvd N,,Maple Grove,MN,553697050,US,45.09477615,-93.43934631,2022-12-18 07:39:42
Olive Garden,1749 Beam Avenue,,Maplewood,MN,551091128,US,45.02869415,-93.02631378,2022-12-18 07:39:42
Olive Garden,150 Coon Rapids Blvd.,,Coon Rapids,MN,554335811,US,45.13648224,-93.27205658,2022-12-18 07:39:42
Olive Garden,8367 3rd Street N.,,Oakdale,MN,551285440,US,44.95021439,-92.93496704,2022-12-18 07:39:42
Olive Garden,1880 Adams Street,,Mankato,MN,560014865,US,44.17108917,-93.94989777,2022-12-18 07:39:42
Olive Garden,12 Division St,,Waite Park,MN,563871329,US,45.55292511,-94.21437836,2022-12-18 07:39:42
Olive Garden,380 17th Ave. NW,,Rochester,MN,559010378,US,44.02756119,-92.48680115,2022-12-18 07:39:42
Olive Garden,4920 Golf Rd.,,Eau Claire,WI,547019098,US,44.77614212,-91.43771362,2022-12-18 06:54:29
Olive Garden,290 W Main Street,,Freehold,NJ,077282524,US,40.24431229,-74.29692078,2022-12-18 07:39:42
Olive Garden,1277 Hooper Ave.,,Toms River,NJ,087533399,US,39.98509979,-74.17848969,2022-12-18 07:39:42
Olive Garden,3345 Brunswick Pike - Rt 1,,Trenton,NJ,086482411,US,40.29543686,-74.68254089,2022-12-18 07:39:42
Olive Garden,3905 S. College Ave.,,Fort Collins,CO,805253014,US,40.53297806,-105.07754517,2022-12-18 07:39:42
Olive Garden,2285 Greeley Mall,,Greeley,CO,806318544,US,40.39033127,-104.71522522,2022-12-18 06:25:11
Olive Garden,1151 East 120th Ave,,Thornton,CO,802335712,US,39.91437912,-104.9728775,2022-12-18 06:25:11
Olive Garden,5551 W 88th Ave,,Westminster,CO,800313003,US,39.85698318,-105.05760956,2022-12-18 06:25:11
Olive Garden,8314 Northfield Blvd,,Denver,CO,802383531,US,39.7793541,-104.89092255,2022-12-18 06:25:11
Olive Garden,14175 West Colfax Ave,,Lakewood,CO,804013281,US,39.73664856,-105.15837097,2022-12-18 06:25:11
Olive Garden,7655 W. Alameda Ave.,,Lakewood,CO,802263101,US,39.71159744,-105.08255768,2022-12-18 06:25:11
Olive Garden,2390 S Havana Street,,Aurora,CO,800141610,US,39.67333221,-104.86508942,2022-12-18 06:25:11
Olive Garden,5380 S Wadsworth Blvd,,Littleton,CO,801232227,US,39.61978531,-105.09050751,2022-12-18 06:25:11
Olive Garden,1536 Dell Range Blvd,,Cheyenne,WY,820094828,US,41.16065979,-104.80516052,2022-12-18 06:25:11
Olive Garden,2520 E Co Line Road,,Highlands Ranch,CO,801263232,US,39.56525421,-104.95974731,2022-12-18 06:25:11
Olive Garden,6089 South Southlands  Parkway,,Aurora,CO,800165316,US,39.60555267,-104.71181488,2022-12-18 06:25:11
Olive Garden,1279 New Churchman's Rd,,Newark,DE,197132149,US,39.69036865,-75.66201019,2022-12-18 07:39:42
Olive Garden,304 E Pulaski Hwy,,Elkton,MD,219216435,US,39.59764481,-75.81961823,2022-12-18 07:39:42
Olive Garden,101 Quarry Road,,Downingtown,PA,193353419,US,40.01710129,-75.67295837,2022-12-18 07:39:42
Olive Garden,305 Rocky Run Parkway,,Talleyville,DE,198031522,US,39.81900787,-75.54954529,2022-12-18 07:39:42
Olive Garden,35 S. Willowdale Drive,Suite 1001,Lancaster,PA,176021497,US,40.02209473,-76.19335175,2022-12-18 07:39:42
Olive Garden,1001 Baltimore Pike. #1B,,Springfield,PA,190642800,US,39.91358185,-75.34259033,2022-12-18 07:39:42
Olive Garden,910 Plaza Blvd,,Lancaster,PA,176012740,US,40.06677628,-76.34459686,2022-12-18 07:39:42
Olive Garden,1 Town Center Drive,,Collegeville,PA,194264912,US,40.16492081,-75.4768219,2022-12-18 07:39:42
Olive Garden,83 City Line Ave,,Bala Cynwyd,PA,190042421,US,40.00346756,-75.22428894,2022-12-18 07:39:42
Olive Garden,1700 Crossing Drive,,Wyomissing,PA,196101241,US,40.34695053,-75.96685791,2022-12-18 07:39:42
Olive Garden,1500 N Almonesson Rd,,Deptford,NJ,080965259,US,39.82450485,-75.1002655,2022-12-18 07:39:42
Olive Garden,1200 Bethlehem Pike,,North Wales,PA,194541322,US,40.20990372,-75.2255249,2022-12-18 07:39:42
Olive Garden,8245 Perry Hall Blvd,,Nottingham,MD,212365033,US,39.3778038,-76.47109222,2022-12-18 06:54:29
Olive Garden,2328 Moreland Road,,Willow Grove,PA,190903207,US,40.1410408,-75.11701202,2022-12-18 07:39:42
Olive Garden,2314 SR 38,,Cherry Hill,NJ,080021867,US,39.94042587,-75.01257324,2022-12-18 07:39:42
Olive Garden,202 Laurel Oak Rd,,Voorhees,NJ,080434421,US,39.84751892,-74.98817444,2022-12-18 07:39:42
Olive Garden,9280 E Roosevelt Blvd,,Philadelphia,PA,191154715,US,40.07852936,-75.03194427,2022-12-18 07:39:42
Olive Garden,263 N Dupont Hwy,,Dover,DE,199017509,US,39.17050552,-75.51760101,2022-12-18 07:39:42
Olive Garden,3880 South Delsea Drive,,Vineland,NJ,083607453,US,39.43157578,-75.04098511,2022-12-18 07:39:42
Olive Garden,2245 E Lincoln Highway,,Langhorne,PA,190473033,US,40.17776489,-74.88098145,2022-12-18 07:39:42
Olive Garden,5102 Jonestown Road,,Harrisburg,PA,171122923,US,40.31110001,-76.80259705,2022-12-18 07:39:42
Olive Garden,"Kamakana Aliâ€™i Mall,","91-5431 Kapolei Parkway Suite 200,",Kapolei,HI,96707,US,21.33433533,-158.05213928,2022-12-18 06:25:21
Olive Garden,1450 Ala Moana Blvd.,Space 4240,Honolulu,HI,96814,US,21.29102707,-157.84234619,2022-12-18 06:25:19
Olive Garden,52 Plaza Drive,,Bloomsburg,PA,178158334,US,41.00978851,-76.48753357,2022-12-18 07:39:42
Olive Garden,1825 E Third St,,Williamsport,PA,177013913,US,41.24975204,-76.96723938,2022-12-18 07:39:42
Olive Garden,715 Grape St,,Whitehall,PA,180525206,US,40.63550568,-75.47606659,2022-12-18 07:39:42
Olive Garden,3288 Chambers Rd S.,,Horseheads,NY,148451407,US,42.15860367,-76.87757111,2022-12-18 06:54:29
Olive Garden,1112 Vestal Pkwy E,,Vestal,NY,138501750,US,42.09119415,-76.03160095,2022-12-18 07:39:42
Olive Garden,2710 W. North Lane,,Phoenix,AZ,850511519,US,33.58127975,-112.11815643,2022-12-18 06:25:17
Olive Garden,7889 W Bell Rd.,,Peoria,AZ,853823803,US,33.63769913,-112.22792053,2022-12-18 06:25:17
Olive Garden,1617 W Bethany Home Road,,Phoenix,AZ,850152507,US,33.52369308,-112.0941391,2022-12-18 06:25:17
Olive Garden,6970 North 95th Ave,,Glendale,AZ,853052487,US,33.53676605,-112.26473236,2022-12-18 06:25:17
Olive Garden,2501 W. Happy Valley Road,,Phoenix,AZ,850853701,US,33.71206284,-112.11398315,2022-12-18 06:25:17
Olive Garden,2626 N. 75th Avenue,,Phoenix,AZ,850351210,US,33.47755051,-112.22118378,2022-12-18 06:25:17
Olive Garden,4868 E Cactus Road,,Scottsdale,AZ,852544180,US,33.59804535,-111.97640228,2022-12-18 06:25:17
Olive Garden,13379 West Grand Ave,,Surprise,AZ,853744070,US,33.63807297,-112.35045624,2022-12-18 06:25:17
Olive Garden,3380 North Scottsdale Rd.,,Scottsdale,AZ,852516428,US,33.48734283,-111.92706299,2022-12-18 06:25:17
Olive Garden,15411 W. McDowell Road,,Goodyear,AZ,853952525,US,33.46411896,-112.39055634,2022-12-18 06:25:17
Olive Garden,1010 W. Elliot Rd.,,Tempe,AZ,852841115,US,33.34966278,-111.95505524,2022-12-18 06:25:17
Olive Garden,1261 W Southern Ave,,Mesa,AZ,852024810,US,33.39256668,-111.85903931,2022-12-18 06:25:17
Olive Garden,3430 W. Chandler Blvd,,Chandler,AZ,852265065,US,33.30617523,-111.90072632,2022-12-18 06:25:17
Olive Garden,6201 E. Southern Ave.,,Mesa,AZ,852063714,US,33.39355087,-111.697258,2022-12-18 06:25:17
Olive Garden,2930 E Germann Rd,,Chandler,AZ,852861404,US,33.28018951,-111.79021454,2022-12-18 06:25:17
Olive Garden,21422 S Ellsworth Loop Road,,Queen Creek,AZ,851427683,US,33.25375366,-111.63844299,2022-12-18 06:25:17
Olive Garden,717 N. Promenade Parkway,,Casa Grande,AZ,851945410,US,32.88012314,-111.67984772,2022-12-18 06:25:17
Olive Garden,3060 Highway 69,,Prescott,AZ,86301,US,34.55207825,-112.40822601,2022-12-18 06:25:17
Olive Garden,320 N Milwaukee Street,,Boise,ID,837049121,US,43.60798645,-116.2828064,2022-12-18 06:25:15
Olive Garden,16401 North Marketplace Blvd,,Nampa,ID,836875018,US,43.61082458,-116.59104919,2022-12-18 06:25:15
Olive Garden,5520 S. Broadway Ave.,,Tyler,TX,757034347,US,32.28845596,-95.30283356,2022-12-18 06:54:29
Olive Garden,104 W Loop 281,,Longview,TX,756054652,US,32.54111099,-94.74728394,2022-12-18 06:54:29
Olive Garden,204 Spur 557,,Terrell,TX,751609349,US,32.72140884,-96.32353973,2022-12-18 07:39:42
Olive Garden,3801 S Medford Drive,,Lufkin,TX,759015753,US,31.31363869,-94.71508026,2022-12-18 07:39:42
Olive Garden,1043 E Interstate 30,,Rockwall,TX,750874826,US,32.90579224,-96.45176697,2022-12-18 07:39:42
Olive Garden,3816 Towne Crossing Blvd,,Mesquite,TX,751506124,US,32.81703186,-96.63025665,2022-12-18 07:39:42
Olive Garden,7150 Youree Drive,,Shreveport,LA,711055107,US,32.44020081,-93.71746826,2022-12-18 06:25:08
Olive Garden,2935 Meadow Creek Drive,,Bossier City,LA,711115496,US,32.56177521,-93.70980072,2022-12-18 06:25:08
Olive Garden,4840 North George Bush Hwy,,Garland,TX,750402742,US,32.96133423,-96.63421631,2022-12-18 07:39:42
Olive Garden,1302 N. Hwy 77,,Waxahachie,TX,751655116,US,32.42148209,-96.8392868,2022-12-18 07:39:42
Olive Garden,9079 Vantage Point Dr,,Dallas,TX,752433581,US,32.91667557,-96.74517822,2022-12-18 07:39:42
Olive Garden,700 N Central Expressway,,Plano,TX,750746735,US,33.00995255,-96.70700073,2022-12-18 07:39:42
Olive Garden,639 N. Cockrell Hill,,Duncanville,TX,751163901,US,32.65860748,-96.89196014,2022-12-18 07:39:42
Olive Garden,190 East Stacy Road,Bldg. 3100,Allen,TX,750028760,US,33.12648773,-96.66109467,2022-12-18 07:39:42
Olive Garden,3351 Canyon Bluff Blvd,,Dallas,TX,752111201,US,32.76658249,-96.87496948,2022-12-18 07:39:42
Olive Garden,1100 N Green River Road,,Evansville,IN,477152423,US,37.98632431,-87.4931488,2022-12-18 06:54:29
Olive Garden,5204 Frederica Street,,Owensboro,KY,423017420,US,37.71723175,-87.12607574,2022-12-18 06:54:29
Olive Garden,1707 N Dixie Highway,,Elizabethtown,KY,427019496,US,37.73379135,-85.88624573,2022-12-18 06:54:29
Olive Garden,80 North Dartmouth Mall,,North Dartmouth,MA,027474208,US,41.64061737,-70.99407959,2022-12-18 06:25:11
Olive Garden,1095 Iyannough Rd,,Hyannis,MA,026011830,US,41.67263412,-70.30566406,2022-12-18 06:25:12
Olive Garden,850 Hartford Turnpike,Unit A,Waterford,CT,063854243,US,41.3772316,-72.14765167,2022-12-18 07:39:42
Olive Garden,3650 Tyler Street,,Riverside,CA,925034160,US,33.90945816,-117.45983887,2022-12-18 06:25:18
Olive Garden,4403 E. Mills Circle,,Ontario,CA,917645204,US,34.07685471,-117.55764008,2022-12-18 06:54:29
Olive Garden,2791 N Main Street,,Santa Ana,CA,927056008,US,33.77437592,-117.86692047,2022-12-18 06:25:18
Olive Garden,3755 Alton Pkwy,,Irvine,CA,926068293,US,33.6825943,-117.81401825,2022-12-18 06:25:18
Olive Garden,24256 El Toro Road #1,,Laguna Woods,CA,926373488,US,33.61106873,-117.72248077,2022-12-18 06:25:18
Olive Garden,22880 Centerpoint Drive,,Moreno Valley,CA,925535244,US,33.93969345,-117.26351166,2022-12-18 06:25:18
Olive Garden,1301 W Renaissance Pkwy,,Rialto,CA,923762406,US,34.13473511,-117.39704132,2022-12-18 06:54:29
Olive Garden,460 Hospitality Lane,,San Bernardino,CA,924083565,US,34.06698608,-117.27449799,2022-12-18 06:54:29
Olive Garden,16811 Beach Blvd,,Huntington Beach,CA,926474806,US,33.71805954,-117.98963165,2022-12-18 06:25:12
Olive Garden,27271 Newport Road,,Menifee,CA,925842400,US,33.68460846,-117.18347931,2022-12-18 06:25:18
Olive Garden,158 W Hillcrest Drive,,Thousand Oaks,CA,913604209,US,34.18193436,-118.8836441,2022-12-18 06:54:29
Olive Garden,1712 Galleria Blvd,,Franklin,TN,370676186,US,35.96551132,-86.81090546,2022-12-18 06:54:29
Olive Garden,2782 Wilma Rudolph Blvd,,Clarksville,TN,370405897,US,36.58540344,-87.29586792,2022-12-18 06:25:13
Olive Garden,1098 Crossings Blvd,,Spring Hill,TN,371742777,US,35.74303055,-86.93956757,2022-12-18 06:54:29
Olive Garden,1681 Ritchie Station Court,,Capitol Heights,MD,207435067,US,38.86748123,-76.85126495,2022-12-18 07:39:42
Olive Garden,328 E Fairmount Ave,,Lakewood,NY,147502006,US,42.09850693,-79.30229187,2022-12-18 06:25:08
Olive Garden,3701 McKinley Parkway,,Blasdell,NY,142192695,US,42.78788376,-78.81015778,2022-12-18 06:25:08
Olive Garden,2011 Walden Avenue,,Cheektowaga,NY,142255113,US,42.9081192,-78.76252747,2022-12-18 06:25:08
Olive Garden,1532 Military Road,,Niagara Falls,NY,143041732,US,43.09392929,-78.97250366,2022-12-18 06:25:08
Olive Garden,3951 Maple Rd.,,Amherst,NY,142261043,US,42.99043655,-78.81629944,2022-12-18 06:25:08
Olive Garden,7700 Transit Road,,Williamsville,NY,142216034,US,42.97732925,-78.69762421,2022-12-18 06:25:08
Olive Garden,6000 Oxford Drive,,Bethel Park,PA,151021826,US,40.34794617,-80.05018616,2022-12-18 06:54:29
Olive Garden,527 Clairton Boulevard,,Pleasant Hills,PA,152363809,US,40.33293152,-79.94567108,2022-12-18 06:54:29
Olive Garden,504 W 2230 North,,Provo,UT,846047509,US,40.26363373,-111.66720581,2022-12-18 06:25:16
Olive Garden,1092 North Canyon Creek Parkway,,Spanish Fork,UT,846601338,US,40.12360382,-111.64224243,2022-12-18 06:25:16
Olive Garden,538 West Main Street,,American Fork,UT,840032216,US,40.37726974,-111.81243134,2022-12-18 06:25:16
Olive Garden,947 N Redwood Rd,,Saratoga Springs,UT,84045,US,40.3794899,-111.91686249,2022-12-18 06:25:16
Olive Garden,10540 South State Rd,,Sandy,UT,840704109,US,40.55994797,-111.89125061,2022-12-18 06:25:17
Olive Garden,11364 S River Heights Drive,,South Jordan,UT,840955131,US,40.54459,-111.9835434,2022-12-18 06:25:17
Olive Garden,6305 South State St,Fashion Place Mall,Murray,UT,841077207,US,40.63422775,-111.88865662,2022-12-18 06:25:17
Olive Garden,2272 S 1300th East,,Salt Lake City,UT,841062831,US,40.72152328,-111.85427856,2022-12-18 06:25:17
Olive Garden,3515 Constitution Blvd,,West Valley,UT,841196079,US,40.69625854,-111.95742798,2022-12-18 06:25:17
Olive Garden,27 North 500 West,,West Bountiful,UT,840107029,US,40.8896637,-111.8925705,2022-12-18 06:25:13
Olive Garden,675 N Ring Rd,,Layton,UT,840414879,US,41.07603836,-111.97674561,2022-12-18 06:25:13
Olive Garden,4079 Riverdale Road,,Riverdale,UT,844051517,US,41.18984222,-111.98292542,2022-12-18 06:25:13
Olive Garden,Bayamon West Main Avenue,,Bayamon,PR,00961,US,18.40515327,-66.15539551,2022-12-16 15:27:50
Olive Garden,Calle Gonzalez Giusti,Lote 4,Guaynabo,PR,00968,US,18.40847015,-66.10434723,2022-12-16 15:27:50
Olive Garden,Ave. Manuel Fernandez Juncos,600,San Juan,PR,00907,US,18.45676613,-66.08693695,2022-12-16 15:27:50
Olive Garden,Premium Outlets Boulevard 1,,Barceloneta,PR,00617,US,18.43676567,-66.54006958,2022-12-16 15:27:50
Olive Garden,Ave. Franklin D Roosevelt,525,San Juan,PR,00918,US,18.42230034,-66.07434845,2022-12-16 15:27:50
Olive Garden,Carr.3 KM 6.8,Bo. San Anton,Carolina,PR,00985,US,18.39483452,-65.99282074,2022-12-16 15:27:50
Olive Garden,Plaza Prados del Sur,PR-153,Santa Isabel,PR,00757,US,18.01042366,-66.38601685,2022-12-16 15:27:50
Olive Garden,1441 New Britain Ave,,West Hartford,CT,061101659,US,41.72558975,-72.75922394,2022-12-18 07:39:42
Olive Garden,310 Universal Drive North,,North Haven,CT,064733163,US,41.3550415,-72.87233734,2022-12-18 07:39:42
Olive Garden,140 Gravois Bluffs Circle,,Fenton,MO,630267712,US,38.50505447,-90.44438171,2022-12-18 07:39:42
Olive Garden,5529 S. Lindbergh,,Affton,MO,631236932,US,38.52368927,-90.35681152,2022-12-18 07:39:42
Olive Garden,17198 Chesterfield/Airport Rd,,Chesterfield,MO,630051403,US,38.66798782,-90.59438324,2022-12-18 07:39:42
Olive Garden,3552 Pennridge Drive,,Bridgeton,MO,630442411,US,38.75813675,-90.43523407,2022-12-18 07:39:42
Olive Garden,5815 Suemandy Drive,,Saint Peters,MO,633764327,US,38.79616928,-90.62287903,2022-12-18 07:39:42
Olive Garden,1280 W. Pearce Blvd.,,Wentzville,MO,633853411,US,38.81071854,-90.87815857,2022-12-18 07:39:42
Olive Garden,25 Ludwig Dr,,Fairview Heights,IL,622081332,US,38.60157394,-89.9879303,2022-12-18 06:54:29
Olive Garden,3259 William Street,,Cape Girardeau,MO,637034961,US,37.30201721,-89.5765686,2022-12-18 06:54:29
Olive Garden,5223 US Hwy 251,,Peru,IL,61354,US,41.36927032,-89.12503052,2022-12-18 06:25:08
Olive Garden,1176 Admiral Callaghan Lane,,Vallejo,CA,945913700,US,38.13511276,-122.21739197,2022-12-18 07:39:42
Olive Garden,2671 W March Lane,,Stockton,CA,952076522,US,37.98545074,-121.34256744,2022-12-18 07:39:42
Olive Garden,100 Nut Tree Parkway,,Vacaville,CA,956873251,US,38.36888504,-121.95765686,2022-12-18 07:39:42
Olive Garden,7480 Elk Grove Blvd,,Elk Grove,CA,95757,US,38.40788651,-121.41679382,2022-12-18 07:39:42
Olive Garden,6430 Redwood Drive,,Rohnert Park,CA,949282326,US,38.34788895,-122.71546936,2022-12-18 07:39:42
Olive Garden,1780 Challenge Way,,Sacramento,CA,958155006,US,38.59735107,-121.42536163,2022-12-18 07:39:42
Olive Garden,3511 N Freeway Blvd,,Sacramento,CA,958342903,US,38.64041901,-121.50225067,2022-12-18 07:39:42
Olive Garden,5445 Sunrise Boulevard,,Citrus Heights,CA,956107806,US,38.66611099,-121.27261353,2022-12-18 07:39:42
Olive Garden,2485 Iron Point Road,,Folsom,CA,956308710,US,38.64592743,-121.11864471,2022-12-18 07:39:42
Olive Garden,1160 Galleria Blvd.,,Roseville,CA,956781950,US,38.77087021,-121.26515198,2022-12-18 07:39:42
Olive Garden,4101 Towne Center Blvd,,Bowie,MD,207162214,US,38.94568253,-76.73474884,2022-12-18 06:54:29
Olive Garden,9017 Ocean Gateway,,Easton,MD,216017195,US,38.79669952,-76.05921936,2022-12-18 07:39:42
Olive Garden,1919 N Eastman Road,,Kingsport,TN,376604616,US,36.54374313,-82.51837921,2022-12-18 06:25:08
Olive Garden,3105 Glenstone Avenue,,Springfield,MO,658044403,US,37.15735245,-93.26340485,2022-12-18 07:39:42
Olive Garden,3790 W 76 Country Blvd,,Branson,MO,656163558,US,36.6505928,-93.29017639,2022-12-18 07:39:42
Olive Garden,3031 E Hammonds Blvd,,Joplin,MO,648042642,US,37.04961777,-94.47768402,2022-12-18 07:39:42
Olive Garden,1716 South 46th Street,,Rogers,AR,727588077,US,36.31569672,-94.18358612,2022-12-18 07:39:42
Olive Garden,3616 North Mall Ave,,Fayetteville,AR,727034901,US,36.1170578,-94.14957428,2022-12-18 06:54:29
Olive Garden,439 Boston Post Rd.,,Orange,CT,064773507,US,41.25911331,-73.01177216,2022-12-18 07:39:42
Olive Garden,178 Wolf Road,,Colonie,NY,122055927,US,42.72285461,-73.80220032,2022-12-18 07:39:42
Olive Garden,303 Clifton Park Center Road,,Clifton Park,NY,120654001,US,42.86088943,-73.78025055,2022-12-18 06:54:29
Olive Garden,18180 Blue Mound Road,,Brookfield,WI,530452915,US,43.03743744,-88.13904572,2022-12-18 06:25:16
Olive Garden,4760 S 76th Street,,Greenfield,WI,532204302,US,42.95779419,-88.00771332,2022-12-18 06:25:12
Olive Garden,2440 Milwaukee St.,,Delafield,WI,530182014,US,43.05276108,-88.37615204,2022-12-18 06:25:16
Olive Garden,2813 Humes Rd.,,Janesville,WI,535450333,US,42.71831512,-88.9865036,2022-12-18 06:25:16
Olive Garden,4320 East Town Boulevard,,Madison,WI,537043706,US,43.12630081,-89.30935669,2022-12-18 06:25:15
Olive Garden,7017 Mineral Point Road,,Madison,WI,537171715,US,43.0602417,-89.5045166,2022-12-18 06:25:15
Olive Garden,3121 West 41st Street,,Sioux Falls,SD,571054258,US,43.51406097,-96.7648468,2022-12-18 06:25:08
Olive Garden,4930 Sergeant Road,,Sioux City,IA,511064731,US,42.44468689,-96.34249878,2022-12-18 06:25:08
Olive Garden,2736 Washington Rd,,Augusta,GA,309092293,US,33.50877762,-82.02642059,2022-12-18 06:54:29
Olive Garden,201 Henry Blvd,,Statesboro,GA,304582707,US,32.42818832,-81.75874329,2022-12-18 07:39:42
Olive Garden,280 Pooler Pkway,,Pooler,GA,313224022,US,32.1405983,-81.25092316,2022-12-18 07:39:42
Olive Garden,3600 Westown Parkway,,West Des Moines,IA,502661027,US,41.59403992,-93.75498962,2022-12-18 07:39:42
Olive Garden,5312 N Belt Highway,,Saint Joseph,MO,645061209,US,39.81494141,-94.81597137,2022-12-18 07:39:42
Olive Garden,770 SE Oralabor Rd,,Ankeny,IA,500219366,US,41.70350647,-93.58695984,2022-12-18 06:25:08
Olive Garden,3707 Denmark Drive,,Council Bluffs,IA,515017704,US,41.22251129,-95.83605194,2022-12-18 07:39:42
Olive Garden,7506 Olson Dr,,Papillion,NE,680464801,US,41.13740158,-96.02687836,2022-12-18 07:39:42
Olive Garden,1300 Interstate 70 Dr S.W.,,Columbia,MO,652032054,US,38.9638176,-92.35790253,2022-12-18 07:39:42
Olive Garden,1918 Red Wolf Blvd.,,Jonesboro,AR,724015452,US,35.82163239,-90.66820526,2022-12-18 06:54:29
Olive Garden,2943 Lakewood Village Drive,,North Little Rock,AR,721168033,US,34.79399109,-92.23171997,2022-12-18 06:25:12
Olive Garden,10715 N Rodney Parham Rd,,Little Rock,AR,722124112,US,34.76882553,-92.39221191,2022-12-18 06:25:11
Olive Garden,16732 Interstate 30 N,,Benton,AR,720192901,US,34.57395172,-92.59077454,2022-12-18 06:25:11
Olive Garden,170 Hanes Mall Circle,,Winston-Salem,NC,271033094,US,36.067379,-80.30376434,2022-12-18 06:25:08
Olive Garden,320 Market Center,,Bristol,VA,242025943,US,36.63274765,-82.12537384,2022-12-18 06:25:08
Olive Garden,12870 Cleveland Avenue,,Fort Myers,FL,339073822,US,26.55487442,-81.87242889,2022-12-18 06:25:11
Olive Garden,1910 Pine Island Road NE,,Cape Coral,FL,339091728,US,26.67116547,-81.93238831,2022-12-18 06:25:11
Olive Garden,1341 Tamiami Trail,,Port Charlotte,FL,339481003,US,27.01199913,-82.14589691,2022-12-18 06:25:11
Olive Garden,1696 US-27,,Sebring,FL,338701918,US,27.49726868,-81.48719025,2022-12-18 06:25:11
Olive Garden,4900 S Tamiami Trail,,Sarasota,FL,342314354,US,27.28304291,-82.53125763,2022-12-18 06:25:12
Olive Garden,4420 West 14th Street,,Bradenton,FL,342071425,US,27.46131706,-82.57582092,2022-12-18 06:25:13
Olive Garden,405 Cypress Garden Blvd SE,,Winter Haven,FL,338804435,US,28.0045166,-81.72162628,2022-12-18 06:25:11
Olive Garden,1340 Lakeside Village Circle,,Lakeland,FL,338037951,US,28.001091,-81.97580719,2022-12-18 06:25:13
Olive Garden,222 Yakima Avenue,,Yakima,WA,989012628,US,46.60258865,-120.50328827,2022-12-18 07:39:42
Olive Garden,12330 Amargosa Rd,,Victorville,CA,923925475,US,34.47468185,-117.34369659,2022-12-18 06:54:29
Olive Garden,700 Brown Rd,,Auburn Hills,MI,483261308,US,42.70516586,-83.29022217,2022-12-18 07:39:42
Olive Garden,2615 Rochester Road S,,Rochester Hills,MI,483074581,US,42.64146805,-83.13114929,2022-12-18 07:39:42
Olive Garden,13835 Lakeside Circle,,Sterling Heights,MI,483131317,US,42.62626266,-82.99066162,2022-12-18 07:39:42
Olive Garden,30600 Van Dyke,,Warren,MI,480932169,US,42.51856232,-83.02806091,2022-12-18 07:39:42
Olive Garden,27169 23 Mile Road,,Chesterfield,MI,480512045,US,42.67534637,-82.8367691,2022-12-18 07:39:42
Olive Garden,43300 Crescent Blvd,,Novi,MI,483751236,US,42.48516464,-83.47408295,2022-12-18 07:39:42
Olive Garden,24845 Gratiot Avenue,,Eastpointe,MI,480213314,US,42.47842407,-82.94966125,2022-12-18 07:39:42
Olive Garden,14000 Middlebelt Rd,,Livonia,MI,481544538,US,42.38523865,-83.33290863,2022-12-18 07:39:42
Olive Garden,3699 Miller Rd,,Flint,MI,485071233,US,42.98313141,-83.75189209,2022-12-18 07:39:42
Olive Garden,16151 Ford Rd.,,Dearborn,MI,481264131,US,42.32862473,-83.20120239,2022-12-18 07:39:42
Olive Garden,6870 Whitmore Lake Rd,,Brighton,MI,481168551,US,42.50283432,-83.75893402,2022-12-18 07:39:42
Olive Garden,15355 Eureka Road,,Southgate,MI,481952648,US,42.19844818,-83.20986938,2022-12-18 07:39:42
Olive Garden,4210 24th Avenue,,Fort Gratiot,MI,480593880,US,43.03116226,-82.4552536,2022-12-18 07:39:42
Olive Garden,445 E Eisenhower Pkwy,Concord Center,Ann Arbor,MI,481083309,US,42.24455261,-83.74167633,2022-12-18 07:39:42
Olive Garden,5015 Marsh Road,,Okemos,MI,488641103,US,42.7263031,-84.41577148,2022-12-18 07:39:42
Olive Garden,3630 Bay Road,,Saginaw,MI,486032407,US,43.4603157,-83.97497559,2022-12-18 07:39:42
Olive Garden,3500 O'Neill Dr.,,Jackson,MI,492021820,US,42.26829147,-84.45549774,2022-12-18 07:39:42
Olive Garden,5120 Monroe Street,,Toledo,OH,436233430,US,41.6999321,-83.64608765,2022-12-18 07:39:42
Olive Garden,6803 Eastman Ave,,Midland,MI,486427895,US,43.66004562,-84.24775696,2022-12-18 07:39:42
Olive Garden,1919 S Reynolds Road,,Toledo,OH,436141400,US,41.60519791,-83.66407013,2022-12-18 07:39:42
Olive Garden,4070 E Bluegrass Rd,,Mount Pleasant,MI,488587964,US,43.57434082,-84.7662735,2022-12-18 07:39:42
Olive Garden,2886 Preston Road,,Frisco,TX,750349437,US,33.1023941,-96.80477142,2022-12-18 07:39:42
Olive Garden,4240 Belt Line Rd,,Addison,TX,750014509,US,32.95393372,-96.83833313,2022-12-18 07:39:42
Olive Garden,1700 North Central Expressway,,McKinney,TX,750703114,US,33.21434021,-96.63600922,2022-12-18 06:25:17
Olive Garden,1161 S Preston Road,,Prosper,TX,750785112,US,33.2216835,-96.79885101,2022-12-18 06:25:17
Olive Garden,10280 E. Technology Blvd,,Dallas,TX,752204325,US,32.86254883,-96.89586639,2022-12-18 07:39:42
Olive Garden,2418 S Stemmons Parkway,,Lewisville,TX,750678778,US,33.00588608,-96.96837616,2022-12-18 07:39:42
Olive Garden,4001 W Airport Freeway,,Irving,TX,750625935,US,32.83773041,-97.00443268,2022-12-18 07:39:42
Olive Garden,301 W. State Highway 114,,Grapevine,TX,760514084,US,32.92143631,-97.07991028,2022-12-18 07:39:42
Olive Garden,2809 I-35E South,,Denton,TX,762105043,US,33.18286133,-97.10169983,2022-12-18 06:25:17
Olive Garden,3138 S Highway 161,,Grand Prairie,TX,750527685,US,32.69468689,-97.02567291,2022-12-18 07:39:42
Olive Garden,210 Lincoln Square,,Arlington,TX,760114892,US,32.75870895,-97.09998322,2022-12-18 07:39:42
Olive Garden,8020 Bedford Euless Road,,North Richland Hills,TX,761807162,US,32.83385468,-97.20736694,2022-12-18 07:39:42
Olive Garden,4604 S. Cooper Street,,Arlington,TX,760175826,US,32.67339706,-97.13627625,2022-12-18 07:39:42
Olive Garden,15885 North Freeway,,Fort Worth,TX,761773312,US,33.02228165,-97.278862,2022-12-18 06:25:08
Olive Garden,9333 Rain Lily Trail,,Fort Worth,TX,761777631,US,32.90816116,-97.31610107,2022-12-18 07:39:42
Olive Garden,234 Stafford Park Blvd.,,Manahawkin,NJ,080502735,US,39.71086121,-74.28695679,2022-12-18 07:39:42
Olive Garden,4403 Blackhorse Pike,,Mays Landing,NJ,083303103,US,39.4529686,-74.64704895,2022-12-18 07:39:42
Olive Garden,1010 Pittsburgh Mills Blvd,,Tarentum,PA,150843842,US,40.57009888,-79.79872131,2022-12-18 07:39:42
Olive Garden,9413 State Rd 16,,Onalaska,WI,546508539,US,43.87224579,-91.19091034,2022-12-18 06:25:08
Olive Garden,3650 Rib Mountain Drive,,Wausau,WI,544017493,US,44.9239006,-89.65369415,2022-12-18 06:25:18
Olive Garden,1140 N. Wesleyan Blvd,,Rocky Mount,NC,278041829,US,35.97270966,-77.80590057,2022-12-18 06:25:11
Olive Garden,11555 Carmel Mountain Rd,,San Diego,CA,921284617,US,32.97852325,-117.08243561,2022-12-18 06:25:12
Olive Garden,1107 W. Valley Parkway,,Escondido,CA,920252555,US,33.11553574,-117.09766388,2022-12-18 06:25:12
Olive Garden,1884 Marron Rd,Bldg L,Carlsbad,CA,920081172,US,33.17675018,-117.33747864,2022-12-18 06:25:18
Olive Garden,3215 Sports Arena Blvd,,San Diego,CA,921104529,US,32.75236511,-117.20721436,2022-12-16 15:27:38
Olive Garden,9800 Mission Gorge Rd,,Santee,CA,920713834,US,32.83909607,-116.9830246,2022-12-18 06:25:12
Olive Garden,5500 Grossmont Center Drive,Suite #420,La Mesa,CA,919423010,US,32.77702332,-117.01357269,2022-12-18 06:25:12
Olive Garden,585 I Street,,Chula Vista,CA,919105317,US,32.62820435,-117.08733368,2022-12-18 06:25:12
Olive Garden,29025 Overland Drive,,Temecula,CA,925913780,US,33.51953888,-117.15268707,2022-12-18 06:25:12
Olive Garden,72225 Highway 111,,Palm Desert,CA,922602744,US,33.7298584,-116.40429688,2022-12-18 06:25:12
Olive Garden,2590 North Franklin Street,,Christiansburg,VA,240731000,US,37.16595078,-80.4238205,2022-12-18 06:25:08
Olive Garden,1925 Valley View Blvd NW,,Roanoke,VA,240122002,US,37.30750656,-79.96477509,2022-12-18 06:54:29
Olive Garden,3730 University Dr NW,,Huntsville,AL,358163140,US,34.73579407,-86.62007904,2022-12-18 06:54:29
Olive Garden,4570 16th Street,,Moline,IL,612657043,US,41.46730042,-90.50636292,2022-12-18 06:25:08
Olive Garden,330 W Kimberly Road,,Davenport,IA,528065917,US,41.5605545,-90.57615662,2022-12-18 06:25:08
Olive Garden,930 25th Avenue,,Coralville,IA,522411225,US,41.68688202,-91.60399628,2022-12-18 06:25:08
Olive Garden,367 Collins Rd.,,Cedar Rapids,IA,524023118,US,42.02754211,-91.63556671,2022-12-18 06:25:08
Olive Garden,3915 W War Memorial Dr,,Peoria,IL,616152550,US,40.77125168,-89.65435028,2022-12-18 06:25:08
Olive Garden,11333 Abercorn St,,Savannah,GA,314191825,US,31.98054314,-81.14730835,2022-12-18 07:39:42
Olive Garden,1266 Fording Island Road,,Bluffton,SC,299106575,US,32.24602127,-80.83075714,2022-12-18 07:39:42
Olive Garden,600 Glynn Isles,,Brunswick,GA,315252934,US,31.20347023,-81.48273468,2022-12-18 07:39:42
Olive Garden,2156 North Woods Blvd,,North Charleston,SC,294064006,US,32.94276428,-80.04107666,2022-12-18 06:25:08
Olive Garden,2497 Memorial Drive,,Waycross,GA,315036337,US,31.19489479,-82.31983948,2022-12-18 07:39:42
Olive Garden,1415 Western Blvd,,Jacksonville,NC,285466758,US,34.78840256,-77.40432739,2022-12-18 06:25:08
Olive Garden,5152 Highway 70,,Morehead City,NC,285574504,US,34.73820114,-76.80579376,2022-12-18 06:25:20
Olive Garden,5307 Market Street,,Wilmington,NC,284053505,US,34.24599838,-77.87416077,2022-12-18 06:25:08
Olive Garden,803 N Berkeley Blvd,,Goldsboro,NC,275343411,US,35.37745285,-77.93955994,2022-12-18 06:25:19
Olive Garden,540 S.E. Greenville Blvd,,Greenville,NC,278586735,US,35.58321381,-77.37210846,2022-12-18 06:25:17
Olive Garden,3401 Raleigh Road Parkway W,Bldg. 7,Wilson,NC,278968218,US,35.7431488,-77.96408081,2022-12-18 06:25:11
Olive Garden,234 N Mc Pherson Church Rd,,Fayetteville,NC,283034495,US,35.0714798,-78.95124817,2022-12-18 06:25:08
Olive Garden,3101 Mall Drive,,Texarkana,TX,755032434,US,33.45957565,-94.07728577,2022-12-18 06:25:08
Olive Garden,3701 Airport Blvd,Festival Center,Mobile,AL,366081617,US,30.67553902,-88.13549042,2022-12-18 07:39:42
Olive Garden,3882 Promenade Parkway,,D'Iberville,MS,395405364,US,30.45557976,-88.90264893,2022-12-18 07:39:42
Olive Garden,30500-D State Highway 181,,Spanish Fort,AL,365275821,US,30.66932678,-87.85158539,2022-12-18 07:39:42
Olive Garden,4505 Hardy Street,,Hattiesburg,MS,394021306,US,31.32499504,-89.35806274,2022-12-18 06:25:17
Olive Garden,5037 Bayou Blvd,,Pensacola,FL,325032503,US,30.4726162,-87.21152496,2022-12-18 07:39:42
Olive Garden,168 Northshore Blvd,,Slidell,LA,704606820,US,30.31007767,-89.82492065,2022-12-18 06:25:18
Olive Garden,5001 Pinnacle Parkway,,Covington,LA,704339219,US,30.44518089,-90.13105774,2022-12-18 06:25:12
Olive Garden,4499 Potomac Ave,,Grandville,MI,494183083,US,42.88309479,-85.75350189,2022-12-18 07:39:42
Olive Garden,3883 28th St SE,,Grand Rapids,MI,495121803,US,42.91301346,-85.57168579,2022-12-18 07:39:42
Olive Garden,3030 Alpine Ave Nw,,Grand Rapids,MI,495448213,US,43.01813126,-85.68748474,2022-12-18 07:39:42
Olive Garden,1651 Sternberg Road,,Muskegon,MI,494448782,US,43.15293884,-86.20435333,2022-12-18 07:39:42
Olive Garden,6700 Westnedge Ave S,,Portage,MI,490023538,US,42.22023773,-85.59010315,2022-12-18 07:39:42
Olive Garden,401 Oxford Exchange Blvd,,Oxford,AL,362033460,US,33.61040497,-85.78398895,2022-12-18 07:39:42
Olive Garden,2991 S Veterans Parkway,,Springfield,IL,627046404,US,39.76512527,-89.70719147,2022-12-18 06:25:08
Olive Garden,2508 W New Haven Avenue,,West Melbourne,FL,329043702,US,28.07935143,-80.66264343,2022-12-18 06:25:12
Olive Garden,205 E Merritt Island Causeway,,Merritt Island,FL,329523636,US,28.3565731,-80.69642639,2022-12-18 06:25:12
Olive Garden,1604 W. Osceola Pkwy,,Kissimmee,FL,347410729,US,28.34170723,-81.42173767,2022-12-18 06:25:10
Olive Garden,5021 W. Irlo Bronson Memorial Hwy,,Kissimmee,FL,347465344,US,28.33369827,-81.48465729,2022-12-18 06:25:10
Olive Garden,8065 Osceola Polk Line Road,,Davenport,FL,338969102,US,28.26094246,-81.61042786,2022-12-18 06:25:10
Olive Garden,11882 E Colonial Drive,,Orlando,FL,328264701,US,28.56587029,-81.20529938,2022-12-18 06:25:08
Olive Garden,1555 Sand Lake Road,,Orlando,FL,328097080,US,28.45111465,-81.39942169,2022-12-18 06:25:10
Olive Garden,2316 N. Salisbury Blvd.,,Salisbury,MD,218017830,US,38.39933777,-75.56995392,2022-12-18 07:39:42
Olive Garden,323 N Rock Road,,Wichita,KS,672062254,US,37.69137955,-97.24520111,2022-12-18 07:39:42
Olive Garden,2641 N. Maize Rd,,Wichita,KS,672057309,US,37.73113632,-97.46327972,2022-12-18 07:39:42
Olive Garden,1718 N Rock Road,,Derby,KS,670373727,US,37.56480789,-97.24344635,2022-12-18 07:39:42
Olive Garden,1700 E 17th Ave,,Hutchinson,KS,675011100,US,38.07271576,-97.89718628,2022-12-18 07:39:42
Olive Garden,2820 S 9th Street,,Salina,KS,674017879,US,38.78760529,-97.61382294,2022-12-18 07:39:42
Olive Garden,998 North Walton Ave,,Yuba City,CA,959938634,US,39.14123535,-121.64490509,2022-12-18 07:39:42
Olive Garden,2020 Business Lane,,Chico,CA,959287603,US,39.7255249,-121.806633,2022-12-18 07:39:42
Olive Garden,4253 S Carson Street,,Carson City,NV,897015562,US,39.12917709,-119.7698288,2022-12-18 06:25:10
Olive Garden,5150 Hinkleville Rd,,Paducah,KY,420019693,US,37.07486725,-88.68965149,2022-12-18 06:54:29
Olive Garden,1067 Vann Drive,,Jackson,TN,383052094,US,35.66778183,-88.85906219,2022-12-18 06:25:11
Olive Garden,4900 S Virginia,,Reno,NV,895026016,US,39.48195648,-119.791008,2022-12-18 06:25:10
Olive Garden,1481 E Lincoln Way,,Sparks,NV,894347904,US,39.53394318,-119.71974182,2022-12-18 06:25:10
Olive Garden,1305 West Broadway St,,Idaho Falls,ID,834023346,US,43.4953804,-112.05284882,2022-12-18 06:25:14
Olive Garden,11650 SW Canyon Road,,Beaverton,OR,970052225,US,45.48920822,-122.79667664,2022-12-18 06:54:29
Olive Garden,6355 SW Meadows Rd.,,Lake Oswego,OR,970353263,US,45.41807938,-122.74212646,2022-12-18 06:54:29
Olive Garden,8700 SE Sunnyside,,Clackamas,OR,970157777,US,45.43288422,-122.57385254,2022-12-18 06:54:29
Olive Garden,9830 SE Washington Street,Portland Mall # 205,Portland,OR,972162420,US,45.51811981,-122.5619278,2022-12-18 06:54:29
Olive Garden,8101 NE Parkway Dr,,Vancouver,WA,986627911,US,45.65557861,-122.58921814,2022-12-18 06:54:29
Olive Garden,16405 SE Mill Plain Blvd,,Vancouver,WA,986849621,US,45.61480713,-122.50377655,2022-12-18 06:54:29
Olive Garden,2330 SE Burnside Rd,,Gresham,OR,970808056,US,45.49720383,-122.40959167,2022-12-18 06:54:29
Olive Garden,1302 Lancaster Drive NE,,Salem,OR,973011929,US,44.94612503,-122.98319244,2022-12-18 06:25:14
Olive Garden,1077 Valley River Dr,,Eugene,OR,974012145,US,44.07131958,-123.10433197,2022-12-18 06:25:13
Olive Garden,4121 West Interstate 40,,Amarillo,TX,791091530,US,35.19074249,-101.88343048,2022-12-18 06:54:29
Olive Garden,5702 Slide Road,,Lubbock,TX,794144106,US,33.54180908,-101.92320251,2022-12-18 06:54:29
Olive Garden,2705 W. Loop 250 N.,,Midland,TX,797053216,US,32.03530884,-102.12050629,2022-12-18 06:25:10
Olive Garden,5111 E 42nd Street,,Odessa,TX,797625207,US,31.89480972,-102.33013153,2022-12-18 06:25:10
Olive Garden,2254 Tiger Town Parkway,,Opelika,AL,368015490,US,32.61945343,-85.40804291,2022-12-18 07:39:42
Olive Garden,2701 Dawson Road,,Albany,GA,317071610,US,31.61850929,-84.22216034,2022-12-18 07:39:42
Olive Garden,2700 Eastern Boulevard,,Montgomery,AL,361171550,US,32.34539032,-86.22439575,2022-12-18 07:39:42
Olive Garden,2767 Legends Parkway,,Prattville,AL,360667754,US,32.45924759,-86.39661407,2022-12-18 07:39:42
Olive Garden,3360 Ross Clark Circle,,Dothan,AL,363033034,US,31.24069214,-85.43004608,2022-12-18 07:39:42
Olive Garden,21638 US Hwy 59,,New Caney,TX,773575086,US,30.13160133,-95.2299118,2022-12-18 07:39:42
Olive Garden,6744 Garth Road,,Baytown,TX,775219617,US,29.79939079,-94.98040009,2022-12-18 07:39:42
Olive Garden,26715 Interstate 45 N.,,Spring,TX,773801901,US,30.15023422,-95.44928741,2022-12-18 07:39:42
Olive Garden,3041 I-45 North,,Conroe,TX,773042167,US,30.35297966,-95.48509216,2022-12-18 07:39:42
Olive Garden,6911 Siegen Lane,,Baton Rouge,LA,708094530,US,30.38641739,-91.06271362,2022-12-18 06:25:08
Olive Garden,1981 Hammond Square Drive,,Hammond,LA,704036157,US,30.48060417,-90.45748901,2022-12-18 06:25:12
Olive Garden,1315 W. Esplanade Ave.,,Kenner,LA,700652744,US,30.02000809,-90.24938965,2022-12-18 06:25:12
Olive Garden,1757 Martin Luther King Drive,,Houma,LA,703602409,US,29.61390305,-90.75694275,2022-12-18 06:25:08
Olive Garden,5743 Johnston Street,,Lafayette,LA,705035302,US,30.17288399,-92.07854462,2022-12-18 06:25:08
Olive Garden,6700 Hwy 19,,Pinellas Park,FL,337816242,US,27.83327293,-82.68103027,2022-12-18 06:25:13
Olive Garden,2602 West Brandon Blvd,,Brandon,FL,335114721,US,27.94055939,-82.32463074,2022-12-18 06:25:13
Olive Garden,1802 N Westshore Blvd,,Tampa,FL,336073907,US,27.95800591,-82.52449036,2022-12-18 06:25:13
Olive Garden,10500 Ulmerton Rd,Suite 470,Largo,FL,337713512,US,27.89403343,-82.78579712,2022-12-18 06:25:13
Olive Garden,2801 E Busch Blvd,,Tampa,FL,336128729,US,28.03222656,-82.42810059,2022-12-18 06:25:13
Olive Garden,8306 Citrus Park Dr.,,Tampa,FL,336253005,US,28.06560326,-82.57465363,2022-12-18 06:25:13
Olive Garden,3911 US Hwy 98 North,,Lakeland,FL,338093814,US,28.09295082,-81.97306061,2022-12-18 06:25:13
Olive Garden,17011 Palm Pointe Dr,,Tampa,FL,336473505,US,28.11750603,-82.38110352,2022-12-18 06:25:13
Olive Garden,29461 US Hwy 19 North,,Clearwater,FL,337612132,US,28.04000092,-82.73754883,2022-12-18 06:25:13
Olive Garden,9690 US Hwy 19,,Port Richey,FL,346684642,US,28.29834366,-82.7056427,2022-12-18 06:25:13
Olive Garden,205 Civic Center Dr,,Augusta,ME,043308033,US,44.3444519,-69.79234314,2022-12-18 07:39:42
Olive Garden,741 Hogan Rd,,Bangor,ME,044013625,US,44.83973312,-68.74245453,2022-12-18 07:39:42
Olive Garden,513 Academy Boulevard,,Colorado Springs,CO,809098300,US,38.84158325,-104.75665283,2022-12-18 06:25:11
Olive Garden,7815 N Academy Blvd,,Colorado Springs,CO,809203901,US,38.94632721,-104.80066681,2022-12-18 06:25:11
Olive Garden,3240 N. Elizabeth St,,Pueblo,CO,810081141,US,38.30376053,-104.61399841,2022-12-18 06:25:12
Olive Garden,504 E Danenberg Drive,,El Centro,CA,922438510,US,32.76739883,-115.53444672,2022-12-18 06:25:12
Olive Garden,585 I-10 North,,Beaumont,TX,777065028,US,30.08579636,-94.13690948,2022-12-18 07:39:42
Olive Garden,1725 West Prien Lake Rd,,Lake Charles,LA,706018360,US,30.19723511,-93.24649811,2022-12-18 07:39:42
Olive Garden,10212 Emmett F Lowry Expressway,,Texas City,TX,775912137,US,29.40350342,-95.02416992,2022-12-18 06:25:10
Olive Garden,260 Mall Boulevard,,Monroeville,PA,151462212,US,40.43408203,-79.78691101,2022-12-18 07:39:42
Olive Garden,1701 New Stine Road,,Bakersfield,CA,933093614,US,35.33919907,-119.06168365,2022-12-18 06:54:29
Olive Garden,1210 S. Bradley Rd.,,Santa Maria,CA,934546334,US,34.93899155,-120.41873169,2022-12-18 06:25:08
Olive Garden,1891 Ventura Boulevard,,Oxnard,CA,930361823,US,34.22428513,-119.15238953,2022-12-18 06:25:12
Olive Garden,11966 Los Osos Valley Road,,San Luis Obispo,CA,934056861,US,35.2525177,-120.6869812,2022-12-18 06:25:08
Olive Garden,4110 South Mooney Blvd,,Visalia,CA,932779144,US,36.29282379,-119.31304169,2022-12-18 06:25:12
Olive Garden,8405 US Highway 64,,Memphis,TN,381334111,US,35.20386124,-89.7827301,2022-12-18 06:54:29
Olive Garden,225 Interstate 45 South,,Huntsville,TX,773404903,US,30.71020889,-95.56561279,2022-12-18 07:39:42
Olive Garden,63459 Highway 97,,Bend,OR,977038492,US,44.10487747,-121.2986145,2022-12-18 06:25:15
Olive Garden,10800 West Charleston Blvd,,Las Vegas,NV,891351102,US,36.15964127,-115.33142853,2022-12-18 06:25:18
Olive Garden,6850 W. Cheyenne Ave.,,Las Vegas,NV,891084590,US,36.21876144,-115.24440765,2022-12-18 06:25:18
Olive Garden,6191 Centennial Center Blvd,,Las Vegas,NV,891494573,US,36.27277756,-115.26651001,2022-12-18 06:25:18
Olive Garden,1361 S. Decatur Blvd,,Las Vegas,NV,891025517,US,36.15484619,-115.20735168,2022-12-18 06:25:18
Olive Garden,3767 S Las Vegas Blvd,Suite 300,Las Vegas,NV,891094380,US,36.10469055,-115.17240906,2022-12-18 06:25:18
Olive Garden,1545 E Flamingo Road,,Las Vegas,NV,891195277,US,36.11406326,-115.1322403,2022-12-18 06:25:18
Olive Garden,80 N. Nellis Blvd.,,Las Vegas,NV,891105301,US,36.16053772,-115.06170654,2022-12-18 06:25:18
Olive Garden,4400 E. Sunset Rd.,,Henderson,NV,890142237,US,36.07143784,-115.07724762,2022-12-18 06:25:18
Olive Garden,389 East Shaw Avenue,,Clovis,CA,936123818,US,36.8087883,-119.70484924,2022-12-18 06:25:10
Olive Garden,6725 North Riverside Drive,,Fresno,CA,937229309,US,36.83639526,-119.91127014,2022-12-18 06:25:10
Olive Garden,1025 Dana Drive,,Redding,CA,960034019,US,40.58524323,-122.35173798,2022-12-18 07:39:42
Olive Garden,11905 North Oracle Rd,,Oro Valley,AZ,857377835,US,32.42255783,-110.93997955,2022-12-18 06:25:18
Olive Garden,300 W Wetmore Road,,Tucson,AZ,857051650,US,32.28689575,-110.97695923,2022-12-18 06:25:18
Olive Garden,5410 E Broadway Blvd,,Tucson,AZ,857113700,US,32.22123337,-110.87680054,2022-12-18 06:25:18
Olive Garden,1213 West Irvington Road,,Tucson,AZ,857141167,US,32.1625824,-110.99107361,2022-12-18 06:25:18
Olive Garden,380 N Hwy 90,,Sierra Vista,AZ,856352289,US,31.55900383,-110.25840759,2022-12-18 06:25:18
Olive Garden,6347 I-55 North,,Jackson,MS,392139742,US,32.39664459,-90.14672852,2022-12-18 06:25:14
Olive Garden,3111 E. Colonial Dr,,Orlando,FL,328035107,US,28.55385017,-81.34257507,2022-12-18 06:25:08
Olive Garden,665 N Orlando Avenue,,Winter Park,FL,327892917,US,28.60301018,-81.36543274,2022-12-18 06:25:08
Olive Garden,4101 Conroy Road,Mall of Millenia,Orlando,FL,328392407,US,28.4882412,-81.42829132,2022-12-18 06:25:10
Olive Garden,300 West 436,,Altamonte Springs,FL,327144134,US,28.66121674,-81.39479065,2022-12-18 06:25:08
Olive Garden,8984 International Dr,,Orlando,FL,328199321,US,28.43711853,-81.47325134,2022-12-18 06:25:10
Olive Garden,12361 State Road 535,,Orlando,FL,328366737,US,28.38535881,-81.5055542,2022-12-18 06:25:10
Olive Garden,7300 W Colonial Drive,,Orlando,FL,328186745,US,28.55150414,-81.48079681,2022-12-18 06:25:10
Olive Garden,10 Towne Center Circle,,Sanford,FL,327717411,US,28.80610085,-81.3355484,2022-12-18 06:25:08
Olive Garden,2530 Enterprise Road,,Orange City,FL,327637906,US,28.91633987,-81.29530334,2022-12-18 06:25:08
Olive Garden,5447 S Williamson Blvd.,,Port Orange,FL,321287399,US,29.10937309,-81.03529358,2022-12-18 06:25:08
Olive Garden,8136 W Irlo Bronson Hwy,,Kissimmee,FL,347471003,US,28.34630966,-81.61208344,2022-12-18 06:25:10
Olive Garden,1780 W. International Speedway Blvd.,,Daytona Beach,FL,321141304,US,29.19385147,-81.0658493,2022-12-18 06:25:08
Olive Garden,650 NW Blue Parkway,,Lees Summit,MO,640865734,US,38.92653275,-94.40155029,2022-12-18 06:54:29
Olive Garden,801 NE Coronado,,Blue Springs,MO,640143004,US,39.02674866,-94.25191498,2022-12-18 07:39:42
Olive Garden,6750 W 95th Street,,Overland Park,KS,662121466,US,38.95708847,-94.66342163,2022-12-18 07:39:42
Olive Garden,13910 E 40 Hwy,,Independence,MO,640555860,US,39.03613281,-94.41648865,2022-12-18 07:39:42
Olive Garden,15090 West 119th Street,,Olathe,KS,660629628,US,38.91333389,-94.76027679,2022-12-18 06:54:29
Olive Garden,105 North Blue Jay Drive,,Liberty,MO,640681906,US,39.2449913,-94.44850922,2022-12-18 07:39:42
Olive Garden,10670 Parallel Parkway,,Kansas City,KS,661093647,US,39.12894821,-94.82643127,2022-12-18 07:39:42
Olive Garden,500 N.W. Barry Rd,,Kansas City,MO,641552739,US,39.2469101,-94.58668518,2022-12-18 07:39:42
Olive Garden,1925 SW Wanamaker Rd,,Topeka,KS,666043821,US,39.03131866,-95.76280212,2022-12-18 07:39:42
Olive Garden,2495 S Highway 27,,Clermont,FL,347116876,US,28.53639221,-81.73630524,2022-12-18 06:25:10
Olive Garden,10026 US Highway 441,,Leesburg,FL,347883955,US,28.82349396,-81.78990936,2022-12-18 06:25:08
Olive Garden,4006 Brian Jordan Place,,High Point,NC,272658337,US,36.03265381,-79.9588623,2022-12-18 06:25:08
Olive Garden,3000 Gate City Blvd,,Greensboro,NC,274033638,US,36.04911804,-79.83592224,2022-12-18 06:25:08
Olive Garden,10572 S. US 15/501,,Southern Pines,NC,28387,US,35.16922379,-79.42502594,2022-12-18 06:25:08
Olive Garden,1770 Glidewell Drive,,Burlington,NC,272158245,US,36.06793976,-79.51815796,2022-12-18 06:25:08
Olive Garden,2901 W Radio Rd,,Florence,SC,295017804,US,34.18902969,-79.83707428,2022-12-18 06:25:08
Olive Garden,4108 Central Ave,,Hot Springs,AR,719137293,US,34.45399475,-93.06695557,2022-12-18 06:25:11
Olive Garden,3555 Roosevelt Blvd,,Birmingham,AL,352353188,US,33.60630035,-86.63588715,2022-12-18 07:39:42
Olive Garden,3450 Galleria Circle,,Hoover,AL,352442339,US,33.37913132,-86.80565643,2022-12-18 07:39:42
Olive Garden,20 S Colonial Dr #8,,Alabaster,AL,350074742,US,33.22823715,-86.80477905,2022-12-18 07:39:42
Olive Garden,1701 E. Empire St.,,Bloomington,IL,617043532,US,40.48656082,-88.95176697,2022-12-18 07:39:42
Olive Garden,3795 N Water St,,Decatur,IL,625261858,US,39.89096069,-88.95599365,2022-12-18 07:39:42
Olive Garden,30 East Anthony Drive,,Champaign,IL,618207802,US,40.13585663,-88.24116516,2022-12-18 07:39:42
Olive Garden,901 Mall Dr,,Duluth,MN,558115408,US,46.80185699,-92.14993286,2022-12-18 07:39:42
Olive Garden,2550 S. Beulah Blvd,,Flagstaff,AZ,860018751,US,35.17596054,-111.66251373,2022-12-18 06:25:17
Olive Garden,2031 N. US Highway 287,,Mansfield,TX,760638842,US,32.59783173,-97.14933777,2022-12-18 07:39:42
Olive Garden,12870 S. Freeway,,Burleson,TX,760287008,US,32.56966782,-97.31991577,2022-12-18 07:39:42
Olive Garden,4700 SW Loop 820,,Fort Worth,TX,761094419,US,32.68295288,-97.39582062,2022-12-18 07:39:42
Olive Garden,925 Alta Mere Drive,Ridgmar Town Center,Fort Worth,TX,761161530,US,32.74677658,-97.43647003,2022-12-18 07:39:42
Olive Garden,4800 Woodrow Bean Dr,,El Paso,TX,799244406,US,31.89801025,-106.43258667,2022-12-18 06:25:10
Olive Garden,8401 Gateway Blvd West,,El Paso,TX,799255668,US,31.77362442,-106.37918091,2022-12-18 06:25:10
Olive Garden,740 Sunland Park Drive,,El Paso,TX,799126700,US,31.81735229,-106.54557037,2022-12-18 06:25:10
Olive Garden,1870 Joe Battle Blvd,,El Paso,TX,799360962,US,31.75762367,-106.26678467,2022-12-18 06:25:10
Olive Garden,100 N Telshor Blvd,,Las Cruces,NM,880118284,US,32.31889343,-106.74842072,2022-12-18 06:25:10
Olive Garden,2151 E Gulf To Lake Hwy,,Inverness,FL,344533218,US,28.85618973,-82.39791107,2022-12-18 06:25:08
Olive Garden,3363 SW College Road,,Ocala,FL,344744411,US,29.15739822,-82.17855835,2022-12-18 06:25:08
Olive Garden,3680 Wedgewood Lane,,The Villages,FL,321629318,US,28.92791367,-82.01957703,2022-12-18 06:25:08
Olive Garden,2711 Clark Butler Blvd,,Gainesville,FL,326082444,US,29.62823105,-82.3850174,2022-12-18 06:25:08
Olive Garden,1220 Main Street,,Logan,UT,843416838,US,41.75407791,-111.83398438,2022-12-18 06:25:13
Olive Garden,204 High Point Drive,,Victor,NY,145641060,US,43.0276947,-77.43811035,2022-12-18 06:25:08
Olive Garden,532 Jefferson Road,,Rochester,NY,146233228,US,43.08811188,-77.63234711,2022-12-18 06:25:08
Olive Garden,100 Paddy Creek Circle,,Rochester,NY,146152646,US,43.20549011,-77.67246246,2022-12-18 06:25:08
Olive Garden,73 Rodeo Drive,,Myrtle Beach,SC,295799470,US,33.74983215,-78.96146393,2022-12-18 06:25:08
Olive Garden,1405 N. Kings Highway,,Myrtle Beach,SC,295773638,US,33.69837189,-78.87743378,2022-12-18 06:25:08
Olive Garden,4701 Hwy 17 S,,North Myrtle Beach,SC,295825354,US,33.79795837,-78.73993683,2022-12-18 06:25:08
Olive Garden,1844 Northwest Expressway,,Oklahoma City,OK,731181421,US,35.52183533,-97.54429626,2022-12-18 06:54:29
Olive Garden,6330 SW 3rd St,,Oklahoma City,OK,731281022,US,35.46141815,-97.62572479,2022-12-18 06:54:29
Olive Garden,2321 W I 240 Service Rd,,Oklahoma City,OK,731598254,US,35.39218521,-97.55335236,2022-12-18 06:54:29
Olive Garden,5915 SE 15th Street,,Oklahoma City,OK,731102615,US,35.45013809,-97.41871643,2022-12-18 06:54:29
Olive Garden,2639 W Memorial,,Oklahoma City,OK,731348091,US,35.61031723,-97.56239319,2022-12-18 06:54:29
Olive Garden,117 Ed Noble Parkway,,Norman,OK,730724800,US,35.21759033,-97.48832703,2022-12-18 06:54:29
Olive Garden,2100 N. Perkins Rd.,,Stillwater,OK,740753075,US,36.14329147,-97.05219269,2022-12-18 06:54:29
Olive Garden,4021 NW Cache Road,,Lawton,OK,735053633,US,34.62414551,-98.44512177,2022-12-18 06:25:15
Olive Garden,1954 Utica Square,,Tulsa,OK,741141620,US,36.13290024,-95.96352386,2022-12-18 06:54:29
Olive Garden,1208 US Highway 82 W,,Tifton,GA,317938031,US,31.44921494,-83.53305817,2022-12-18 06:54:29
Olive Garden,1315 N St. Augustine Rd.,,Valdosta,GA,316013535,US,30.84452248,-83.32911682,2022-12-18 06:54:29
Olive Garden,13040 City Station Drive,,Jacksonville,FL,322187224,US,30.47388077,-81.64434814,2022-12-18 07:39:42
Olive Garden,3072 West US Highway 90,,Lake City,FL,320554730,US,30.17973328,-82.68262482,2022-12-18 06:54:29
Olive Garden,9465 Atlantic Blvd,,Jacksonville,FL,322258220,US,30.32082748,-81.55245209,2022-12-18 06:25:08
Olive Garden,1315 E. San Marnan Dr,,Waterloo,IA,507024334,US,42.46253967,-92.33017731,2022-12-18 06:25:08
Olive Garden,3350 Dodge St,,Dubuque,IA,520035275,US,42.49157715,-90.715271,2022-12-18 06:25:13
Olive Garden,3701 N Hwy 75,,Sherman,TX,750902576,US,33.67628479,-96.60779572,2022-12-18 06:25:17
Olive Garden,3125 Crater Lake Hwy,,Medford,OR,975049179,US,42.36178207,-122.85901642,2022-12-18 06:25:13
Olive Garden,6050 Youngerman Circle,Orange Park,Jacksonville,FL,322445733,US,30.19346428,-81.74082947,2022-12-18 06:25:08
Olive Garden,10144 Phillips Hwy,,Jacksonville,FL,322561328,US,30.18175507,-81.55606079,2022-12-18 06:25:08
Olive Garden,5294 E Highway 100,,Palm Coast,FL,321642912,US,29.47620964,-81.21321869,2022-12-18 06:25:08
Olive Garden,5921 W Waco Drive,,Waco,TX,767106356,US,31.5146122,-97.18734741,2022-12-18 07:39:42
Olive Garden,3625 South General Bruce Dr,,Temple,TX,765046332,US,31.09033585,-97.38500977,2022-12-18 07:39:42
Olive Garden,2811 E. Central Texas Expwy,,Killeen,TX,765435305,US,31.08695984,-97.70927429,2022-12-18 07:39:42
Olive Garden,510 Earl Rudder Freeway South,,College Station,TX,778402535,US,30.64197731,-96.3133316,2022-12-18 07:39:42
Olive Garden,3400 North 14th Street,,Bismarck,ND,585031610,US,46.84335327,-100.77157593,2022-12-18 06:25:13
Olive Garden,222 Expressway 83,,McAllen,TX,785012951,US,26.18948936,-98.2261734,2022-12-18 06:25:19
Olive Garden,7812 N. 10th Street,,McAllen,TX,785047717,US,26.27372932,-98.217453,2022-12-18 06:25:18
Olive Garden,801 East Expressway 83,,Weslaco,TX,785994522,US,26.17364883,-97.98362732,2022-12-18 06:25:19
Olive Garden,1802 W Lincoln St,,Harlingen,TX,785525900,US,26.18212891,-97.71575165,2022-12-18 06:25:18
Olive Garden,3807 N Expressway 77/83,,Brownsville,TX,785204475,US,25.95754814,-97.50829315,2022-12-18 06:25:19
Olive Garden,107 Grand Hill Place,,Holly Springs,NC,275404415,US,35.65858078,-78.84945679,2022-12-18 06:25:11
Olive Garden,1809 Walnut Street,,Cary,NC,275189201,US,35.76058197,-78.7427597,2022-12-18 06:25:11
Olive Garden,4805 Capital Blvd,,Raleigh,NC,276164483,US,35.85098267,-78.58145905,2022-12-18 06:25:11
Olive Garden,8115 Brier Creek Parkway,,Raleigh,NC,276177598,US,35.90999222,-78.78342438,2022-12-18 06:25:11
Olive Garden,12600 Capital Blvd,,Wake Forest,NC,275877489,US,35.98838425,-78.53152466,2022-12-18 06:25:11
Olive Garden,715 Tuttle Creek Blvd,,Manhattan,KS,665026309,US,39.18618011,-96.55964661,2022-12-18 07:39:42
Olive Garden,107 South Frontage Road,,Meridian,MS,393016110,US,32.36608887,-88.67141724,2022-12-18 06:25:17
Olive Garden,216 Miracle Strip Pkwy SW,,Fort Walton Beach,FL,325486617,US,30.40517044,-86.62733459,2022-12-18 07:39:42
Olive Garden,315 IH-20 East,,Weatherford,TX,760866729,US,32.73117828,-97.78675079,2022-12-18 07:39:42
Olive Garden,7019 S Memorial Drive,,Tulsa,OK,741332037,US,36.06201935,-95.88568878,2022-12-18 06:54:29
Olive Garden,1301 E Hillside Dr,,Broken Arrow,OK,740122389,US,36.0643425,-95.775177,2022-12-18 06:54:29
Olive Garden,19731 Robson Road,,Catoosa,OK,74015,US,36.16441345,-95.75817108,2022-12-18 06:54:29
Olive Garden,9072 N 121st East Ave,,Owasso,OK,740555358,US,36.29251862,-95.83981323,2022-12-18 06:54:29
Olive Garden,1010 Allen Drive,,Grand Island,NE,688033307,US,40.9284668,-98.38258362,2022-12-18 06:25:08
Olive Garden,3916 Kemp Boulevard,,Wichita Falls,TX,763082119,US,33.87184525,-98.53542328,2022-12-18 06:25:08
Olive Garden,7505 Dodge Street,,Omaha,NE,681143632,US,41.25924301,-96.02888489,2022-12-18 07:39:42
Olive Garden,16929 Lakeside Hills Plaza,,Omaha,NE,681302434,US,41.23463821,-96.1785965,2022-12-18 07:39:42
Olive Garden,6301 San Mateo Blvd,,Albuquerque,NM,871093524,US,35.14731979,-106.58886719,2022-12-18 06:25:08
Olive Garden,601 Juan Tabo Boulevard NE,,Albuquerque,NM,871231466,US,35.07876587,-106.51576996,2022-12-18 06:25:08
Olive Garden,10500 Coors Blvd By-Pass NW,,Albuquerque,NM,871144958,US,35.20807648,-106.65751648,2022-12-18 06:25:08
Olive Garden,3781 Cerrillos Rd,,Santa Fe,NM,875072910,US,35.64415741,-106.01042938,2022-12-18 06:25:08
Olive Garden,7515 Rogers Ave.,,Fort Smith,AR,729035539,US,35.35237503,-94.34920502,2022-12-18 06:54:29
Olive Garden,151 State Hwy 288,,Lake Jackson,TX,775661407,US,29.05177879,-95.45684052,2022-12-18 06:25:10
Olive Garden,1186 N Muldoon Rd,,Anchorage,AK,995046101,US,61.23036957,-149.74092102,2022-12-18 06:25:20
Olive Garden,800 E Dimond Blvd,Suite # 160,Anchorage,AK,995152054,US,61.14374924,-149.87077332,2022-12-18 06:25:20
Olive Garden,3160 32nd Ave South,,Grand Forks,ND,582016020,US,47.89024353,-97.07229614,2022-12-18 07:39:42
Olive Garden,4339 13th Avenue SW,,Fargo,ND,581033330,US,46.86236954,-96.85741425,2022-12-18 07:39:42
Olive Garden,1025 Shelburne Rd,,South Burlington,VT,054036940,US,44.44064331,-73.21051788,2022-12-18 06:54:29
Olive Garden,34970 Emerald Coast Parkway,,Destin,FL,325413402,US,30.38868713,-86.4230423,2022-12-18 07:39:42
Olive Garden,15701 Panama City Beach Parkway,,Panama City Beach,FL,324135415,US,30.22245216,-85.87003326,2022-12-18 06:25:08
Olive Garden,2397 SR 77,,Panama City,FL,324054403,US,30.19165993,-85.65032196,2022-12-18 06:25:08
Olive Garden,120 Collins Drive,,Danville,VA,245405936,US,36.59580994,-79.42412567,2022-12-18 06:54:29
Olive Garden,1420 N Louisiana Ave,,Kennewick,WA,993367164,US,46.22651291,-119.2321167,2022-12-18 07:39:42
Olive Garden,1103 Apalachee Parkway,,Tallahassee,FL,323014541,US,30.43733406,-84.26612091,2022-12-18 06:54:29
Olive Garden,90 Gateway,,Lincoln,NE,68505,US,40.81446457,-96.63840485,2022-12-18 07:39:42
Olive Garden,160 Disk Dr,,Rapid City,SD,577017885,US,44.10524368,-103.21479034,2022-12-18 07:39:42
Olive Garden,4399 W. Houston Harte Expy,,San Angelo,TX,769015056,US,31.44212914,-100.49690247,2022-12-18 07:39:42
Olive Garden,1340 East 170 South St.,,Saint George,UT,847903016,US,37.10474014,-113.55501556,2022-12-18 06:25:16
Olive Garden,2201 Grant Rd,,Billings,MT,591027424,US,45.75448608,-108.57067871,2022-12-18 06:25:16
Olive Garden,4781 Pecanland Mall Dr,,Monroe,LA,712037005,US,32.49591446,-92.05944824,2022-12-18 06:25:08
Olive Garden,5319 San Dario Ave,,Laredo,TX,780413043,US,27.55296326,-99.50282288,2022-12-18 06:54:29
Olive Garden,1720 E. 16th Street,,Yuma,AZ,853652107,US,32.69903946,-114.60269165,2022-12-18 06:25:12
Olive Garden,1597 Pole Line Road East,,Twin Falls,ID,833013590,US,42.59226227,-114.45465088,2022-12-18 06:25:14
Olive Garden,9780 N Newport Highway,,Spokane,WA,992181249,US,47.74889755,-117.40163422,2022-12-18 07:39:42
Olive Garden,14742 E Indiana Avenue,,Spokane Valley,WA,992161814,US,47.67278671,-117.2028656,2022-12-18 07:39:42
Olive Garden,525 W. Canfield Ave,,Coeur D'Alene,ID,838157892,US,47.73426819,-116.79369354,2022-12-18 06:25:15
Olive Garden,5258 S Padre Island Drive,,Corpus Christi,TX,784114102,US,27.71175194,-97.37610626,2022-12-18 06:54:29
Olive Garden,3210 S Clack St,,Abilene,TX,796062200,US,32.41150284,-99.77468109,2022-12-18 07:39:42
Olive Garden,5150 East Main Street,Suite 106-110,Farmington,NM,874024423,US,36.76947021,-108.14463806,2022-12-18 06:25:16
Olive Garden,1553 N 19th Avenue,,Bozeman,MT,597183648,US,45.69519043,-111.06306458,2022-12-18 06:25:17
Olive Garden,5070 East 2nd Street,,Casper,WY,826094200,US,42.84801865,-106.25469208,2022-12-18 06:25:14
Olive Garden,1030 24th Ave SW,,Minot,ND,587016974,US,48.20861816,-101.31164551,2022-12-18 06:25:13
Olive Garden,2416 Highway 6 & 50,,Grand Junction,CO,815051102,US,39.09106445,-108.60559845,2022-12-18 06:25:19
Olive Garden,1082 Pale San Vitores Road,,Tumon,GU,96913,GUAM,13.50952435,144.80560303,2022-12-18 06:25:20
Olive Garden,Plaza Fiesta AnahuÃ¡c,Manuel L. BarragÃ¡n 325 Norte,Nuevo LeÃ³n,NL,66457,Mexico,25.74453163,-100.31214142,2022-12-13 15:34:01
Olive Garden,Centro Comercial Nuevo Sur,Av. RevoluciÃ³n 2703,Monterrey,NL,64830,Mexico,25.65303421,-100.27533722,2022-12-13 15:34:01
Olive Garden,Plaza La Aurora,Av LÃ¡zaro CÃ¡rdenas No. 2333,San Pedro Garza GarcÃ­a,NL,66278,Mexico,25.65009689,-100.3293457,2022-12-13 15:34:01
Olive Garden,1544 Portage Avenue,,Winnipeg,MB,R3G0W9,CA,49.87991333,-97.20154572,2022-12-18 06:25:15
Olive Garden,51 Reenders Drive,,Winnipeg,MB,R2C5E8,CA,49.90275574,-97.06503296,2022-12-18 06:25:15
