company_name,address_line_1,address_line_2,city,state_alpha,postal_code,country_code,latitude,longitude,when_verified
Target,630 Main St,,Hackensack,NJ,07601-5913,US,40.89849091,-74.03881836,2022-12-05 05:53:35
Target,900 Bergen Town Ctr,,Paramus,NJ,07652-5005,US,40.91587448,-74.06113434,2022-12-05 05:53:35
Target,29 Vervalen St,,Closter,NJ,07624-2620,US,40.97119904,-73.95780182,2022-12-05 05:53:35
Target,40 W 225th St,#50,Bronx,NY,10463-7016,US,40.87353134,-73.9078064,2022-12-05 05:53:35
Target,602 W 181st St,,New York,NY,10033-4912,US,40.84931946,-73.93406677,2022-12-05 05:53:35
Target,543 River Rd,,Edgewater,NJ,07020-1146,US,40.81366348,-73.98222351,2022-12-05 05:53:35
Target,700 Exterior St,,Bronx,NY,10451-2022,US,40.82341003,-73.93051147,2022-12-05 05:53:35
Target,7101 Tonnelle Ave,,North Bergen,NJ,07047-4507,US,40.80174255,-74.02142334,2022-12-05 05:53:35
Target,795 Columbus Ave,,New York City,NY,10025-5920,US,40.79412842,-73.96633148,2022-12-05 05:53:35
Target,517 E 117th Street,Suite 201,New York,NY,10035-4410,US,40.79556274,-73.93119049,2022-12-05 05:53:35
Target,500 East Sandford Blvd,,Mount Vernon,NY,10550-4784,US,40.90097046,-73.81780243,2022-12-05 05:53:35
Target,30 Kingsland Rd,,Clifton,NJ,07014-1904,US,40.82442856,-74.13584137,2022-12-05 05:53:35
Target,150 E 86th St,,New York,NY,10028-2118,US,40.77911758,-73.95513916,2022-12-05 05:53:35
Target,1863 Broadway,,New York,NY,10023-7503,US,40.77007294,-73.98245239,2022-12-05 05:53:35
Target,815 E Hutchinson River Pkwy,,Bronx,NY,10465-1818,US,40.82414627,-73.83766174,2022-12-05 05:53:35
Target,1201 3rd Ave,,New York,NY,10021-5401,US,40.7681694,-73.96150208,2022-12-05 05:53:35
Target,615 10th Ave,,New York,NY,10036-3035,US,40.76134109,-73.99456024,2022-12-05 05:53:35
Target,237 W 42nd St,,New York,NY,10036-7201,US,40.75680161,-73.98821259,2022-12-05 05:53:35
Target,112 W 34th St,,New York,NY,10120-0101,US,40.75024414,-73.98931122,2022-12-05 05:53:35
Target,4120 Palisades Center Dr,,West Nyack,NY,10994-6801,US,41.097435,-73.95898438,2022-12-05 05:53:35
Target,50 Spring Valley Market Pl,,Spring Valley,NY,10977-5213,US,41.10445023,-74.02330017,2022-12-05 05:53:35
Target,512 2nd Ave,,New York,NY,10016-8604,US,40.7414856,-73.97808838,2022-12-05 05:53:35
Target,13505 20th Ave,,College Point,NY,11356-2446,US,40.78338623,-73.83309174,2022-12-05 05:53:35
Target,100 14th St,,Jersey City,NJ,07310-1202,US,40.73233414,-74.03572083,2022-12-05 05:53:35
Target,500 E 14th St,,New York,NY,10009-3336,US,40.73012543,-73.98018646,2022-12-05 05:53:35
Target,40-25 82nd St,,Elmhurst,NY,11373-1304,US,40.74681854,-73.88343048,2022-12-05 05:53:35
Target,9 City Pl,,White Plains,NY,10601-3331,US,41.0320816,-73.76609802,2022-12-05 05:53:35
Target,4024 College Point Blvd,Ste F600,Flushing,NY,11354-5112,US,40.75728607,-73.83416748,2022-12-05 05:53:35
Target,400 Grand St,,New York,NY,10002-3949,US,40.7162056,-73.98687744,2022-12-05 05:53:35
Target,632 Route 46 E,,Fairfield,NJ,07004-1581,US,40.88962173,-74.27141571,2022-12-05 05:53:35
Target,5775 Sunnybrook Dr,,Sioux City,IA,51106-4247,US,42.44882584,-96.3332901,2022-12-05 05:53:39
Target,1021 Highline Pl,,Sioux Falls,SD,57110-1000,US,43.53903961,-96.65483093,2022-12-05 05:53:41
Target,3600 S Louise Ave,,Sioux Falls,SD,57106-6326,US,43.5117836,-96.76928711,2022-12-05 05:53:41
Target,1510 Market Ln,,Norfolk,NE,68701-7328,US,42.0202713,-97.43051147,2022-12-05 05:53:39
Target,195 Conston Ave,,Christiansburg,VA,24073-1151,US,37.15724945,-80.42241669,2022-12-05 05:53:35
Target,4737 Valley View Blvd NW,,Roanoke,VA,24012-2000,US,37.29967499,-79.95860291,2022-12-05 05:53:35
Target,5420 University Pkwy,,Winston Salem,NC,27105-1366,US,36.1685791,-80.27878571,2022-12-05 05:53:35
Target,1040 Hanes Mall Blvd,,Winston Salem,NC,27103-1309,US,36.06907272,-80.32070923,2022-12-05 05:53:35
Target,155 Holt Garrison Pkwy,,Danville,VA,24540-5947,US,36.59924316,-79.4185791,2022-12-05 05:53:35
Target,1090 S Main St,,Kernersville,NC,27284-7440,US,36.10974503,-80.09996033,2022-12-05 05:53:35
Target,4028 Wards Rd,,Lynchburg,VA,24502-2944,US,37.34621048,-79.19098663,2022-12-05 05:53:37
Target,1628 Highwoods Blvd,,Greensboro,NC,27410-2048,US,36.11381912,-79.87680054,2022-12-05 05:53:35
Target,2701 Lawndale Dr,,Greensboro,NC,27408-4820,US,36.10430145,-79.82095337,2022-12-05 05:53:35
Target,1212 Bridford Pkwy,,Greensboro,NC,27407-2645,US,36.05694199,-79.90694427,2022-12-05 05:53:35
Target,1050 Mall Loop Rd,,High Point,NC,27262-7656,US,35.99347687,-80.00827026,2022-12-05 05:53:35
Target,16600 Highlands Center Blvd,,Bristol,VA,24202-4301,US,36.63670349,-82.10960388,2022-12-05 05:53:37
Target,1475 University Dr,,Burlington,NC,27215-8768,US,36.06631088,-79.52031708,2022-12-05 05:53:35
Target,4510 Garth Rd,,Baytown,TX,77521-2124,US,29.77168083,-94.97637177,2022-12-05 05:53:38
Target,5757 Fairmont Pkwy,,Pasadena,TX,77505-3905,US,29.65225029,-95.15249634,2022-12-05 05:53:38
Target,255 Marina Bay Dr,,Clear Lake Shores,TX,77565-2671,US,29.53910446,-95.0226593,2022-12-05 05:53:38
Target,6931 FM 1960 Rd E,,Humble,TX,77346-2705,US,30.00045395,-95.17221832,2022-12-05 05:53:36
Target,1801 W Bay Area Blvd,,Webster,TX,77598-3403,US,29.53648949,-95.15159607,2022-12-05 05:53:38
Target,1801 Gulf Fwy,,Dickinson,TX,77539-3207,US,29.46577072,-95.08519745,2022-12-05 05:53:38
Target,8503 S Sam Houston Pkwy E,,Houston,TX,77075-4857,US,29.60213089,-95.26457214,2022-12-05 05:53:38
Target,20777 Hwy 59 N,,Humble,TX,77338-2209,US,30.01950645,-95.26816559,2022-12-05 05:53:36
Target,2580 Shearn St,,Houston,TX,77007-3967,US,29.77466393,-95.38481903,2022-12-05 05:53:36
Target,2075 Westheimer Rd,,Houston,TX,77098-1539,US,29.74112701,-95.40957642,2022-12-05 05:53:36
Target,8500 Main St,,Houston,TX,77025-2703,US,29.69286919,-95.41844177,2022-12-05 05:53:38
Target,6128 Broadway St,,Galveston,TX,77551-1030,US,29.29068184,-94.84030151,2022-12-05 05:53:38
Target,3045 Silverlake Village St,,Pearland,TX,77584-8080,US,29.55334091,-95.38400269,2022-12-05 05:53:38
Target,4323 San Felipe St,,Houston,TX,77027-3406,US,29.74524307,-95.45337677,2022-12-05 05:53:36
Target,300 Meyerland Plaza Mall,,Houston,TX,77096-1611,US,29.68667793,-95.46248627,2022-12-05 05:53:38
Target,13250 Northwest Fwy,,Houston,TX,77040-6003,US,29.84924316,-95.50270844,2022-12-05 05:53:36
Target,19511 I H 45,,Spring,TX,77388-6015,US,30.05039024,-95.43430328,2022-12-05 05:53:36
Target,8605 Westheimer Rd,,Houston,TX,77063-4201,US,29.73515129,-95.51744843,2022-12-05 05:53:36
Target,984 Gessner Rd,,Houston,TX,77024-2505,US,29.7824707,-95.54229736,2022-12-05 05:53:36
Target,6801 FM 1960 Rd W,,Houston,TX,77069-3803,US,29.96806335,-95.53115845,2022-12-05 05:53:36
Target,10801 Westheimer Rd,,Houston,TX,77042-3201,US,29.73553276,-95.56833649,2022-12-05 05:53:36
Target,1100 Lake Woodlands Dr,,The Woodlands,TX,77380-3221,US,30.16939354,-95.45352936,2022-12-05 05:53:36
Target,6635 N Grand Pkwy W,,Spring,TX,77389-1774,US,30.08747292,-95.5203476,2022-12-05 05:53:36
Target,6000 Highway 6,,Missouri City,TX,77459-4163,US,29.56562805,-95.56732178,2022-12-05 05:53:38
Target,12701 FM 1960 Rd W,,Houston,TX,77065-4014,US,29.91929626,-95.60495758,2022-12-05 05:53:36
Target,21515 Tomball Pkwy,,Houston,TX,77070-1647,US,30.00019264,-95.58410645,2022-12-05 05:53:36
Target,2700 Eldridge Pkwy,,Houston,TX,77082-6870,US,29.73301506,-95.6267395,2022-12-05 05:53:36
Target,6955 Highway 6 N,,Houston,TX,77084-1313,US,29.87760735,-95.64685822,2022-12-05 05:53:36
Target,16300 Southwest Fwy,,Sugar Land,TX,77479-2371,US,29.59646034,-95.62719727,2022-12-05 05:53:38
Target,5850 Eastex Fwy,,Beaumont,TX,77708-4824,US,30.12600136,-94.15270996,2022-12-05 05:53:35
Target,3500 Dodge St,,Dubuque,IA,52003-5261,US,42.49021912,-90.72185516,2022-12-05 05:53:35
Target,6321 McKee Rd,,Fitchburg,WI,53719-5017,US,43.01369858,-89.48190308,2022-12-05 05:53:35
Target,201 Junction Rd,,Madison,WI,53717-2615,US,43.06214142,-89.52502441,2022-12-05 05:53:35
Target,750 Hilldale Way,,Madison,WI,53705-2644,US,43.07478333,-89.45352173,2022-12-05 05:53:35
Target,610 State St,,Madison,WI,53703-1016,US,43.07493973,-89.39611053,2022-12-05 05:53:35
Target,4301 Lien Rd,,Madison,WI,53704-3608,US,43.11936569,-89.30723572,2022-12-05 05:53:35
Target,9833 N Alpine Rd,,Machesney Park,IL,61115-1681,US,42.36720276,-89.02822876,2022-12-05 05:53:35
Target,2017 Humes Rd,,Janesville,WI,53545-0204,US,42.72206879,-88.99829102,2022-12-05 05:53:35
Target,660 S Grand Ave,,Sun Prairie,WI,53590-9832,US,43.17068481,-89.2673645,2022-12-05 05:53:35
Target,6560 E State St,,Rockford,IL,61108-2545,US,42.26986313,-88.98893738,2022-12-05 05:53:35
Target,5225 Elmore Ave,,Davenport,IA,52807-3454,US,41.57310104,-90.5266037,2022-12-05 05:53:35
Target,900 42nd Avenue Dr,,Moline,IL,61265-6871,US,41.4695282,-90.52500153,2022-12-05 05:53:35
Target,1030 Blairs Ferry Rd NE,,Cedar Rapids,IA,52402-1220,US,42.03665924,-91.65037537,2022-12-05 05:53:35
Target,3400 Edgewood Rd SW,,Cedar Rapids,IA,52404-7214,US,41.94432449,-91.71695709,2022-12-05 05:53:35
Target,2555 Sycamore Rd,,Dekalb,IL,60115-2051,US,41.95510864,-88.72499847,2022-12-05 05:53:35
Target,113 E. Washington St,,Iowa City,IA,52240-3925,US,41.65998459,-91.53418732,2022-12-05 05:53:35
Target,660 N Edwards Blvd,,Lake Geneva,WI,53147-4595,US,42.59811401,-88.41530609,2022-12-05 05:53:35
Target,1441 Coral Ridge Ave,,Coralville,IA,52241-2801,US,41.69158173,-91.59968567,2022-12-05 05:53:35
Target,2553 Sun Valley Dr,,Delafield,WI,53018-2333,US,43.05068588,-88.37689209,2022-12-05 05:53:35
Target,25 Brentwood Promenade Ct,,Brentwood,MO,63144-1428,US,38.62758255,-90.34286499,2022-12-05 05:53:35
Target,4255 Hampton Ave,,Saint Louis,MO,63109-2120,US,38.59236145,-90.29519653,2022-12-05 05:53:35
Target,1042 S Kirkwood Rd,,Kirkwood,MO,63122-7200,US,38.56470871,-90.40473175,2022-12-05 05:53:35
Target,12275 St Charles Rock Rd,,Bridgeton,MO,63044-2502,US,38.75406647,-90.42642212,2022-12-05 05:53:35
Target,2341 N Highway 67,,Florissant,MO,63033-2033,US,38.8053627,-90.31074524,2022-12-05 05:53:35
Target,1272 Town And Country Crossing Dr,,Chesterfield,MO,63017-0605,US,38.62073898,-90.51737213,2022-12-05 05:53:35
Target,4250 Rusty Rd,,Saint Louis,MO,63128-1973,US,38.50674057,-90.33912659,2022-12-05 05:53:35
Target,15025 Manchester Rd,,Ballwin,MO,63011-4626,US,38.59451294,-90.54746246,2022-12-05 05:53:35
Target,197 Gravois Bluffs Plaza Dr,,Fenton,MO,63026-4013,US,38.50284195,-90.44695282,2022-12-05 05:53:35
Target,40 THF Blvd,,Chesterfield,MO,63005-1150,US,38.66676331,-90.58586884,2022-12-05 05:53:35
Target,3881 Mexico Rd,,Saint Charles,MO,63303-3042,US,38.78764725,-90.56283569,2022-12-05 05:53:35
Target,6241 Mid Rivers Mall Dr,,Saint Peters,MO,63304-1102,US,38.73928833,-90.6362915,2022-12-05 05:53:35
Target,3849 Vogel Rd,,Arnold,MO,63010-6201,US,38.41264725,-90.39617157,2022-12-05 05:53:35
Target,5601 Belleville Crossing St,,Belleville,IL,62226-3104,US,38.5261879,-90.0326767,2022-12-05 05:53:35
Target,4701 N Illinois St,,Fairview Heights,IL,62208-3416,US,38.57207489,-89.98683167,2022-12-05 05:53:35
Target,300 Homer M Adams Pkwy,,Alton,IL,62002-5928,US,38.92127991,-90.16993713,2022-12-05 05:53:35
Target,2300 Highway K,,O Fallon,MO,63368-6661,US,38.77754974,-90.6966629,2022-12-05 05:53:35
Target,2350 Troy Rd,,Edwardsville,IL,62025-2584,US,38.78342056,-89.94904327,2022-12-05 05:53:35
Target,3400 Green Mount Crossing Dr,,Shiloh,IL,62269-7277,US,38.57267761,-89.92398071,2022-12-05 05:53:35
Target,7955 Highway N,,Dardenne Prairie,MO,63368-7382,US,38.76841354,-90.76841736,2022-12-05 05:53:35
Target,1883 Wentzville Pkwy,,Wentzville,MO,63385-3896,US,38.81917191,-90.88035583,2022-12-05 05:53:35
Target,1851 Vernaci Dr,,Washington,MO,63090-6174,US,38.53657913,-90.98295593,2022-12-05 05:53:35
Target,3445 Freedom Dr,,Springfield,IL,62704-6517,US,39.75008774,-89.7101593,2022-12-05 05:53:35
Target,3000 W Deyoung St,,Marion,IL,62959-5553,US,37.7490387,-88.97930908,2022-12-05 05:53:35
Target,6275 University Dr NW,,Huntsville,AL,35806-1776,US,34.74163818,-86.68152618,2022-12-05 05:53:35
Target,8207 HIGHWAY 72 W,,Madison,AL,35758-9571,US,34.74931335,-86.75587463,2022-12-05 05:53:35
Target,2750 Carl T Jones Dr SE,Ste 7,Huntsville,AL,35802-4914,US,34.67349625,-86.54163361,2022-12-05 05:53:35
Target,1235 Point Mallard Pkwy SE,,Decatur,AL,35601-6531,US,34.55906296,-86.97103119,2022-12-05 05:53:35
Target,1033 Crossings Blvd,,Spring Hill,TN,37174-2755,US,35.741539,-86.93782806,2022-12-05 05:53:35
Target,372 Cox Creek Pkwy,,Florence,AL,35630-1540,US,34.84212875,-87.63476562,2022-12-05 05:53:35
Target,1851 Old Fort Pkwy,,Murfreesboro,TN,37129-3364,US,35.84392166,-86.42629242,2022-12-05 05:53:35
Target,3064 Columbia Ave,,Franklin,TN,37064-7424,US,35.89233017,-86.8806839,2022-12-05 05:53:35
Target,803 Industrial Blvd,,Smyrna,TN,37167-6865,US,35.97939682,-86.57171631,2022-12-05 05:53:35
Target,1701 Galleria Blvd,,Franklin,TN,37067-1602,US,35.96564102,-86.81245422,2022-12-05 05:53:35
Target,780 Old Hickory Blvd,,Brentwood,TN,37027-4527,US,36.04277039,-86.77921295,2022-12-05 05:53:35
Target,5579 Highway 153,,Hixson,TN,37343-3748,US,35.14641953,-85.25151062,2022-12-05 05:53:35
Target,1816 Gunbarrel Rd,,Chattanooga,TN,37421-3129,US,35.0243454,-85.15600586,2022-12-05 05:53:35
Target,26 White Bridge Rd,,Nashville,TN,37205-1411,US,36.13077927,-86.85467529,2022-12-05 05:53:35
Target,6814 Charlotte Pike,,Nashville,TN,37209-4206,US,36.13510132,-86.89136505,2022-12-05 05:53:35
Target,401 S Mount Juliet Rd,Ste 600,Mount Juliet,TN,37122-6309,US,36.16850662,-86.50837708,2022-12-05 05:53:35
Target,3171 Lebanon Pike,,Nashville,TN,37214-2314,US,36.18262482,-86.63790894,2022-12-05 05:53:35
Target,1654 Gadsden Hwy,,Birmingham,AL,35235-3104,US,33.60525894,-86.63674164,2022-12-05 05:53:35
Target,2050 Gallatin Rd N,,Madison,TN,37115-2002,US,36.30419922,-86.69459534,2022-12-05 05:53:35
Target,3489 Lowery Pkwy,,Fultondale,AL,35068-1677,US,33.60559464,-86.80622864,2022-12-05 05:53:35
Target,1004 Andrews Run,,Hendersonville,TN,37075-1232,US,36.33439636,-86.62527466,2022-12-05 05:53:35
Target,4570 Frontage Rd NW,,Cleveland,TN,37312-2905,US,35.21744156,-84.86611176,2022-12-05 05:53:35
Target,1440 US Hwy 1 S,,Saint Augustine,FL,32084-4211,US,29.87551308,-81.32241058,2022-12-05 05:53:35
Target,9041 Southside Blvd,,Jacksonville,FL,32256-5484,US,30.19373322,-81.54910278,2022-12-05 05:53:35
Target,490 Marsh Landing Pkwy,,Jacksonville Beach,FL,32250-5855,US,30.25395012,-81.39083099,2022-12-05 05:53:35
Target,10490 San Jose Blvd,,Jacksonville,FL,32257-6207,US,30.18855858,-81.62916565,2022-12-05 05:53:35
Target,4567 River City Dr,,Jacksonville,FL,32246-7411,US,30.26051521,-81.52500916,2022-12-05 05:53:35
Target,1490 County Rd 220,,Orange Park,FL,32003-7927,US,30.10400963,-81.70747375,2022-12-05 05:53:35
Target,13740 Beach Blvd,,Jacksonville,FL,32224-1208,US,30.28536034,-81.45700073,2022-12-05 05:53:35
Target,6331 Roosevelt Blvd,,Jacksonville,FL,32244-3303,US,30.23500061,-81.69519806,2022-12-05 05:53:35
Target,444 Monument Rd,,Jacksonville,FL,32225-6429,US,30.32892418,-81.5485611,2022-12-05 05:53:35
Target,9525 Crosshill Blvd,,Jacksonville,FL,32222-5812,US,30.1992321,-81.82471466,2022-12-05 05:53:35
Target,5100 E Highway 100,,Palm Coast,FL,32164-2365,US,29.47720337,-81.21842957,2022-12-05 05:53:35
Target,463737 State Rd 200,,Yulee,FL,32097-8652,US,30.6300087,-81.55384064,2022-12-05 05:53:35
Target,2380 W International Speedway Blvd,,Daytona Beach,FL,32114-1116,US,29.18328476,-81.07978821,2022-12-05 05:53:38
Target,250 NW 13th St,,Gainesville,FL,32601-5166,US,29.65353966,-82.33838654,2022-04-27 17:15:58
Target,3970 SW Archer Rd,,Gainesville,FL,32608-2342,US,29.62125969,-82.38362122,2022-12-05 05:53:35
Target,1771 Dunlawton Ave,,Port Orange,FL,32127-4757,US,29.1104126,-81.02806854,2022-12-05 05:53:38
Target,2000 SW College Rd,,Ocala,FL,34471-3020,US,29.17375946,-82.15691376,2022-12-05 05:53:35
Target,2575 Enterprise Rd,,Orange City,FL,32763-7960,US,28.91583824,-81.29270935,2022-12-05 05:53:38
Target,716 N US Highway 441,,The Villages,FL,32159-3194,US,28.93360901,-81.93983459,2022-12-05 05:53:35
Target,200 Glynn Isle,,Brunswick,GA,31525-2929,US,31.20084763,-81.48039246,2022-12-05 05:53:41
Target,17450 US Highway 441,,Mount Dora,FL,32757-6748,US,28.81962395,-81.66771698,2022-12-05 05:53:35
Target,1201 WP Ball Blvd,,Sanford,FL,32771-7204,US,28.7985096,-81.33650208,2022-12-05 05:53:38
Target,4155 W Lake Mary Blvd,,Lake Mary,FL,32746-2410,US,28.75458527,-81.34884644,2022-12-05 05:53:38
Target,4410 S Highway 17 92,,Casselberry,FL,32707-3290,US,28.67105293,-81.3404541,2022-12-05 05:53:38
Target,886 W State Road 436,,Altamonte Springs,FL,32714-3006,US,28.66294479,-81.41757202,2022-12-05 05:53:38
Target,820 Oviedo Mall Blvd,,Oviedo,FL,32765-9348,US,28.65792656,-81.23563385,2022-12-05 05:53:38
Target,3770 N Goldenrod Rd,,Winter Park,FL,32792-8832,US,28.59516716,-81.28812408,2022-12-05 05:53:38
Target,3151 E 7th St,,Joplin,MO,64801-5581,US,37.08518982,-94.47415924,2022-12-05 05:53:39
Target,2404 Promenade Blvd,,Rogers,AR,72758-9080,US,36.29993439,-94.17314911,2022-12-05 05:53:39
Target,1825 E Primrose St,,Springfield,MO,65804-6497,US,37.15155029,-93.26238251,2022-12-05 05:53:39
Target,3545 N Shiloh Dr,,Fayetteville,AR,72703-5359,US,36.11569977,-94.15550232,2022-12-05 05:53:39
Target,1200 Branson Hills Pkwy,,Branson,MO,65616-9943,US,36.67372131,-93.22569275,2022-12-05 05:53:39
Target,1106 E North Ave,,Belton,MO,64012-5104,US,38.81577301,-94.51630402,2022-12-05 05:53:35
Target,9010 N 121st East Ave,,Owasso,OK,74055-5358,US,36.28963852,-95.84395599,2022-12-05 05:53:38
Target,6150 Glenway Ave,,Cincinnati,OH,45211-6319,US,39.14470291,-84.61945343,2022-12-05 05:53:36
Target,9040 Colerain Ave,,Cincinnati,OH,45251-2402,US,39.23583984,-84.58943176,2022-12-05 05:53:36
Target,235 Calhoun St,,Cincinnati,OH,45219-1528,US,39.12804031,-84.51722717,2022-12-05 05:53:36
Target,1100 Hansel Ave,,Florence,KY,41042-4869,US,39.0195961,-84.63323975,2022-12-05 05:53:36
Target,160 Pavilion Pkwy,,Newport,KY,41071-2884,US,39.08874512,-84.47750092,2022-12-05 05:53:36
Target,900 E Kemper Rd,,Springdale,OH,45246-2518,US,39.28798294,-84.45387268,2022-12-05 05:53:36
Target,3245 Geier Dr,,Cincinnati,OH,45209-5009,US,39.16350174,-84.42758179,2022-12-05 05:53:36
Target,3369 Princeton Rd,,Hamilton,OH,45011-5389,US,39.3874855,-84.50417328,2022-12-05 05:53:36
Target,9099 Plainfield Rd,,Blue Ash,OH,45236-1245,US,39.2240181,-84.39551544,2022-12-05 05:53:36
Target,7644 Voice of America Center Dr,,West Chester,OH,45069-2794,US,39.3560791,-84.36144257,2022-12-05 05:53:36
Target,9841 Waterstone Blvd,,Cincinnati,OH,45249-8296,US,39.29556656,-84.30480194,2022-12-05 05:53:36
Target,8680 Beechmont Ave,,Cincinnati,OH,45255-4710,US,39.07340622,-84.3139267,2022-12-05 05:53:36
Target,100 Rivers Edge,,Milford,OH,45150-2585,US,39.16255951,-84.27425385,2022-12-05 05:53:36
Target,400 Corwin Nixon Blvd,,South Lebanon,OH,45065-1196,US,39.37846375,-84.22050476,2022-12-05 05:53:36
Target,2300 Miamisburg Centerville Rd,,Dayton,OH,45459-3722,US,39.63318634,-84.21406555,2022-12-05 05:53:36
Target,4341 Feedwire Rd,,Dayton,OH,45440-3970,US,39.65901184,-84.10449982,2022-12-05 05:53:36
Target,2490 N Fairfield Rd,,Beavercreek,OH,45431-1787,US,39.76211166,-84.05115509,2022-12-05 05:53:36
Target,5700 Executive Blvd,,Huber Heights,OH,45424-1449,US,39.87142181,-84.13367462,2022-12-05 05:53:36
Target,1865 N National Rd,,Columbus,IN,47201-5194,US,39.21944046,-85.88523865,2022-12-05 05:53:36
Target,4101 Towne Center Dr,,Louisville,KY,40241-4146,US,38.29693604,-85.55712128,2022-12-05 05:53:36
Target,10202 E Washington St,,Indianapolis,IN,46229-2670,US,39.77750778,-85.98635864,2022-12-05 05:53:36
Target,12975 Shelbyville Rd,Ste 100,Louisville,KY,40243-2425,US,38.24605179,-85.51499939,2022-12-05 05:53:36
Target,3601 N Barr St,,Muncie,IN,47303-1246,US,40.22183609,-85.38076782,2022-12-05 05:53:36
Target,4850 E Southport Rd,,Indianapolis,IN,46237-3321,US,39.66785431,-86.0850296,2022-12-05 05:53:36
Target,"500 S Upper St, STE 110",,Lexington,KY,40508-2920,US,38.04327011,-84.50319672,2022-12-05 05:53:36
Target,895 S State Rd 135,,Greenwood,IN,46143-9413,US,39.60306931,-86.15763092,2022-12-05 05:53:36
Target,4174 Westport Rd,,Louisville,KY,40207-2735,US,38.25864029,-85.64209747,2022-12-05 05:53:36
Target,1125 Veterans Pkwy,,Clarksville,IN,47129-2664,US,38.32764053,-85.76443481,2022-12-05 05:53:36
Target,4640 Taylorsville Rd,,Louisville,KY,40220-3530,US,38.21537399,-85.59447479,2022-12-05 05:53:36
Target,1940 Pavillon Way,,Lexington,KY,40509-2210,US,38.02205658,-84.41514587,2022-12-05 05:53:36
Target,60 Smithfield Blvd,Ste 49,Plattsburgh,NY,12901-2151,US,44.70233917,-73.49187469,2022-12-05 05:53:39
Target,21800 Towne Center Dr,,Watertown,NY,13601-5898,US,43.97023773,-75.96271515,2022-12-05 05:53:38
Target,155 Dorset St,,South Burlington,VT,05403-6346,US,44.46615219,-73.18225861,2022-12-05 05:53:39
Target,10241 W Grand Pkwy S,,Richmond,TX,77407-2259,US,29.65821457,-95.71076965,2022-12-05 05:53:36
Target,23912 Commercial Dr,,Rosenberg,TX,77471-6204,US,29.54775429,-95.75145721,2022-12-05 05:53:38
Target,19955 Katy Fwy,,Houston,TX,77094-1019,US,29.78235435,-95.71675873,2022-12-05 05:53:36
Target,23710 Westheimer Pkwy,,Katy,TX,77494-3605,US,29.7357502,-95.77578735,2022-12-05 05:53:36
Target,25901 Highway 290,,Cypress,TX,77429-1099,US,29.96986008,-95.69619751,2022-12-05 05:53:36
Target,17213 Cole Rd,,Hagerstown,MD,21740-6981,US,39.62030029,-77.77257538,2022-12-05 05:53:36
Target,5437 Urbana Pike,,Frederick,MD,21704-7275,US,39.38227081,-77.39797974,2022-12-05 05:53:36
Target,436 Retail Commons Pkwy,,Martinsburg,WV,25403-6183,US,39.43774414,-77.99196625,2022-12-05 05:53:36
Target,913 Norland Ave,,Chambersburg,PA,17201-4213,US,39.94244385,-77.63170624,2022-12-05 05:53:37
Target,1200 Edwards Ferry Rd,,Leesburg,VA,20176-3318,US,39.11563873,-77.53472137,2022-12-05 05:53:35
Target,20908 Frederick Rd,,Germantown,MD,20876-4134,US,39.1989212,-77.24871826,2022-12-05 05:53:35
Target,191 Market St,,Winchester,VA,22603-4750,US,39.22196198,-78.13524628,2022-12-05 05:53:37
Target,2340 Legge Blvd,,Winchester,VA,22601-7008,US,39.15424728,-78.16744232,2022-12-05 05:53:37
Target,200 Malcolm Dr,,Westminster,MD,21157-6110,US,39.56673431,-76.97426605,2022-12-05 05:53:36
Target,46201 Potomac Run Plz,,Sterling,VA,20164-6609,US,39.02629089,-77.40061188,2022-12-05 05:53:35
Target,25 Grand Corner Ave,,Gaithersburg,MD,20878-7305,US,39.11883545,-77.20236206,2022-12-05 05:53:35
Target,45130 Columbia Pl,,Sterling,VA,20166-2500,US,39.00921631,-77.43965149,2022-12-05 05:53:35
Target,31 WILSON AVE,,Hanover,PA,17331-5207,US,39.82735825,-76.99825287,2022-12-05 05:53:36
Target,12197 Sunset Hills Rd,,Reston,VA,20190-3208,US,38.9547081,-77.36992645,2022-12-05 05:53:35
Target,5700 Bou Ave,,Rockville,MD,20852-1663,US,39.05659103,-77.11494446,2022-12-05 05:53:35
Target,14391 Chantilly Crossing Ln,,Chantilly,VA,20151-2118,US,38.89519882,-77.44583893,2022-12-05 05:53:35
Target,11200 Reisterstown Rd,,Owings Mills,MD,21117-1903,US,39.43340683,-76.79920197,2022-12-05 05:53:36
Target,11160 Veirs Mill Rd,,Silver Spring,MD,20902-2538,US,39.0362854,-77.05632782,2022-12-05 05:53:35
Target,10 Crooked Run Plaza,,Front Royal,VA,22630-7004,US,38.96350098,-78.19239807,2022-12-05 05:53:38
Target,13047 Fair Lakes Shopping Ctr,,Fairfax,VA,22033-5179,US,38.85568619,-77.39292145,2022-12-05 05:53:35
Target,6831 Wisconsin Ave,,Bethesda,MD,20815-6122,US,38.97842026,-77.09069824,2022-12-05 05:53:35
Target,4390 Montgomery Rd,,Ellicott City,MD,21043-6068,US,39.25057602,-76.81726837,2022-12-05 05:53:35
Target,12000 Cherry Hill Rd,,Silver Spring,MD,20904-1985,US,39.05204391,-76.95645905,2022-12-05 05:53:35
Target,13301 Gateway Center Dr,,Gainesville,VA,20155-2984,US,38.79473114,-77.60679626,2022-12-05 05:53:35
Target,7828 Georgia Ave NW,,Washington,DC,20012-1305,US,38.98445892,-77.0269928,2022-12-05 05:53:35
Target,4500 Wisconsin Ave NW,,Washington,DC,20016-4628,US,38.94841003,-77.08054352,2022-12-05 05:53:35
Target,2905 District Ave S,Ste 400,Fairfax,VA,22031-2273,US,38.87256622,-77.22943115,2022-12-05 05:53:35
Target,1737 Reisterstown Rd,,Pikesville,MD,21208-2907,US,39.38474274,-76.73146057,2022-12-05 05:53:36
Target,6111 Dobbin Rd,,Columbia,MD,21045-5802,US,39.19697189,-76.81348419,2022-12-05 05:53:35
Target,500 S. Washington St,,Falls Church,VA,22046-3570,US,38.87982178,-77.17684174,2022-12-05 05:53:35
Target,3827 Marketplace Dr NW,,Rochester,MN,55901-3192,US,44.06319809,-92.50299835,2022-12-05 05:53:39
Target,4611 Maine Ave SE,,Rochester,MN,55904-6929,US,43.95452118,-92.46484375,2022-12-05 05:53:39
Target,151 Tyler Rd N,,Red Wing,MN,55066-1865,US,44.56874466,-92.58254242,2022-12-05 05:53:39
Target,301 Park Dr,,Owatonna,MN,55060-5639,US,44.08657837,-93.24900818,2022-12-05 05:53:40
Target,2323 Highway 3 S,,Northfield,MN,55057-5172,US,44.43365097,-93.18637848,2022-12-05 05:53:39
Target,860 Mankato Ave,,Winona,MN,55987-4867,US,44.03184509,-91.6208725,2022-12-05 05:53:39
Target,8655 E Point Douglas Rd S,,Cottage Grove,MN,55016-4035,US,44.81502151,-92.93100739,2022-12-05 05:53:39
Target,15560 Pilot Knob Rd,,Apple Valley,MN,55124-7286,US,44.72330856,-93.17539978,2022-12-05 05:53:39
Target,15150 Cedar Ave,,Apple Valley,MN,55124-7056,US,44.72989655,-93.2145462,2022-12-05 05:53:39
Target,18275 Kenrick Ave,,Lakeville,MN,55044-7306,US,44.683918,-93.29175568,2022-12-05 05:53:39
Target,7841 Amana Trail,,Inver Grove Heights,MN,55077-2609,US,44.83601761,-93.08776855,2022-12-05 05:53:39
Target,2000 Cliff Lake Rd,,Eagan,MN,55122-2400,US,44.79115295,-93.20584869,2022-12-05 05:53:39
Target,810 County Road 42 W,,Burnsville,MN,55337-4426,US,44.74879837,-93.2888031,2022-12-05 05:53:39
Target,2401 Coulee Rd,,Hudson,WI,54016-2183,US,44.9657135,-92.72374725,2022-12-05 05:53:39
Target,449 Commerce Dr,,Woodbury,MN,55125-4872,US,44.93948746,-92.90882111,2022-12-05 05:53:39
Target,7200 Valley Creek Plz,,Woodbury,MN,55125-2265,US,44.92671967,-92.95972443,2022-12-05 05:53:39
Target,14333 Hwy 13,,Savage,MN,55378-2153,US,44.74370575,-93.37741852,2022-12-05 05:53:39
Target,1750 Robert St S,,West St Paul,MN,55118-3919,US,44.89375687,-93.0785141,2022-12-05 05:53:39
Target,1744 Suburban Ave,,Saint Paul,MN,55106-6619,US,44.94960022,-93.02841949,2022-12-05 05:53:39
Target,9400 State Road 16,,Onalaska,WI,54650-8540,US,43.87394714,-91.19330597,2022-12-05 05:53:35
Target,6445 Richfield Pkwy,,Richfield,MN,55423-6400,US,44.88547897,-93.24939728,2022-12-05 05:53:39
Target,2555 W 79th St,,Bloomington,MN,55431-1250,US,44.86002731,-93.31157684,2022-12-05 05:53:39
Target,2080 Ford Pkwy,,Saint Paul,MN,55116-1813,US,44.91761017,-93.18824768,2022-12-05 05:53:39
Target,7900 32nd St N,,Oakdale,MN,55128-4054,US,44.99689865,-92.94595337,2022-12-05 05:53:39
Target,7000 York Ave S,,Edina,MN,55435-4213,US,44.87546921,-93.32360077,2022-12-05 05:53:39
Target,2021 Market Dr,,Stillwater,MN,55082-7546,US,45.03768539,-92.83869171,2022-12-05 05:53:39
Target,1300 University Ave W,,Saint Paul,MN,55104-4103,US,44.95349121,-93.15579987,2022-12-05 05:53:39
Target,1685 17th Ave E,,Shakopee,MN,55379-4407,US,44.77565765,-93.50086975,2022-12-05 05:53:39
Target,2199 Hwy 36 E,,North Saint Paul,MN,55109-2215,US,45.01376724,-93.00907135,2022-12-05 05:53:39
Target,2500 E Lake St,,Minneapolis,MN,55406-1909,US,44.94995117,-93.23674011,2022-12-05 05:53:39
Target,8199 Warren H Abernathy Pkwy,,Spartanburg,SC,29301-2452,US,34.93412399,-82.00911713,2022-12-05 05:53:37
Target,6025 Wade Hampton Blvd,,Taylors,SC,29687-5334,US,34.93743896,-82.2793045,2022-12-05 05:53:37
Target,1112 Woodruff Rd,,Greenville,SC,29607-4109,US,34.83007431,-82.30802155,2022-12-05 05:53:37
Target,694 Fairview Rd,,Simpsonville,SC,29680-6708,US,34.70573807,-82.25961304,2022-12-05 05:53:37
Target,15 McKenna Rd,,Arden,NC,28704-9201,US,35.44871521,-82.5358963,2022-12-05 05:53:36
Target,425 Cox Rd,,Gastonia,NC,28054-0610,US,35.2641983,-81.13829803,2022-12-05 05:53:35
Target,115 River Hills Rd,,Asheville,NC,28805-2550,US,35.57294846,-82.52230835,2022-12-05 05:53:36
Target,1910 Catawba Valley Blvd SE,,Hickory,NC,28602-4146,US,35.7004509,-81.30767822,2022-12-05 05:53:35
Target,12830 Walker Branch Dr,,Charlotte,NC,28273-8850,US,35.10039902,-80.9858017,2022-12-05 05:53:35
Target,1900 Springsteen Rd,,Rock Hill,SC,29730-6990,US,34.93913651,-80.97785187,2022-12-05 05:53:35
Target,9531 South Blvd,,Charlotte,NC,28273-6901,US,35.10780334,-80.87899017,2022-12-05 05:53:35
Target,3519 Clemson Blvd,,Anderson,SC,29621-1312,US,34.54954147,-82.67950439,2022-12-05 05:53:37
Target,900 Metropolitan Ave,Ste 2,Charlotte,NC,28204-3262,US,35.21450424,-80.83486938,2022-12-05 05:53:35
Target,9841 Northlake Centre Pkwy,,Charlotte,NC,28216-8930,US,35.34965897,-80.85959625,2022-12-05 05:53:35
Target,7860 Rea Rd,,Charlotte,NC,28277-6502,US,35.05861282,-80.81539154,2022-12-05 05:53:35
Target,9870 Rea Rd,,Charlotte,NC,28277-6655,US,35.03739929,-80.80771637,2022-12-05 05:53:35
Target,9801 Sam Furr Rd,,Huntersville,NC,28078-8219,US,35.44295883,-80.86184692,2022-12-05 05:53:35
Target,8120 University City Blvd,,Charlotte,NC,28213-8126,US,35.29319382,-80.74531555,2022-12-05 05:53:35
Target,594 River Hwy,,Mooresville,NC,28117-6829,US,35.59798813,-80.8710022,2022-12-05 05:53:35
Target,1900 Matthews Township Pkwy,,Matthews,NC,28105-4660,US,35.12258911,-80.70639801,2022-12-05 05:53:35
Target,8830 Albemarle Rd,,Charlotte,NC,28227-2616,US,35.20934677,-80.69433594,2022-12-05 05:53:35
Target,6350 Weddington Rd,,Wesley Chapel,NC,28104-7925,US,34.99977493,-80.695961,2022-12-05 05:53:35
Target,6150 Bayfield Pkwy,,Concord,NC,28027-7486,US,35.4171257,-80.67847443,2022-12-05 05:53:35
Target,2901 W Highway 74,,Monroe,NC,28110-8435,US,35.0199852,-80.58086395,2022-12-05 05:53:35
Target,134 Harbison Blvd,,Columbia,SC,29212-2204,US,34.06674576,-81.1647644,2022-12-05 05:53:38
Target,5119 Sunset Blvd,,Lexington,SC,29072-9155,US,34.00679016,-81.19380188,2022-12-05 05:53:38
Target,2116 N Roan St,,Johnson City,TN,37601-2535,US,36.34290695,-82.37384033,2022-12-05 05:53:37
Target,10204 Two Notch Rd,,Columbia,SC,29229-4386,US,34.11803818,-80.87711334,2022-12-05 05:53:37
Target,6090A Garners Ferry Rd,,Columbia,SC,29209-0600,US,33.98161697,-80.96833038,2022-12-05 05:53:38
Target,7305 SE 29th St,,Midwest City,OK,73110-6122,US,35.43710327,-97.39663696,2022-12-05 05:53:36
Target,720 SW 19TH ST,,Moore,OK,73160-2941,US,35.31805801,-97.50025177,2022-12-05 05:53:36
Target,5400 N May Ave,,Oklahoma City,OK,73112-5407,US,35.52441025,-97.56439972,2022-12-05 05:53:36
Target,1200 E 2nd St,,Edmond,OK,73034-5317,US,35.65050125,-97.46353912,2022-12-05 05:53:36
Target,13924 N Pennsylvania Ave,,Oklahoma City,OK,73134-6021,US,35.61288071,-97.54743195,2022-12-05 05:53:36
Target,1400 24th Ave NW,,Norman,OK,73069-6385,US,35.23604202,-97.48271179,2022-12-05 05:53:36
Target,8315 N Rockwell Ave,,Oklahoma City,OK,73132-4220,US,35.55603027,-97.64009857,2022-12-05 05:53:36
Target,1700 Garth Brooks Blvd,,Yukon,OK,73099-6387,US,35.48120499,-97.76344299,2022-12-05 05:53:36
Target,7437 S Olympia Ave W,,Tulsa,OK,74132-1838,US,36.05523682,-96.00188446,2022-12-05 05:53:38
Target,2030 NW 82nd Street,,Lawton,OK,73505-2355,US,34.62928772,-98.49491119,2022-12-05 05:53:36
Target,10019 S Memorial Dr,,Tulsa,OK,74133-6103,US,36.01879501,-95.88421631,2022-12-05 05:53:38
Target,1701 S Yale Ave,,Tulsa,OK,74112-6221,US,36.13727188,-95.92040253,2022-12-05 05:53:38
Target,10711 E 71st St,,Tulsa,OK,74133-2522,US,36.06242752,-95.85636902,2022-12-05 05:53:38
Target,1150 E Hillside Dr,,Broken Arrow,OK,74012-2385,US,36.06690598,-95.77593994,2022-12-05 05:53:38
Target,1901 13th Ave E,,Tuscaloosa,AL,35404-4785,US,33.19310379,-87.51866913,2022-12-05 05:53:35
Target,4889 Promenade Pkwy,,Bessemer,AL,35022-7305,US,33.33442688,-86.99032593,2022-12-05 05:53:35
Target,4200 Kent Rd,,Stow,OH,44224-4325,US,41.15570831,-81.41020966,2022-12-05 05:53:35
Target,1144 State Route 303,,Streetsboro,OH,44241-5266,US,41.23745346,-81.35274506,2022-12-05 05:53:35
Target,449 Howe Ave,,Cuyahoga Falls,OH,44221-4943,US,41.12039185,-81.47692871,2022-12-05 05:53:35
Target,2801 W Market St,,Fairlawn,OH,44333-4028,US,41.12755966,-81.60482025,2022-12-05 05:53:35
Target,762 Arlington Rdg,,Akron,OH,44312-5269,US,40.98363495,-81.49521637,2022-12-05 05:53:35
Target,18855 N Market Place Dr,,Aurora,OH,44202-8784,US,41.35775757,-81.38667297,2022-12-05 05:53:35
Target,8282 Golden Link Blvd,,Northfield,OH,44067-2067,US,41.31178665,-81.5259552,2022-12-05 05:53:35
Target,1183 Williams Reserve Blvd,,Wadsworth,OH,44281-9314,US,41.04062271,-81.6907959,2022-12-05 05:53:35
Target,5584 Dressler Rd NW,,North Canton,OH,44720-7757,US,40.86164093,-81.43097687,2022-12-05 05:53:35
Target,1980 Lincoln Way E,,Massillon,OH,44646-6965,US,40.80081177,-81.49698639,2022-12-05 05:53:35
Target,6850 Ridge Rd,,Parma,OH,44129-5627,US,41.37762451,-81.73558044,2022-12-05 05:53:35
Target,14070 Cedar Rd,,University Heights,OH,44118-3216,US,41.50047684,-81.5333786,2022-12-05 05:53:35
Target,1285 Som Center Rd,,Mayfield Heights,OH,44124-2073,US,41.52509308,-81.4355545,2022-12-05 05:53:35
Target,1015 N Court St,,Medina,OH,44256-1582,US,41.15512466,-81.86483002,2022-12-05 05:53:35
Target,18200 Royalton Rd,,Strongsville,OH,44136-5181,US,41.31671143,-81.82829285,2022-12-05 05:53:35
Target,3535 Steelyard Dr,,Cleveland,OH,44109-2387,US,41.45801926,-81.68943787,2022-12-05 05:53:35
Target,5555 Youngstown Warren Rd,,Niles,OH,44446-4804,US,41.21652985,-80.75259399,2022-12-05 05:53:35
Target,3100 W 117th St,,Cleveland,OH,44111-1747,US,41.46841812,-81.77117157,2022-12-05 05:53:35
Target,36195 Euclid Ave,,Willoughby,OH,44094-4410,US,41.62886047,-81.42932892,2022-12-05 05:53:35
Target,20900 Westgate Mall,,Fairview Park,OH,44126-1320,US,41.45838547,-81.85018158,2022-12-05 05:53:35
Target,24646 Brookpark Rd,,North Olmsted,OH,44070-3482,US,41.42037201,-81.89537811,2022-12-05 05:53:35
Target,417 Boardman Poland Rd,,Boardman,OH,44512-4907,US,41.02113342,-80.64575958,2022-12-05 05:53:35
Target,9669 Mentor Ave,,Mentor,OH,44060-4528,US,41.68643951,-81.29307556,2022-12-05 05:53:35
Target,35830 Detroit Rd,,Avon,OH,44011-1681,US,41.46329498,-82.01004028,2022-12-05 05:53:35
Target,240 Market Dr,,Elyria,OH,44035-2886,US,41.38851547,-82.10845184,2022-12-05 05:53:35
Target,8000 Oak Point Rd,,Amherst,OH,44001-9654,US,41.41365814,-82.24179077,2022-12-05 05:53:35
Target,87 Wagner Rd,,Monaca,PA,15061-2141,US,40.68083191,-80.31208038,2022-12-05 05:53:35
Target,2205 Walker Lake Rd,,Mansfield,OH,44903-6519,US,40.78626633,-82.59428406,2022-12-05 05:53:38
Target,4020 Milan Rd,,Sandusky,OH,44870-5892,US,41.42093658,-82.67281342,2022-12-05 05:53:35
Target,1717 Route 228,,Cranberry Twp,PA,16066-5312,US,40.68807602,-80.08499146,2022-12-05 05:53:35
Target,131 West Reynolds Rd,,Lexington,KY,40503-3599,US,37.99292374,-84.52645111,2022-12-05 05:53:36
Target,2070 Thundering Herd Rd,,Barboursville,WV,25504-2600,US,38.42049789,-82.28509521,2022-12-05 05:53:35
Target,3938 Midway Rd,,Goshen,IN,46526-5854,US,41.62205124,-85.90503693,2022-12-05 05:53:35
Target,3801 Coldwater Rd,,Fort Wayne,IN,46805-1101,US,41.11127853,-85.13819885,2022-12-05 05:53:35
Target,1102 S Thomas Rd,,Fort Wayne,IN,46804-1144,US,41.07680511,-85.20336151,2022-12-05 05:53:35
Target,6119 Stellhorn Rd,,Fort Wayne,IN,46815-5357,US,41.12216187,-85.06400299,2022-12-05 05:53:35
Target,155 University Dr E,,Granger,IN,46530-4474,US,41.7181282,-86.17682648,2022-12-05 05:53:35
Target,1400 E Ireland Rd,,South Bend,IN,46614-3452,US,41.62763977,-86.22934723,2022-12-05 05:53:35
Target,6839 S Westnedge Ave,,Portage,MI,49002-3582,US,42.21852875,-85.5880127,2022-12-05 05:53:35
Target,5700 Beckley Rd,,Battle Creek,MI,49015-4184,US,42.25981903,-85.18548584,2022-12-05 05:53:35
Target,5350 W Main St,,Kalamazoo,MI,49009-3304,US,42.29804993,-85.65496063,2022-12-05 05:53:35
Target,1076 Jackson Xing,,Jackson,MI,49202-2039,US,42.2671814,-84.42589569,2022-12-05 05:53:35
Target,1037 S Reed Rd,,Kokomo,IN,46902-1929,US,40.47498322,-86.10916138,2022-12-05 05:53:37
Target,2420 Laporte Ave,,Valparaiso,IN,46383-6914,US,41.46695709,-87.0304184,2022-12-05 05:53:36
Target,1465 E Mall Dr,,Holland,OH,43528-9490,US,41.61531067,-83.69522095,2022-12-05 05:53:35
Target,5225 Monroe St,,Toledo,OH,43623-3139,US,41.69962692,-83.65377045,2022-12-05 05:53:35
Target,500 E Edgewood Blvd,,Lansing,MI,48911-5901,US,42.66339111,-84.54387665,2022-12-05 05:53:35
Target,9666 Olde US 20,,Rossford,OH,43460-1710,US,41.54318237,-83.58060455,2022-12-05 05:53:35
Target,1925 Marketplace Dr SE,,Caledonia,MI,49316-8511,US,42.84595871,-85.61540222,2022-12-05 05:53:36
Target,5609 W Saginaw Hwy,,Lansing,MI,48917-2456,US,42.73862457,-84.62852478,2022-12-05 05:53:35
Target,817 W Alexis Rd,,Toledo,OH,43612-4303,US,41.72048569,-83.56092072,2022-12-05 05:53:35
Target,5455 Clyde Park Ave SW,,Wyoming,MI,49509-9722,US,42.86530685,-85.68572235,2022-12-05 05:53:37
Target,201 E Grand River Ave,,East Lansing,MI,48823-4323,US,42.7349205,-84.48184204,2022-12-05 05:53:35
Target,3130 44th St SW,,Grandville,MI,49418-2567,US,42.88221359,-85.74076843,2022-12-05 05:53:37
Target,2000 Waters Rd,,Ann Arbor,MI,48103-8999,US,42.24400711,-83.7691803,2022-12-05 05:53:35
Target,5120 28th St SE,,Grand Rapids,MI,49512-2049,US,42.90831757,-85.54116058,2022-12-05 05:53:37
Target,4890 Marsh Rd,,Okemos,MI,48864-1123,US,42.7243309,-84.41332245,2022-12-05 05:53:35
Target,3456 W Shore Dr,,Holland,MI,49424-9699,US,42.83111572,-86.09200287,2022-12-05 05:53:37
Target,2661 E US Highway 30,,Merrillville,IN,46410-5898,US,41.46948624,-87.3030777,2022-12-05 05:53:36
Target,930 County Rd 64,,Elmira,NY,14903-9704,US,42.15291977,-76.87333679,2022-12-05 05:53:36
Target,170 S Lycoming Mall Rd,,Muncy,PA,17756-8152,US,41.24380112,-76.83519745,2022-12-05 05:53:36
Target,40 Catherwood Rd,,Ithaca,NY,14850-1056,US,42.48493195,-76.49060059,2022-12-05 05:53:36
Target,3112 Vestal Pkwy E,,Vestal,NY,13850-2038,US,42.09418488,-76.00118256,2022-12-05 05:53:36
Target,501 Market Place Blvd,,Selinsgrove,PA,17870-2407,US,40.84234619,-76.83784485,2022-12-05 05:53:36
Target,3400 Wilkes-Barre Township Commons,,Wilkes-Barre Township,PA,18702-6832,US,41.23778534,-75.84460449,2022-12-05 05:53:36
Target,1140 Commerce Blvd,,Dickson City,PA,18519-1688,US,41.46710968,-75.63907623,2022-12-05 05:53:36
Target,201 W Beaver Ave,,State College,PA,16801-4819,US,40.79249954,-77.86180115,2022-12-05 05:53:35
Target,315 Colonnade Blvd,,State College,PA,16803-2321,US,40.81257248,-77.90670013,2022-12-05 05:53:35
Target,7500 Commons Blvd,,Victor,NY,14564-1010,US,43.03353119,-77.44869232,2022-12-05 05:53:36
Target,2325 Marketplace Dr,,Rochester,NY,14623-6009,US,43.07844925,-77.63204956,2022-12-05 05:53:39
Target,2161 N Nine Mile Point Rd,,Fairport,NY,14450-8509,US,43.12839127,-77.44319916,2022-12-05 05:53:39
Target,3657 W Genesee St,,Syracuse,NY,13219-2003,US,43.04705811,-76.23619843,2022-12-05 05:53:38
Target,3181 Chili Ave,,Rochester,NY,14624-5409,US,43.1046257,-77.74613953,2022-12-05 05:53:39
Target,1050 Ridge Rd,,Webster,NY,14580-2908,US,43.21140289,-77.45121765,2022-12-05 05:53:39
Target,500 Skyview Centre Pkwy,,Rochester,NY,14622-2486,US,43.19801331,-77.57388306,2022-12-05 05:53:39
Target,340 Towne Dr,,Fayetteville,NY,13066-1371,US,43.03184891,-76.01978302,2022-12-05 05:53:36
Target,1191 Boston Post Rd,,Milford,CT,06460-2763,US,41.23517227,-73.03809357,2022-12-05 05:53:35
Target,120 Hawley Ln,,Trumbull,CT,06611-5347,US,41.23353958,-73.15167999,2022-12-05 05:53:35
Target,25 Boston Post Rd,,Orange,CT,06477-3203,US,41.28027725,-72.98751831,2022-12-05 05:53:35
Target,20 W Main St,,Ansonia,CT,06401-1812,US,41.34044647,-73.07894135,2022-12-05 05:53:35
Target,5065 Main St,Ste Target,Trumbull,CT,06611-4204,US,41.22873688,-73.22532654,2022-12-05 05:53:35
Target,200 Universal Dr N,,North Haven,CT,06473-3156,US,41.35094833,-72.87167358,2022-12-05 05:53:35
Target,7 Stony Hill Rd,,Bethel,CT,06801-1030,US,41.4150238,-73.4019165,2022-12-05 05:53:35
Target,255 Pond Path Rd,,South Setauket,NY,11720-2007,US,40.88486862,-73.09976196,2022-12-05 05:53:36
Target,307 Independence Plz,,Selden,NY,11784-2400,US,40.86603546,-73.05065918,2022-12-05 05:53:36
Target,300 Chase Ave,,Waterbury,CT,06704-2246,US,41.5825386,-73.03432465,2022-12-05 05:53:35
Target,474 Chamberlain Hwy,,Meriden,CT,06451-1818,US,41.55253983,-72.81545258,2022-12-05 05:53:35
Target,2975 Horseblock Rd,,Medford,NY,11763-2526,US,40.8249588,-72.98895264,2022-12-05 05:53:36
Target,1150 Old Country Rd,,Riverhead,NY,11901-2073,US,40.93310165,-72.67935944,2022-12-05 05:53:35
Target,21 Broad St,,Stamford,CT,06901-2309,US,41.05540085,-73.54141998,2022-12-05 05:53:35
Target,600 Executive Blvd,,Southington,CT,06489-6008,US,41.61147308,-72.90135956,2022-12-05 05:53:35
Target,98 Veterans Memorial Hwy,,Commack,NY,11725-3432,US,40.83913422,-73.28636169,2022-12-05 05:53:36
Target,5750 Sunrise Hwy,,Sayville,NY,11782-1010,US,40.76651001,-73.06716156,2022-12-05 05:53:36
Target,160 N Research Pl,,Central Islip,NY,11722-4458,US,40.77266693,-73.20225525,2022-12-05 05:53:36
Target,124 E Jericho Tpke,,Huntington Station,NY,11746-7324,US,40.82780075,-73.40606689,2022-12-05 05:53:36
Target,195 N Bedford Rd Ste A,,Mount Kisco,NY,10549-1104,US,41.21619797,-73.7227478,2022-12-05 05:53:35
Target,3265 Berlin Turnpike,,Newington,CT,06111-5101,US,41.66057205,-72.72566986,2022-12-05 05:53:35
Target,838 Sunrise Hwy,,Bay Shore,NY,11706-5908,US,40.72652817,-73.27703857,2022-12-05 05:53:36
Target,495 Boston Post Rd,,Port Chester,NY,10573-4738,US,40.99160385,-73.67331696,2022-12-05 05:53:35
Target,475 Hartford Rd,,New Britain,CT,06053-1524,US,41.71062469,-72.76386261,2022-12-05 05:53:35
Target,100 Willow Park Ctr,,Farmingdale,NY,11735-1001,US,40.7509613,-73.41941071,2022-12-05 05:53:36
Target,2003 Broadway Mall,,Hicksville,NY,11801-2719,US,40.77168274,-73.53294373,2022-12-05 05:53:36
Target,1149 Sunrise Hwy,,Copiague,NY,11726-1330,US,40.68822861,-73.40613556,2022-12-05 05:53:36
Target,3850 Hempstead Tpke,,Levittown,NY,11756-1303,US,40.72492981,-73.4942627,2022-12-05 05:53:36
Target,1922 E Main St,,Torrington,CT,06790-3101,US,41.8188591,-73.07550049,2022-12-05 05:53:35
Target,270 Airport Pkwy,,Heath,OH,43056-1278,US,40.03232574,-82.4510498,2022-12-05 05:53:37
Target,300 Cabela Dr,,Triadelphia,WV,26059-1023,US,40.05634689,-80.5993576,2022-12-05 05:53:35
Target,3944 Grand Ave,,Chino,CA,91710-5422,US,34.00149536,-117.71824646,2022-12-05 05:53:35
Target,701 Rio Rancho Road,,Pomona,CA,91766-7018,US,34.03463745,-117.75654602,2022-12-05 05:53:35
Target,747 Grand Ave,,Diamond Bar,CA,91765-8400,US,34.0050087,-117.82107544,2022-12-05 05:53:35
Target,5555 Philadelphia St,,Chino,CA,91710-2481,US,34.03249359,-117.68204498,2022-12-05 05:53:35
Target,8148 E Santa Ana Canyon Rd,,Anaheim,CA,92808-1105,US,33.86580658,-117.74764252,2022-12-05 05:53:35
Target,9052 Central Ave,,Montclair,CA,91763-1621,US,34.08983231,-117.69054413,2022-12-05 05:53:35
Target,855 E Birch St,,Brea,CA,92821-5769,US,33.91869354,-117.88697052,2022-12-05 05:53:37
Target,2920 Yorba Linda Blvd,,Fullerton,CA,92831-1523,US,33.88772964,-117.87729645,2022-12-05 05:53:37
Target,2462 Foothill Blvd,,La Verne,CA,91750-3056,US,34.11006165,-117.7598877,2022-12-05 05:53:35
Target,12471 Limonite Ave,,Mira Loma,CA,91752-2457,US,33.9779129,-117.55381775,2022-12-05 05:53:35
Target,17751 Colima Rd,,Rowland Heights,CA,91748-1714,US,33.99176788,-117.91905212,2022-12-05 05:53:35
Target,1290 Hamner Ave,,Norco,CA,92860-3117,US,33.90075684,-117.56435394,2022-12-05 05:53:35
Target,888 W Arrow Hwy,,San Dimas,CA,91773-2495,US,34.10442352,-117.82325745,2022-12-05 05:53:35
Target,2370 S Azusa Ave,,West Covina,CA,91792-1511,US,34.03354645,-117.91214752,2022-12-05 05:53:35
Target,2191 N Tustin St,,Orange,CA,92865-3701,US,33.82438278,-117.83499908,2022-12-05 05:53:41
Target,2831 E Eastland Ctr Dr,,West Covina,CA,91791-1624,US,34.07411957,-117.88469696,2022-12-05 05:53:35
Target,2222 E Lincoln Ave,,Anaheim,CA,92806-4107,US,33.83778,-117.88568878,2022-12-05 05:53:41
Target,4200 E 4th St,,Ontario,CA,91764-5250,US,34.07580185,-117.56177521,2022-12-05 05:53:35
Target,1931 Campus Ave,,Upland,CA,91784-1667,US,34.13319016,-117.64122009,2022-12-05 05:53:35
Target,1000 W Imperial Hwy,,La Habra,CA,90631-6901,US,33.91611862,-117.95700073,2022-12-05 05:53:37
Target,200 W Orangethorpe Ave,,Fullerton,CA,92832-2900,US,33.85850906,-117.9280014,2022-12-05 05:53:41
Target,2620 E Chapman Ave,,Orange,CA,92869-3205,US,33.78720856,-117.82518005,2022-12-05 05:53:41
Target,10576 Foothill Blvd,,Rancho Cucamonga,CA,91730-3890,US,34.10823059,-117.57389832,2022-12-05 05:53:35
Target,1893 W Malvern Ave,,Fullerton,CA,92833-2403,US,33.87942123,-117.96161652,2022-12-05 05:53:41
Target,101 S Euclid St,,Anaheim,CA,92802-1011,US,33.83171082,-117.9425354,2022-12-05 05:53:41
Target,15614 Whittwood Ln,,Whittier,CA,90603-2324,US,33.94300461,-117.99604034,2022-12-05 05:53:37
Target,809 N Azusa Ave,,Azusa,CA,91702-2510,US,34.1355896,-117.90778351,2022-12-05 05:53:35
Target,1330 E 17th St,,Santa Ana,CA,92705-8500,US,33.75925827,-117.85070038,2022-12-05 05:53:41
Target,3100 Baldwin Park Blvd,,Baldwin Park,CA,91706-4703,US,34.06948853,-117.97745514,2022-12-05 05:53:35
Target,2615 Tuscany St,,Corona,CA,92881-4631,US,33.82626724,-117.51661682,2022-12-05 05:53:35
Target,3410 Dr Martin Luther King Jr Blvd,,New Bern,NC,28562-5220,US,35.10146332,-77.09676361,2022-12-05 05:53:42
Target,1395D Western Blvd,,Jacksonville,NC,28546-6663,US,34.78588486,-77.40403748,2022-12-05 05:53:41
Target,3040 S Evans St,,Greenville,NC,27834-3176,US,35.57860184,-77.38319397,2022-12-05 05:53:36
Target,1204 Sunburst Dr,,Goldsboro,NC,27534-8202,US,35.37962341,-77.93942261,2022-12-05 05:53:37
Target,4711 New Centre Dr,,Wilmington,NC,28405-3442,US,34.24842834,-77.8811264,2022-12-05 05:53:37
Target,3401 Raleigh Road Pkwy W,Ste 1A,Wilson,NC,27896-8219,US,35.74063492,-77.96537018,2022-12-05 05:53:37
Target,731 Sutters Creek Blvd,,Rocky Mount,NC,27804-8452,US,35.97166443,-77.81320953,2022-12-05 05:53:37
Target,2791 David H Mcleod Blvd,,Florence,SC,29501-4043,US,34.19300079,-79.8374939,2022-12-05 05:53:37
Target,480 W Washington St,,East Peoria,IL,61611-2445,US,40.67201233,-89.58384705,2022-12-05 05:53:36
Target,5001 N Big Hollow Rd,,Peoria,IL,61615-3538,US,40.74827576,-89.63523102,2022-12-05 05:53:36
Target,301 Veterans Pkwy,,Normal,IL,61761-2115,US,40.50734329,-88.95736694,2022-12-05 05:53:36
Target,355 W Mound Rd,,Decatur,IL,62526-1965,US,39.89046478,-88.95838928,2022-12-05 05:53:36
Target,1071 W Carl Sandburg Dr,,Galesburg,IL,61401-1343,US,40.97557449,-90.38730621,2022-12-05 05:53:35
Target,2102 N Prospect Ave,,Champaign,IL,61822-1231,US,40.14152145,-88.25543976,2022-12-05 05:53:36
Target,603 E Green St,,Champaign,IL,61820-5012,US,40.11020279,-88.23026276,2022-12-05 05:53:36
Target,4370 Venture Dr,,Peru,IL,61354-1013,US,41.36191177,-89.1288147,2022-12-05 05:53:36
Target,525 S Gear Ave,,West Burlington,IA,52655-1031,US,40.82083511,-91.17192078,2022-12-05 05:53:35
Target,3248 Alpine Ave NW,,Walker,MI,49544-1655,US,43.02194977,-85.68759918,2022-12-05 05:53:37
Target,5057 Harvey St,,Muskegon,MI,49444-9795,US,43.16037369,-86.20856476,2022-12-05 05:53:37
Target,4097 E Blue Grass Rd,,Mount Pleasant,MI,48858-7997,US,43.57649994,-84.76593018,2022-12-05 05:53:35
Target,6820 Eastman Ave,,Midland,MI,48642-7805,US,43.65832138,-84.24166107,2022-12-05 05:53:35
Target,2772 Tittabawassee Rd,,Saginaw,MI,48604-9433,US,43.48278046,-83.97084045,2022-12-05 05:53:35
Target,2112 W Peterson Ave,,Chicago,IL,60659-4277,US,41.99078751,-87.68283844,2022-12-05 05:53:39
Target,2209 Howard St,,Evanston,IL,60202-3636,US,42.02056122,-87.70563507,2022-12-05 05:53:39
Target,6422 N. Sheridan Rd Unit A,,Chicago,IL,60626-5336,US,41.99924469,-87.66100311,2022-12-05 05:53:39
Target,4631 W Foster Ave,,Chicago,IL,60630-1709,US,41.97476959,-87.74403381,2022-12-05 05:53:39
Target,4466 N Broadway St,,Chicago,IL,60640-5660,US,41.96356201,-87.65639496,2022-12-05 05:53:39
Target,2939 W Addison St,,Chicago,IL,60618-4635,US,41.94512558,-87.70194244,2022-12-05 05:53:39
Target,3300 N. Ashland Ave,,Chicago,IL,60657-2109,US,41.9416008,-87.66699982,2022-12-05 05:53:39
Target,1616 Sherman Ave,,Evanston,IL,60201-5621,US,42.04775238,-87.68206024,2022-12-05 05:53:39
Target,4955 Dempster St,,Skokie,IL,60077-1842,US,42.04041672,-87.75122833,2022-12-05 05:53:39
Target,6150 W Touhy Ave,,Niles,IL,60714-4621,US,42.01253128,-87.78050995,2022-12-05 05:53:39
Target,2656 N Elston Ave,,Chicago,IL,60647-2019,US,41.92938614,-87.68512726,2022-12-05 05:53:39
Target,3204 N Clark St,,Chicago,IL,60657-1602,US,41.94009781,-87.65139008,2022-12-05 05:53:39
Target,2434 N Sacramento Ave,,Chicago,IL,60647-2666,US,41.9261055,-87.70291138,2022-12-05 05:53:39
Target,2650 N. Clark St,,Chicago,IL,60614-1523,US,41.93141937,-87.64455414,2022-12-05 05:53:39
Target,555 W Webster Ave,,Chicago,IL,60614-7610,US,41.92162704,-87.64318085,2022-12-05 05:53:39
Target,4050 N Harlem Ave,,Norridge,IL,60706-1202,US,41.95378876,-87.80840302,2022-12-05 05:53:39
Target,6525 W Diversey Ave,,Chicago,IL,60707-2312,US,41.93037033,-87.78926849,2022-12-05 05:53:39
Target,1664 W Division St,,Chicago,IL,60622-3922,US,41.90365219,-87.66929626,2022-12-05 05:53:39
Target,1200 N Larrabee St,,Chicago,IL,60610-1746,US,41.90384674,-87.64345551,2022-12-05 05:53:39
Target,630 N LaSalle Dr,,Chicago,IL,60654,US,41.89341354,-87.63301086,2022-12-05 05:53:39
Target,239 Golf Mill Ctr,,Niles,IL,60714-1237,US,42.052845,-87.83889771,2022-12-05 05:53:40
Target,401 E Illinois St,,Chicago,IL,60611-4390,US,41.89095306,-87.61741638,2022-12-05 05:53:39
Target,1101 W Jackson Blvd,,Chicago,IL,60607-2905,US,41.87773895,-87.65467072,2022-12-05 05:53:39
Target,1 S State St,,Chicago,IL,60603-2802,US,41.88169861,-87.62741089,2022-12-05 05:53:39
Target,1129 Lake Street,,Oak Park,IL,60301-1001,US,41.88806915,-87.80384827,2022-12-05 05:53:39
Target,850 W North Ave,,Melrose Park,IL,60160-1611,US,41.90559769,-87.84395599,2022-12-05 05:53:39
Target,1154 S Clark St,,Chicago,IL,60605-2159,US,41.86771774,-87.63070679,2022-12-05 05:53:39
Target,7000 Mannheim Rd,,Rosemont,IL,60018-3621,US,42.00646973,-87.88653564,2022-12-05 05:53:38
Target,2241 Willow Rd,,Glenview,IL,60025-7636,US,42.10264587,-87.8134613,2022-12-05 05:53:37
Target,2901 S Cicero Ave,,Cicero,IL,60804-3637,US,41.8392868,-87.74163818,2022-12-05 05:53:36
Target,2929 Watson Blvd,,Warner Robins,GA,31093-9600,US,32.61659241,-83.68639374,2022-12-05 05:53:40
Target,1850 Jonesboro Rd,,Mcdonough,GA,30253-5960,US,33.46738815,-84.21651459,2022-12-05 05:53:42
Target,2195 Hwy 20 SE,,Conyers,GA,30013-2028,US,33.63338852,-84.01621246,2022-12-05 05:53:40
Target,107 Pavilion Pkwy,,Fayetteville,GA,30214-4098,US,33.48174286,-84.43852997,2022-12-05 05:53:42
Target,1209 Peachtree Pkwy N,,Peachtree City,GA,30269-1743,US,33.43686676,-84.59014893,2022-12-05 05:53:42
Target,555 Bullsboro Dr,,Newnan,GA,30265-1045,US,33.39290619,-84.75887299,2022-12-05 05:53:42
Target,3660 Marketplace Blvd,,East Point,GA,30344-5738,US,33.65920258,-84.49982452,2022-12-05 05:53:35
Target,1275 Caroline St NE,,Atlanta,GA,30307-2705,US,33.75727463,-84.34662628,2022-12-05 05:53:35
Target,1591 Bradley Park Dr,,Columbus,GA,31904-3071,US,32.5346489,-84.97106934,2022-12-05 05:53:35
Target,1905 Scenic Hwy N,,Snellville,GA,30078-5633,US,33.87485504,-84.01596832,2022-12-05 05:53:35
Target,916 Loganville Hwy,Ste 400,Bethlehem,GA,30620-2145,US,33.94278717,-83.75201416,2022-12-05 05:53:35
Target,4241 Lavista Rd,,Tucker,GA,30084-5310,US,33.84511948,-84.2460022,2022-12-05 05:53:35
Target,3065 Atlanta Hwy,,Athens,GA,30606-3334,US,33.94150162,-83.44039154,2022-12-05 05:53:39
Target,375 18th St,,Atlanta,GA,30363-1190,US,33.79260635,-84.39993286,2022-12-05 05:53:35
Target,2400 N Druid Hills Rd NE,,Atlanta,GA,30329-3211,US,33.82825089,-84.32550049,2022-12-05 05:53:35
Target,2539 Piedmont Rd NE,,Atlanta,GA,30324-3006,US,33.82411575,-84.36314392,2022-12-05 05:53:35
Target,127 E Broad St,,Athens,GA,30601-2852,US,33.95769501,-83.3765564,2022-12-05 05:53:39
Target,3535 Peachtree Rd NE,,Atlanta,GA,30326-3287,US,33.85182953,-84.35881805,2022-12-05 05:53:35
Target,875 Lawrenceville Suwanee Rd,Ste 4000,Lawrenceville,GA,30043-8479,US,33.97013474,-84.01493073,2022-12-05 05:53:35
Target,3200 Holcomb Bridge Rd,,Peachtree Corners,GA,30092-3361,US,33.95143127,-84.23228455,2022-12-05 05:53:35
Target,2721 Dawson Rd,,Albany,GA,31707-1672,US,31.62133408,-84.22465515,2022-12-05 05:53:37
Target,5570 Roswell Rd,,Sandy Springs,GA,30342-1102,US,33.90613556,-84.38014221,2022-12-05 05:53:35
Target,100 Perimeter Center Pl,,Atlanta,GA,30346-1204,US,33.93050003,-84.34130096,2022-12-05 05:53:35
Target,2950 Chapel Hill Rd,,Douglasville,GA,30135-1708,US,33.72610474,-84.73537445,2022-12-05 05:53:35
Target,2201 Cobb Pkwy SE,,Smyrna,GA,30080-7633,US,33.89794922,-84.47949982,2022-12-05 05:53:35
Target,5950 State Bridge Rd,,Duluth,GA,30097-6438,US,34.01461792,-84.18835449,2022-12-05 05:53:35
Target,3205 Woodward Crossing Blvd,Ste B,Buford,GA,30519-4938,US,34.07003021,-83.98181915,2022-12-05 05:53:35
Target,4125 Austell Rd,,Austell,GA,30106-1836,US,33.85207748,-84.60247803,2022-12-05 05:53:35
Target,1401 Johnson Ferry Rd,,Marietta,GA,30062-6495,US,33.98500061,-84.42961121,2022-12-05 05:53:35
Target,6000 N Point Pkwy,,Alpharetta,GA,30022-3006,US,34.0462532,-84.28699493,2022-12-05 05:53:35
Target,4160 Town Center Rd,,Sherman,TX,75092-2567,US,33.68050766,-96.61222076,2022-12-05 05:53:37
Target,4317 Kemp Blvd,,Wichita Falls,TX,76308-3717,US,33.86479187,-98.53387451,2022-12-05 05:53:37
Target,1 N Galleria Dr,Ste 140,Middletown,NY,10941-3029,US,41.45228577,-74.3690567,2022-12-05 05:53:35
Target,50 Route 17K,,Newburgh,NY,12550-3918,US,41.5052948,-74.05821228,2022-12-05 05:53:35
Target,2001 South Rd,,Poughkeepsie,NY,12601-5978,US,41.62621689,-73.91927338,2022-12-05 05:53:35
Target,128 Bailey Farm Rd,,Monroe,NY,10950-4949,US,41.31785202,-74.15329742,2022-12-05 05:53:35
Target,1300 Ulster Ave,,Kingston,NY,12401-1501,US,41.96824646,-73.98555756,2022-12-05 05:53:35
Target,94 State Rt 23,,Riverdale,NJ,07457-1208,US,40.98976135,-74.32583618,2022-12-05 05:53:35
Target,381 Mount Hope Ave,,Rockaway,NJ,07866-1645,US,40.90600967,-74.55937195,2022-12-05 05:53:35
Target,1157 Route 46,,Parsippany,NJ,07054-2179,US,40.86174011,-74.38808441,2022-12-05 05:53:35
Target,130 State Route 10,Ste 1,East Hanover,NJ,07936-2103,US,40.81315231,-74.38054657,2022-12-05 05:53:35
Target,68 US Highway 46 W,,Hackettstown,NJ,07840-4978,US,40.8465004,-74.8082962,2022-12-05 05:53:37
Target,202 Siemers Dr,,Cape Girardeau,MO,63701-8419,US,37.29921341,-89.58019257,2022-12-05 05:53:37
Target,"333 N Main St, STE 10",,West Hartford,CT,06117-2506,US,41.78397751,-72.74822998,2022-12-05 05:53:35
Target,125 Buckland Hills Dr,,Manchester,CT,06042-8701,US,41.8101387,-72.55002594,2022-12-05 05:53:35
Target,1075 Kennedy Rd,,Windsor,CT,06095-1308,US,41.89120865,-72.65209961,2022-12-05 05:53:35
Target,900 Hartford Tpke,,Waterford,CT,06385-4246,US,41.37721252,-72.1503067,2022-12-05 05:53:35
Target,4037 Durham Chapel Hill Blvd,,Durham,NC,27707-2516,US,35.96646118,-78.95944977,2022-12-05 05:53:35
Target,"143 W Franklin St, Ste 120",,Chapel Hill,NC,27516-2539,US,35.91217422,-79.05712891,2022-12-05 05:53:35
Target,8210 Renaissance Pkwy,,Durham,NC,27713-6688,US,35.90325546,-78.95640564,2022-12-05 05:53:35
Target,7129 O'Kelly Chapel Road,,Cary,NC,27519-6849,US,35.84477234,-78.88530731,2022-12-05 05:53:35
Target,8651 Brier Creek Pkwy,,Raleigh,NC,27617-7325,US,35.9028511,-78.78579712,2022-12-05 05:53:35
Target,3001 Market Center Dr,,Morrisville,NC,27560-7505,US,35.80540085,-78.81613159,2022-12-05 05:53:35
Target,4841 Grove Barton Rd,,Raleigh,NC,27613-1900,US,35.87047195,-78.71946716,2022-12-05 05:53:35
Target,1201 Beaver Creek Commons Dr,,Apex,NC,27502-3922,US,35.74492264,-78.87719727,2022-12-05 05:53:35
Target,8701 Six Forks Rd,,Raleigh,NC,27615-2968,US,35.89838791,-78.65123749,2022-12-05 05:53:35
Target,2021 Walnut St,,Cary,NC,27518-9205,US,35.75806046,-78.73840332,2022-12-05 05:53:35
Target,4191 The Circle at North Hills St,,Raleigh,NC,27609-5712,US,35.83629227,-78.64260864,2022-12-05 05:53:35
Target,2512 Hillsborough St,,Raleigh,NC,27607-7249,US,35.78820419,-78.6687851,2022-12-05 05:53:35
Target,12000 Retail Dr,,Wake Forest,NC,27587-7353,US,35.97434998,-78.54142761,2022-12-05 05:53:35
Target,100 Grand Hill Place,,Holly Springs,NC,27540-4416,US,35.66057968,-78.85137939,2022-12-05 05:53:35
Target,7900 Old Wake Forest Rd,,Raleigh,NC,27616-3319,US,35.86584854,-78.56798553,2022-12-05 05:53:35
Target,2700 Timber Dr,,Garner,NC,27529-2591,US,35.71593857,-78.63822937,2022-12-05 05:53:35
Target,1000 Shoppes at Midway Dr,,Knightdale,NC,27545-7313,US,35.79819107,-78.50921631,2022-12-05 05:53:35
Target,1040 Timber Dr E,,Garner,NC,27529-6913,US,35.68756866,-78.57920074,2022-12-05 05:53:35
Target,2056 Skibo Rd,,Fayetteville,NC,28314-2245,US,35.05471039,-78.97468567,2022-12-05 05:53:37
Target,4103 Pecanland Mall Dr,,Monroe,LA,71203-7009,US,32.49982834,-92.07068634,2022-12-05 05:53:37
Target,2206 Memorial Dr,,Alexandria,LA,71301-3611,US,31.28031731,-92.45882416,2022-12-05 05:53:35
Target,7110 Youree Dr,,Shreveport,LA,71105-5107,US,32.43955612,-93.71963501,2022-12-05 05:53:35
Target,1631 Ring Rd,,Elizabethtown,KY,42701-5470,US,37.72842789,-85.88034058,2022-12-05 05:53:39
Target,160 American Ave,,Bowling Green,KY,42104-6378,US,36.94929123,-86.43624878,2022-12-05 05:53:35
Target,7311 Jefferson Blvd,,Louisville,KY,40219-6178,US,38.14568329,-85.67264557,2022-12-05 05:53:36
Target,3600 Mall Rd,,Louisville,KY,40218-5403,US,38.19832993,-85.67046356,2022-12-05 05:53:36
Target,2209 State St,,New Albany,IN,47150-4924,US,38.30550766,-85.84162903,2022-12-05 05:53:36
Target,1238 Putty Hill Ave,,Towson,MD,21286-5844,US,39.39473724,-76.58221436,2022-12-05 05:53:36
Target,3559 Boston Street,,Baltimore,MD,21224-5750,US,39.27528381,-76.56594849,2022-12-05 05:53:36
Target,1330 Martin Blvd,,Middle River,MD,21220-4104,US,39.33469772,-76.44805908,2022-12-05 05:53:37
Target,5230 Campbell Blvd,,Nottingham,MD,21236-4983,US,39.37062073,-76.45149994,2022-12-05 05:53:37
Target,9901 York Rd,,Cockeysville,MD,21030-3407,US,39.46184921,-76.63410187,2022-12-05 05:53:36
Target,6717 Ritchie Hwy,,Glen Burnie,MD,21061-2318,US,39.18998718,-76.61058807,2022-12-05 05:53:35
Target,403 Constant Friendship Blvd,,Abingdon,MD,21009-2566,US,39.46023178,-76.31630707,2022-12-05 05:53:37
Target,7951 Nolpark Ct,,Glen Burnie,MD,21061-5205,US,39.13306808,-76.63459778,2022-12-05 05:53:35
Target,580 Marketplace Dr,,Bel Air,MD,21014-4310,US,39.52511215,-76.3504715,2022-12-05 05:53:37
Target,3343 Corridor Marketplace,,Laurel,MD,20724-2378,US,39.09699249,-76.80966187,2022-12-05 05:53:35
Target,2384 BRANDERMILL BLVD,,Gambrills,MD,21054-1850,US,39.03409958,-76.68399811,2022-12-05 05:53:35
Target,1025 Middleton Rd,,Aberdeen,MD,21001-2263,US,39.5210762,-76.17799377,2022-12-05 05:53:37
Target,1911 Towne Centre Blvd,,Annapolis,MD,21401-3020,US,38.97988129,-76.54103851,2022-12-05 05:53:35
Target,200 Kent Landing,,Stevensville,MD,21666-2582,US,38.97651291,-76.31951141,2022-12-05 05:53:37
Target,4600 Mitchellville Rd,,Bowie,MD,20716-3110,US,38.95232773,-76.72232056,2022-12-05 05:53:35
Target,6100 Greenbelt Rd,,Greenbelt,MD,20770-4063,US,38.99865341,-76.90670776,2022-12-05 05:53:35
Target,10401 Martin Luther King Jr Hwy,,Bowie,MD,20720-4201,US,38.95391846,-76.82462311,2022-12-05 05:53:35
Target,7501 Baltimore Ave,STE 1,College Park,MD,20740-3651,US,38.98225021,-76.93761444,2022-12-05 05:53:35
Target,3500 East West Hwy Ste 1200,,Hyattsville,MD,20782-5003,US,38.9680748,-76.95545197,2022-12-05 05:53:35
Target,10500 Campus Way S,,Upper Marlboro,MD,20774-1309,US,38.89615631,-76.82675934,2022-12-05 05:53:35
Target,1515 New York Ave NE,,Washington,DC,20002-1744,US,38.91648483,-76.98178864,2022-12-05 05:53:35
Target,750 S Randall Rd,,Algonquin,IL,60102-5915,US,42.16210175,-88.33879852,2022-12-05 05:53:35
Target,5580 Northwest Hwy,,Crystal Lake,IL,60014-8016,US,42.22864914,-88.30496979,2022-12-05 05:53:35
Target,300 S Randall Rd,,Elgin,IL,60123-5525,US,42.02565765,-88.34149933,2022-12-05 05:53:37
Target,530 Randall Rd,,South Elgin,IL,60177-3315,US,41.97573471,-88.34317017,2022-12-05 05:53:37
Target,115 N Randall Rd,,Batavia,IL,60510-9209,US,41.85197449,-88.3421402,2022-12-05 05:53:36
Target,1800 Orchard Gateway Blvd,,North Aurora,IL,60542-6500,US,41.7975769,-88.36463165,2022-12-05 05:53:36
Target,1652 N Beecher Rd,,Yorkville,IL,60560-5602,US,41.66281128,-88.4645462,2022-12-05 05:53:36
Target,3885 E Main St,,St Charles,IL,60174-2400,US,41.91879654,-88.26373291,2022-12-05 05:53:37
Target,2800 N Sutton Rd,,HoffMan Estates,IL,60192-3717,US,42.07372284,-88.19304657,2022-12-05 05:53:37
Target,1001 Sutton Rd,,Streamwood,IL,60107-2332,US,42.01730347,-88.20091248,2022-12-05 05:53:37
Target,555 S Rand Rd,,Lake Zurich,IL,60047-2356,US,42.18705368,-88.10444641,2022-12-05 05:53:37
Target,2621 W Schaumburg Rd,,Schaumburg,IL,60194-3894,US,42.02323914,-88.14550018,2022-12-05 05:53:37
Target,1250 W Sunset Dr,,Waukesha,WI,53189-8423,US,42.98973846,-88.25920105,2022-12-05 05:53:35
Target,3020 Route 34,,Oswego,IL,60543-8333,US,41.69696045,-88.31602478,2022-12-05 05:53:36
Target,2171 S 25th E,,Idaho Falls,ID,83406-5712,US,43.47806549,-111.98320007,2022-12-05 05:53:43
Target,510 S Hwy 89,,Jackson,WY,83001,US,43.46962738,-110.789505,2022-12-05 05:53:43
Target,14065 Abercorn St,,Savannah,GA,31419-1964,US,31.98404121,-81.17514801,2022-12-05 05:53:41
Target,1907 E Victory Dr,,Savannah,GA,31404-3714,US,32.0409317,-81.06829834,2022-12-05 05:53:41
Target,1050 Fording Island Rd,,Bluffton,SC,29910-6500,US,32.25506973,-80.85024261,2022-12-05 05:53:41
Target,235 Robert C Daniel Jr Pkwy,,Augusta,GA,30909-0800,US,33.48999786,-82.08129883,2022-12-05 05:53:39
Target,2545 Whiskey Rd,,Aiken,SC,29803-8521,US,33.5041275,-81.71112823,2022-12-05 05:53:40
Target,4223 Washington Rd,,Evans,GA,30809-3069,US,33.5271759,-82.11865234,2022-12-05 05:53:39
Target,1650 S Milton Rd,,Flagstaff,AZ,86001-0802,US,35.18383789,-111.66001129,2022-12-05 05:53:40
Target,6636 N 73rd Plz,,Omaha,NE,68122-1803,US,41.31874466,-96.0269165,2022-12-05 05:53:39
Target,16959 Evans Plaza,,Omaha,NE,68116-2388,US,41.2896843,-96.17938995,2022-12-05 05:53:39
Target,4001 N 132nd St,,Omaha,NE,68164-1839,US,41.29442978,-96.11679077,2022-12-05 05:53:39
Target,7200 Dodge St,,Omaha,NE,68114-3673,US,41.26087189,-96.025383,2022-12-05 05:53:39
Target,17810 W Center Rd,,Omaha,NE,68130-2308,US,41.23596573,-96.19393921,2022-12-05 05:53:39
Target,12500 K Plaza,,Omaha,NE,68137-2207,US,41.21429825,-96.10868835,2022-12-05 05:53:39
Target,3804 Metro Dr,,Council Bluffs,IA,51501-7732,US,41.2207222,-95.838974,2022-12-05 05:53:39
Target,718 N Washington St,,Papillion,NE,68046-3910,US,41.16553116,-96.04468536,2022-12-05 05:53:39
Target,3808 Twin Creek Dr,,Bellevue,NE,68123-4163,US,41.14208221,-95.9703064,2022-12-05 05:53:39
Target,2331 Route 66,,Ocean,NJ,07712-3961,US,40.23093033,-74.04450226,2022-12-04 14:03:42
Target,2105 Route 35,,Middletown,NJ,07748-1301,US,40.4115448,-74.13542938,2022-12-05 05:53:41
Target,55 US Hwy 9,,Manalapan,NJ,07726-3018,US,40.29135895,-74.30170441,2022-12-05 05:53:42
Target,4955 US Highway 9,,Howell,NJ,07731-3750,US,40.13187408,-74.22003937,2022-12-04 14:03:42
Target,570 Route 70,,Brick,NJ,08723-4014,US,40.058815,-74.15032959,2022-12-04 14:03:42
Target,2900 Veterans Rd W,,Staten Island,NY,10309-2500,US,40.52885818,-74.23189545,2022-12-05 05:53:41
Target,8973-95 Bay Pkwy,,Brooklyn,NY,11214-6414,US,40.59361649,-74.00119019,2022-12-05 05:53:35
Target,2873 Richmond Ave,,Staten Island,NY,10314-5811,US,40.57468414,-74.16763306,2022-12-05 05:53:35
Target,1715 E. 13th St,,Brooklyn,NY,11229-2086,US,40.60859299,-73.95847321,2022-12-05 05:53:35
Target,1331 Hooper Ave,,Toms River,NJ,08753-2822,US,39.98773575,-74.1752243,2022-12-04 14:03:42
Target,6401 18th Ave,,Brooklyn,NY,11204-3730,US,40.61957169,-73.98971558,2022-12-05 05:53:35
Target,400 Ryders Ln,,Milltown,NJ,08850-1700,US,40.44132233,-74.4258194,2022-12-05 05:53:38
Target,1598 Flatbush Ave,,Brooklyn,NY,11210-3036,US,40.63153839,-73.94664001,2022-12-05 05:53:35
Target,1520 Forest Ave,,Staten Island,NY,10302-2225,US,40.62374115,-74.13957214,2022-12-05 05:53:35
Target,"5200 Kings Hwy, Ste A",,Brooklyn,NY,11234-1130,US,40.63628769,-73.92766571,2022-12-05 05:53:35
Target,100 Parsonage Rd,,Edison,NJ,08837-2424,US,40.55146027,-74.33270264,2022-12-05 05:53:40
Target,621 W Edgar Rd,,Linden,NJ,07036-3203,US,40.6192131,-74.24433136,2022-12-05 05:53:35
Target,519 Gateway Dr,,Brooklyn,NY,11239-2801,US,40.65246201,-73.87026978,2022-12-05 05:53:35
Target,139 Flatbush Ave,,Brooklyn,NY,11217-1403,US,40.6844902,-73.97747803,2022-12-05 05:53:35
Target,70 Princeton Hightstown Rd,,East Windsor,NJ,08520-1933,US,40.27687073,-74.54094696,2022-12-05 05:53:38
Target,101 Grand Ave,,North Brunswick,NJ,08902-1056,US,40.43581772,-74.50482941,2022-12-05 05:53:38
Target,345 Rockaway Tpke,,Lawrence,NY,11559-1048,US,40.62656403,-73.73859406,2022-12-05 05:53:35
Target,445 Albee Square West,,BROOKLYN,NY,11201-3016,US,40.69060135,-73.98300171,2022-12-05 05:53:35
Target,45 Central Ave,,Clark,NJ,07066-1421,US,40.62738037,-74.30796051,2022-12-05 05:53:37
Target,5000 Hadley Center Dr,,South Plainfield,NJ,07080-1135,US,40.54882431,-74.42646027,2022-12-05 05:53:38
Target,255 Greenwich St,,New York,NY,10007-2377,US,40.71469879,-74.01119995,2022-12-05 05:53:35
Target,4196 US Highway 1,,Monmouth Junction,NJ,08852-1904,US,40.3815155,-74.57591248,2022-12-05 05:53:38
Target,500 W Sunrise Hwy,,Valley Stream,NY,11581-1001,US,40.66424942,-73.7201004,2022-12-05 05:53:35
Target,14302 FM 2920 Rd,,Tomball,TX,77377-5504,US,30.09161568,-95.63973236,2022-12-05 05:53:36
Target,4165 Washington St,,Roslindale,MA,02131-1733,US,42.28829575,-71.12674713,2022-12-05 05:53:35
Target,221 University Ave,,Westwood,MA,02090-2333,US,42.20449829,-71.15529633,2022-12-05 05:53:35
Target,500 Geneva Ave,,Dorchester,MA,02122-1321,US,42.29924011,-71.06275177,2022-12-05 05:53:35
Target,289 Hancock St,,Quincy,MA,02171,US,42.27540207,-71.02929688,2022-12-05 05:53:35
Target,250 Granite St,Ste 121,Braintree,MA,02184-2813,US,42.22142029,-71.02184296,2022-12-05 05:53:38
Target,7 Allstate Rd,,Dorchester,MA,02125-1663,US,42.32887268,-71.06284332,2022-12-05 05:53:35
Target,1341 BOYLSTON ST,,Boston,MA,02215-3936,US,42.34417343,-71.09996033,2022-12-05 05:53:35
Target,860 COMMONWEALTH AVE,,Boston,MA,02215-1205,US,42.35067749,-71.1140213,2022-12-05 05:53:35
Target,550 Arsenal St,,Watertown,MA,02472-2853,US,42.3641777,-71.15646362,2022-12-05 05:53:35
Target,1 Hawes Way,,Stoughton,MA,02072-1162,US,42.1523819,-71.07353973,2022-12-05 05:53:35
Target,564 Massachusetts Ave,,Cambridge,MA,02139-4029,US,42.36455917,-71.10257721,2022-12-05 05:53:35
Target,"100 Cambridge St, Ste 2",,Boston,MA,02114-2532,US,42.36104584,-71.06259918,2022-12-05 05:53:35
Target,180 Somerville Ave,,Somerville,MA,02143-3405,US,42.37669373,-71.09002686,2022-12-05 05:53:35
Target,822 Somerville Ave,,Cambridge,MA,02140,US,42.38864899,-71.11865997,2022-12-05 05:53:35
Target,1 Mystic View Rd,,Everett,MA,02149-2428,US,42.39903641,-71.07185364,2022-12-05 05:53:35
Target,471 Salem St,,Medford,MA,02155-3336,US,42.42071915,-71.09902191,2022-12-05 05:53:35
Target,36 Furlong Dr,,Revere,MA,02151-4006,US,42.3997612,-71.00032806,2022-12-05 05:53:35
Target,400 Cochituate Rd,,Framingham,MA,01701-4655,US,42.30532837,-71.39838409,2022-12-05 05:53:35
Target,385 Centre Ave,,Abington,MA,02351-2209,US,42.11051941,-70.92768097,2022-12-05 05:53:38
Target,41 Robert Dr,,South Easton,MA,02375-1352,US,42.02714157,-71.14379883,2022-12-05 05:53:35
Target,34 Cambridge St. STE 145,,Burlington,MA,01803-4611,US,42.48410416,-71.18618774,2022-12-05 05:53:35
Target,400 Lynn Fells Pkwy,,Saugus,MA,01906-3100,US,42.48158264,-71.02415466,2022-12-05 05:53:35
Target,113 Main St,,Stoneham,MA,02180-3305,US,42.49493027,-71.10340118,2022-12-05 05:53:35
Target,1167 Washington St,,Hanover,MA,02339-1643,US,42.13740158,-70.83882904,2022-12-05 05:53:38
Target,91 Taunton St,,Plainville,MA,02762-1207,US,42.03371429,-71.31057739,2022-12-05 05:53:35
Target,101 Commerce Way,,Woburn,MA,01801-1007,US,42.51860809,-71.1354599,2022-12-05 05:53:35
Target,250 Fortune Blvd,,Milford,MA,01757-1743,US,42.16082764,-71.49887085,2022-12-05 05:53:35
Target,227 Highland Ave,,Salem,MA,01970-1830,US,42.50346756,-70.91941833,2022-12-05 05:53:38
Target,605 Boston Post Rd E,,Marlborough,MA,01752-3702,US,42.34874725,-71.50496674,2022-12-05 05:53:35
Target,240 Independence Way,,Danvers,MA,01923-3653,US,42.55261612,-70.93761444,2022-12-05 05:53:35
Target,3702 Ranch Rd 620 S,,Bee Cave,TX,78738-6304,US,30.31695557,-97.95437622,2022-12-05 05:53:38
Target,1101 C-Bar Ranch Trl Lot #2,,Cedar Park,TX,78613-7595,US,30.52831841,-97.81333923,2022-12-05 05:53:39
Target,11220 FM 2222,,Austin,TX,78730-1001,US,30.40210915,-97.85022736,2022-12-05 05:53:38
Target,10900 Lakeline Mall Dr,,Austin,TX,78717-5924,US,30.47615051,-97.79640198,2022-12-05 05:53:38
Target,1021 W University Ste B3,,Georgetown,TX,78628-5339,US,30.63151169,-97.69812012,2022-12-05 05:53:36
Target,10107 Research Blvd,,Austin,TX,78759-5803,US,30.39267921,-97.74466705,2022-12-05 05:53:38
Target,5300 S Mo Pac Expy,,Austin,TX,78749-1112,US,30.2336998,-97.82849884,2022-12-05 05:53:38
Target,121 Louis Henna Blvd,,Round Rock,TX,78664-7307,US,30.47909927,-97.66940308,2022-12-05 05:53:39
Target,8601 Research Blvd,,Austin,TX,78758-7121,US,30.36231422,-97.71578217,2022-12-05 05:53:38
Target,2300 W Ben White Blvd,,Austin,TX,78704-7525,US,30.2333622,-97.79210663,2022-12-05 05:53:38
Target,"2025 Guadalupe St, STE 01-100",,Austin,TX,78705-5654,US,30.28360558,-97.74163818,2022-12-05 05:53:38
Target,5621 N I H 35,,Austin,TX,78723-2431,US,30.31605721,-97.70675659,2022-12-05 05:53:38
Target,901 E. 5th St Ste 140,,Austin,TX,78702-4075,US,30.26407623,-97.73419952,2022-12-05 05:53:38
Target,9500 S IH 35,Ste G,Austin,TX,78748-1753,US,30.16259193,-97.79357147,2022-12-05 05:53:38
Target,18700 Limestone Commercial Dr,Ste 100,Pflugerville,TX,78660-6545,US,30.46737099,-97.59812164,2022-12-05 05:53:36
Target,201 E Central Texas Expy,Ste 300,Harker Heights,TX,76548-2747,US,31.07393646,-97.66252899,2022-12-05 05:53:36
Target,5188 Kyle Center Dr,,Kyle,TX,78640-6137,US,30.01169205,-97.86436462,2022-12-05 05:53:38
Target,"101 Concho St, Ste 200",,San Marcos,TX,78666-5701,US,29.8861866,-97.9414444,2022-12-05 05:53:38
Target,700 Barnes Dr,,San Marcos,TX,78666-6187,US,29.84642601,-97.97029877,2022-12-05 05:53:38
Target,135 Creekside Way,,New Braunfels,TX,78130-6248,US,29.73089027,-98.07344055,2022-12-05 05:53:37
Target,3550 S General Bruce Dr,Bldg A100,Temple,TX,76504-5133,US,31.09259987,-97.38549805,2022-12-05 05:53:36
Target,22832 US Highway 281 N,,San Antonio,TX,78258-7430,US,29.65331078,-98.44499969,2022-12-05 05:53:37
Target,18255 Blanco Rd,,San Antonio,TX,78258-4585,US,29.61183357,-98.51013947,2022-12-05 05:53:37
Target,17502 La Cantera Pkwy,,San Antonio,TX,78257-8202,US,29.60647583,-98.597435,2022-12-05 05:53:37
Target,8234 Agora Pkwy,,Selma,TX,78154-1304,US,29.56899643,-98.32709503,2022-12-05 05:53:37
Target,13700 San Pedro Ave,,San Antonio,TX,78232-4332,US,29.56513405,-98.47988892,2022-12-05 05:53:37
Target,11311 Bandera Rd,,San Antonio,TX,78250-6812,US,29.54784203,-98.66396332,2022-12-05 05:53:37
Target,746 NW Loop 410,,San Antonio,TX,78216-5609,US,29.51705551,-98.50448608,2022-12-05 05:53:37
Target,4522 Fredericksburg Rd,,Balcones Heights,TX,78201-6521,US,29.49454498,-98.55149841,2022-12-05 05:53:37
Target,1223 Austin Hwy,,San Antonio,TX,78209-4854,US,29.4888134,-98.44728088,2022-12-05 05:53:37
Target,2625 Peachtree Pkwy,,Suwanee,GA,30024-1048,US,34.09708023,-84.17318726,2022-12-05 05:53:35
Target,13055 Highway 9 N,,Milton,GA,30004-5137,US,34.09944534,-84.26922607,2022-12-05 05:53:35
Target,1135 Woodstock Rd,,Roswell,GA,30075-2231,US,34.06384659,-84.3980484,2022-12-05 05:53:35
Target,1525 Market Place Blvd,,Cumming,GA,30041-7935,US,34.18569946,-84.13411713,2022-12-05 05:53:35
Target,3040 Shallowford Rd,,Marietta,GA,30062-1252,US,34.03520966,-84.46092224,2022-12-05 05:53:35
Target,5865 Spout Springs Rd,,Flowery Branch,GA,30542-3448,US,34.17872238,-83.9112854,2022-12-05 05:53:35
Target,740 Ernest W Barrett Pkwy NW,,Kennesaw,GA,30144-6860,US,34.00904846,-84.57322693,2022-12-05 05:53:35
Target,140 Woodstock Square Ave,,Woodstock,GA,30189-6500,US,34.08576584,-84.54593658,2022-12-05 05:53:35
Target,2535 Dallas Hwy SW,,Marietta,GA,30064-2543,US,33.94488525,-84.62663269,2022-12-05 05:53:35
Target,1235 E Higgins Rd,,Schaumburg,IL,60173-4939,US,42.03797913,-88.04878998,2022-12-05 05:53:37
Target,175 W Army Trail Rd,,Glendale Heights,IL,60139-1971,US,41.93746567,-88.09886169,2022-12-05 05:53:37
Target,679 E Dundee Rd,,Palatine,IL,60074-2817,US,42.13751221,-88.02742004,2022-12-05 05:53:37
Target,601 S County Farm Rd,,Wheaton,IL,60187-4529,US,41.85933685,-88.1401062,2022-12-05 05:53:36
Target,401 W Irving Park Rd,,Wood Dale,IL,60191-1338,US,41.96702957,-87.99243927,2022-12-05 05:53:37
Target,1700 E Rand Rd,,Arlington Heights,IL,60004-4379,US,42.10226822,-87.96266174,2022-12-05 05:53:37
Target,50 E North Ave,,Villa Park,IL,60181-1244,US,41.90698242,-87.97710419,2022-12-05 05:53:38
Target,28201 Diehl Rd,,Warrenville,IL,60555-3934,US,41.800457,-88.17015076,2022-12-05 05:53:36
Target,1400 E Lake Cook Rd,,Wheeling,IL,60090-2239,US,42.15456009,-87.95096588,2022-12-05 05:53:37
Target,60 Yorktown Shopping Ctr,,Lombard,IL,60148-5529,US,41.84449387,-88.00308228,2022-12-05 05:53:36
Target,1951 W Jefferson Ave,,Naperville,IL,60540-3914,US,41.77160645,-88.20378113,2022-12-05 05:53:36
Target,3100 W IL Route 60,,Mundelein,IL,60060-4267,US,42.28387833,-88.04470062,2022-12-05 05:53:35
Target,313 E Townline Rd,,Vernon Hills,IL,60061-1555,US,42.23920822,-87.95722961,2022-12-05 05:53:37
Target,2333 63rd St,,Woodridge,IL,60517-1300,US,41.77084732,-88.03870392,2022-12-05 05:53:36
Target,130 S Mannheim Rd,,Hillside,IL,60162-1821,US,41.86793518,-87.88726044,2022-12-05 05:53:36
Target,333 N 48th St,,Lincoln,NE,68504-3505,US,40.81608582,-96.65490723,2022-12-05 05:53:39
Target,5330 S 56th St,,Lincoln,NE,68516-1833,US,40.75950623,-96.64129639,2022-12-05 05:53:39
Target,8201 S 40th St,,Lincoln,NE,68516-3005,US,40.72842026,-96.6652832,2022-12-05 05:53:39
Target,1400A Tamiami Trl,,Port Charlotte,FL,33948-1004,US,27.0134964,-82.14273071,2022-12-05 05:53:37
Target,4271 Tamiami Trl S,,Venice,FL,34293-5131,US,27.05184555,-82.39068604,2022-12-05 05:53:37
Target,8401 S Tamiami Trl,,Sarasota,FL,34238-2927,US,27.22813225,-82.4921875,2022-12-05 05:53:37
Target,5350 Fruitville Rd,,Sarasota,FL,34232-6401,US,27.33661652,-82.46221924,2022-12-05 05:53:38
Target,101 N Cattlemen Rd,,Sarasota,FL,34243-4700,US,27.38717079,-82.45798492,2022-12-05 05:53:38
Target,1890 NE Pine Island Rd,,Cape Coral,FL,33909-1733,US,26.6696949,-81.93279266,2022-12-05 05:53:37
Target,6150 14th St W,,Bradenton,FL,34207-4622,US,27.4326458,-82.57790375,2022-12-05 05:53:38
Target,2430 Santa Barbara Blvd,,Cape Coral,FL,33914-4485,US,26.60653877,-81.97670746,2022-12-05 05:53:37
Target,9350 Dynasty Dr,,Fort Myers,FL,33905-5574,US,26.61514854,-81.80119324,2022-12-05 05:53:37
Target,15880 San Carlos Blvd,Ste 101,Fort Myers,FL,33908-3378,US,26.51036453,-81.94562531,2022-12-05 05:53:37
Target,13711 S Tamiami Trl,,Fort Myers,FL,33912-1649,US,26.54251862,-81.86869812,2022-12-05 05:53:37
Target,10000 Gulf Center Dr,,Fort Myers,FL,33913-8961,US,26.48358917,-81.78649902,2022-12-05 05:53:37
Target,8040 Mediterranean Dr,,Estero,FL,33928-8304,US,26.40625572,-81.8061676,2022-12-05 05:53:37
Target,10150 Bloomingdale Ave,,Riverview,FL,33578-3612,US,27.89536095,-82.33308411,2022-12-05 05:53:38
Target,8151 Dr Martin Luther King St N,,Saint Petersburg,FL,33702-4111,US,27.84610558,-82.64412689,2022-12-05 05:53:38
Target,3625 W Gandy Blvd,,Tampa,FL,33611-2607,US,27.8946743,-82.50457001,2022-12-05 05:53:38
Target,7150 US 19 N,,Pinellas Park,FL,33781-4600,US,27.83684158,-82.68469238,2022-12-05 05:53:38
Target,4450 Park St N,,Saint Petersburg,FL,33709-4020,US,27.81270027,-82.75576019,2022-12-05 05:53:38
Target,187 Brandon Town Center Dr,,Brandon,FL,33511-4754,US,27.93641663,-82.32370758,2022-12-05 05:53:38
Target,2415 Tarpon Bay Blvd,,Naples,FL,34119-8764,US,26.2706871,-81.74046326,2022-12-05 05:53:37
Target,1544 N Dale Mabry Hwy,,Tampa,FL,33607-2551,US,27.95704269,-82.50830841,2022-12-05 05:53:38
Target,2324 Pine Ridge Rd,,Naples,FL,34109-2006,US,26.20913887,-81.77068329,2022-12-05 05:53:37
Target,10500 Ulmerton Rd,,Largo,FL,33771-3544,US,27.89265251,-82.78499603,2022-12-05 05:53:39
Target,3570 Harden Blvd,,Lakeland,FL,33803-5928,US,28.00016785,-81.97293854,2022-12-05 05:53:38
Target,2747 Gulf To Bay Blvd,,Clearwater,FL,33759-3945,US,27.95817947,-82.72450256,2022-12-05 05:53:39
Target,6295 W Waters Ave,,Tampa,FL,33634-1100,US,28.02779007,-82.54837036,2022-12-05 05:53:39
Target,11627 W Hillsborough Ave,,Tampa,FL,33635-9736,US,28.01583862,-82.61274719,2022-12-05 05:53:39
Target,13658 University Plaza St,,Tampa,FL,33613-4649,US,28.0718956,-82.42828369,2022-12-05 05:53:39
Target,15240 N Dale Mabry Hwy,,Tampa,FL,33618-1809,US,28.08861351,-82.50497437,2022-12-05 05:53:39
Target,4005 US Highway 98 N,,Lakeland,FL,33809-3815,US,28.09239388,-81.97091675,2022-12-05 05:53:38
Target,1201 County Rd 581,,Wesley Chapel,FL,33544-9261,US,28.17283249,-82.35556793,2022-12-05 05:53:39
Target,1040 Dale Mabry Hwy,,Lutz,FL,33548-3004,US,28.1728878,-82.47032166,2022-12-05 05:53:39
Target,3101 Aerial Way,,Brooksville,FL,34604-0629,US,28.47915268,-82.47932434,2022-12-05 05:53:40
Target,2900 Little Rd,,Trinity,FL,34655-4420,US,28.2014122,-82.66435242,2022-12-05 05:53:40
Target,4401 Commercial Way,,Spring Hill,FL,34606-1914,US,28.49528122,-82.59850311,2022-12-05 05:53:35
Target,5000 Grandview Pkwy,,Davenport,FL,33837-2300,US,28.2328186,-81.64391327,2022-12-05 05:53:38
Target,900 E Lake Rd,,Palm Harbor,FL,34685-2430,US,28.06332588,-82.70755768,2022-12-05 05:53:39
Target,3200 Rolling Oaks Blvd,,Kissimmee,FL,34747-3052,US,28.34416771,-81.61421967,2022-12-05 05:53:38
Target,204 Ruby Red Pl,,Winter Garden,FL,34787,US,28.37956619,-81.61698914,2022-12-05 05:53:38
Target,2660 East Hwy 50,,Clermont,FL,34711-6034,US,28.54930687,-81.7048645,2022-12-05 05:53:38
Target,3343 Daniels Rd,,Winter Garden,FL,34787-7009,US,28.52126122,-81.5848465,2022-12-05 05:53:38
Target,4795 W Irlo Bronson Memorial Hwy,,Kissimmee,FL,34746-5332,US,28.33156013,-81.4713974,2022-12-05 05:53:38
Target,11619 Daryl Carter Pkwy,,Orlando,FL,32821-4000,US,28.3960495,-81.48519135,2022-12-05 05:53:38
Target,2155 Town Center Blvd,,Orlando,FL,32837-6801,US,28.36953926,-81.40720367,2022-12-05 05:53:38
Target,4750 Millenia Plaza Way,,Orlando,FL,32839-2434,US,28.49293137,-81.43016815,2022-12-05 05:53:38
Target,4601 Montgomery Hwy,Ste 300,Dothan,AL,36303-1522,US,31.26649284,-85.44680786,2022-12-05 05:53:37
Target,2640 Enterprise Dr,,Opelika,AL,36801-1511,US,32.61810684,-85.4106369,2022-12-05 05:53:35
Target,2576 Berryhill Rd,,Montgomery,AL,36117-3564,US,32.36030579,-86.16066742,2022-12-05 05:53:35
Target,2754 Legends Pkwy,,Prattville,AL,36066-7748,US,32.45755768,-86.39550781,2022-12-05 05:53:35
Target,3700 Bradfordville Rd,,Tallahassee,FL,32309-1943,US,30.56128883,-84.21553802,2022-12-05 05:53:37
Target,1861 W Tennessee St,,Tallahassee,FL,32304-3356,US,30.44865417,-84.31355286,2022-12-05 05:53:37
Target,2120 Apalachee Pkwy,,Tallahassee,FL,32301-4819,US,30.43251991,-84.24433899,2022-12-05 05:53:35
Target,1892 N. High St,,Columbus,OH,43201-1148,US,40.00101471,-83.00805664,2022-12-05 05:53:36
Target,1717 Olentangy River Rd,,Columbus,OH,43212-1452,US,39.99345779,-83.0269165,2022-12-05 05:53:36
Target,55 Graceland Blvd,,Columbus,OH,43214-7508,US,40.06541824,-83.02075958,2022-12-05 05:53:37
Target,4211 Trueman Blvd,,Hilliard,OH,43026-2480,US,40.03805542,-83.12323761,2022-12-05 05:53:36
Target,4199 Morse Xing,,Columbus,OH,43219-6015,US,40.05612946,-82.92086029,2022-12-05 05:53:37
Target,1970 Hilliard Rome Rd,,Hilliard,OH,43026-7566,US,39.99076462,-83.14945984,2022-12-05 05:53:36
Target,6000 Sawmill Rd,,Dublin,OH,43017-1626,US,40.09020615,-83.08998871,2022-12-05 05:53:37
Target,3955 E Broad St,,Whitehall,OH,43213-1130,US,39.97138214,-82.89573669,2022-12-05 05:53:37
Target,4144 Buckeye Pkwy,,Grove City,OH,43123-8175,US,39.87660599,-83.03746033,2022-12-05 05:53:36
Target,1485 Polaris Pkwy,,Columbus,OH,43240-2041,US,40.13880539,-82.97915649,2022-12-05 05:53:37
Target,10560 Sawmill Pky,,Powell,OH,43065-7699,US,40.143116,-83.09490967,2022-12-05 05:53:37
Target,6030 N. Hamilton Rd,,Westerville,OH,43081-1685,US,40.08148575,-82.84951782,2022-12-05 05:53:37
Target,8100 E Broad St,,Reynoldsburg,OH,43068-8019,US,39.98804855,-82.78536224,2022-12-05 05:53:37
Target,2437 Taylor Park Dr,,Reynoldsburg,OH,43068-8036,US,39.93457794,-82.79279327,2022-12-05 05:53:37
Target,1300 River Valley Blvd,,Lancaster,OH,43130-1649,US,39.73069,-82.62140656,2022-12-05 05:53:35
Target,11750 Commercial Dr,,Fishers,IN,46038-2903,US,39.95929718,-86.00939941,2022-12-05 05:53:36
Target,1600 E 151st Street,,Carmel,IN,46032-5056,US,40.00854111,-86.12833405,2022-12-05 05:53:37
Target,1300 E 86th St Ste 35,,Indianapolis,IN,46240-1990,US,39.91490936,-86.13869476,2022-12-05 05:53:37
Target,6101 N Keystone Ave,Ste 200,Indianapolis,IN,46220-2488,US,39.86640167,-86.1197052,2022-12-05 05:53:36
Target,10401 N Michigan Rd,,Carmel,IN,46032-7939,US,39.93608475,-86.23232269,2022-12-05 05:53:37
Target,6925 W 38th St,,Indianapolis,IN,46254-3905,US,39.82132721,-86.28006744,2022-12-05 05:53:37
Target,10209 E US Highway 36,,Avon,IN,46123-7985,US,39.76087952,-86.34183502,2022-12-05 05:53:37
Target,2673 E Main St,,Plainfield,IN,46168-2710,US,39.71645737,-86.35513306,2022-12-05 05:53:37
Target,3630 South Street,,Lafayette,IN,47905-4807,US,40.41948318,-86.84723663,2022-12-05 05:53:36
Target,"300 W State St, Ste 100",,West Lafayette,IN,47906-3539,US,40.42421341,-86.9083252,2022-12-05 05:53:36
Target,2966 E 3rd St,,Bloomington,IN,47401-5424,US,39.16232681,-86.49394989,2022-12-05 05:53:37
Target,1501 E San Marnan Dr,,Waterloo,IA,50702-4300,US,42.46541977,-92.32720184,2022-12-05 05:53:35
Target,214 Viking Plaza Dr,,Cedar Falls,IA,50613-6936,US,42.48149872,-92.44366455,2022-12-05 05:53:35
Target,3414 8th St SW,,Altoona,IA,50009-1024,US,41.64190292,-93.50462341,2022-12-05 05:53:35
Target,14546 Dellwood Dr N,,Baxter,MN,56425-9744,US,46.36299515,-94.24182892,2022-12-05 05:53:40
Target,2140 S Pokegama Ave,PO Box 5124,Grand Rapids,MN,55744-5124,US,47.20954895,-93.52719879,2022-12-05 05:53:41
Target,2100 Paul Bunyan Dr NW,,Bemidji,MN,56601-5645,US,47.49367905,-94.91056061,2022-12-05 05:53:41
Target,125 Lincoln Ave SE,,Saint Cloud,MN,56304-0823,US,45.56547165,-94.14519501,2022-12-05 05:53:40
Target,4201 W Division St,,Saint Cloud,MN,56301-6601,US,45.55692673,-94.20852661,2022-12-05 05:53:40
Target,4404 Highway 29 S,,Alexandria,MN,56308-2915,US,45.85004425,-95.38993073,2022-12-05 05:53:40
Target,215 Balsam St N,,Cambridge,MN,55008-5814,US,45.57424545,-93.20022583,2022-12-05 05:53:39
Target,1902 Miller Trunk Hwy,,Duluth,MN,55811-1810,US,46.80839157,-92.16744995,2022-12-04 18:43:15
Target,1001 13th St S,,Virginia,MN,55792-3254,US,47.51080704,-92.54975891,2022-12-04 18:43:15
Target,1447 E 7th St,,Monticello,MN,55362-4666,US,45.2934761,-93.77281189,2022-12-05 05:53:40
Target,15800 87th St NE,,Otsego,MN,55330-6546,US,45.27823257,-93.56349182,2022-12-05 05:53:40
Target,1401 Frontage Rd,,Scottsbluff,NE,69361-2773,US,41.87003708,-103.64312744,2022-12-05 05:53:42
Target,275 S River Rd,,Saint George,UT,84790-2116,US,37.10298538,-113.55446625,2022-12-04 18:43:16
Target,250 E Lancaster Ave,,Wynnewood,PA,19096-2126,US,40.0032196,-75.28307343,2022-12-05 05:53:38
Target,7162 Ridge Ave,,Philadelphia,PA,19128-3250,US,40.04442978,-75.23273468,2022-12-05 05:53:38
Target,4000 Monument Rd,,Philadelphia,PA,19131-1600,US,40.00608444,-75.21214294,2022-12-05 05:53:38
Target,857 Baltimore Pike,,Springfield,PA,19064-3963,US,39.91552734,-75.33449554,2022-12-05 05:53:38
Target,704 W Lancaster Ave,,Wayne,PA,19087-2560,US,40.04538727,-75.40843201,2022-12-05 05:53:38
Target,1200 Baltimore Pike,,Springfield,PA,19064-2701,US,39.91490173,-75.35076141,2022-12-05 05:53:38
Target,2250 Chemical Rd,,Plymouth Meeting,PA,19462-1716,US,40.1048584,-75.29608154,2022-12-05 05:53:38
Target,2001 Pennsylvania Ave,,Philadelphia,PA,19130-3823,US,39.96163177,-75.17269135,2022-12-05 05:53:38
Target,160 W Dekalb Pike,,King of Prussia,PA,19406-2327,US,40.09495163,-75.36552429,2022-12-05 05:53:38
Target,1900 CHESTNUT ST,,Philadelphia,PA,19103-4610,US,39.95178986,-75.17205811,2022-12-05 05:53:38
Target,1128 CHESTNUT ST,,Philadelphia,PA,19107-4802,US,39.95027542,-75.15982056,2022-12-05 05:53:38
Target,1020 Broad St,,Philadelphia,PA,19146-5006,US,39.93835068,-75.16717529,2022-12-05 05:53:38
Target,456 N 5th St,,Philadelphia,PA,19123-4007,US,39.95980835,-75.14784241,2022-12-05 05:53:38
Target,2450 Shoppers Ln,,Wyncote,PA,19095-2960,US,40.0762291,-75.15530396,2022-12-05 05:53:38
Target,1 Mifflin St,,Philadelphia,PA,19148-2017,US,39.9237709,-75.14589691,2022-12-05 05:53:38
Target,2701 Castor Ave,,Philadelphia,PA,19134-5505,US,39.99121475,-75.08974457,2022-12-05 05:53:38
Target,200 Mill Road,,Phoenixville,PA,19460-1183,US,40.13058853,-75.45310211,2022-12-05 05:53:38
Target,455 Carnegie Blvd,,Malvern,PA,19355-8599,US,40.049366,-75.52002716,2022-12-05 05:53:38
Target,1495 Old York Rd,,Abington,PA,19001-1923,US,40.12482071,-75.11615753,2022-12-05 05:53:38
Target,7400 Bustleton Ave,,Philadelphia,PA,19152-4312,US,40.05133438,-75.0586319,2022-12-05 05:53:38
Target,650 W Cuthbert Blvd,,Haddon Township,NJ,08108-3642,US,39.90146255,-75.06298065,2022-12-05 05:53:38
Target,600 Hatton Dr,,Glen Mills,PA,19342-3317,US,39.88077927,-75.52799988,2022-12-05 05:53:37
Target,2137 Route 38,,Cherry Hill,NJ,08002-2045,US,39.93474579,-75.02451324,2022-12-05 05:53:38
Target,125 Witchwood Dr,,North Wales,PA,19454-1833,US,40.22443008,-75.23960114,2022-12-05 05:53:38
Target,1900 Deptford Center Rd,,Deptford,NJ,08096-5624,US,39.82942963,-75.09178162,2022-12-05 05:53:38
Target,11000 Roosevelt Blvd Ste 3,,Philadelphia,PA,19116-3961,US,40.10188293,-75.01084137,2022-12-05 05:53:38
Target,1050 Brandywine Pkwy,,Wilmington,DE,19803-1492,US,39.8306694,-75.54070282,2022-12-05 05:53:37
Target,401 Easton Rd,,Warrington,PA,18976-2457,US,40.22416306,-75.13710022,2022-12-05 05:53:38
Target,201 Sunrise Blvd,,Exton,PA,19341-2336,US,40.03940582,-75.62947083,2022-12-05 05:53:38
Target,1824 E Ridge Pike,,Royersford,PA,19468-2819,US,40.21100998,-75.49797058,2022-12-05 05:53:38
Target,210 Ballardvale St,,Wilmington,MA,01887-1045,US,42.58971786,-71.15989685,2022-12-05 05:53:35
Target,67 Pleasant Valley St,,Methuen,MA,01844-7202,US,42.74078369,-71.16132355,2022-12-05 05:53:35
Target,181 Plain St,,Lowell,MA,01852-5132,US,42.62362289,-71.31830597,2022-12-05 05:53:35
Target,35 Computer Dr,,Haverhill,MA,01832-1236,US,42.78807068,-71.11595917,2022-12-05 05:53:35
Target,203 S Broadway,,Salem,NH,03079-3311,US,42.76447678,-71.21504211,2022-12-05 05:53:35
Target,310 Daniel Webster Hwy,,Nashua,NH,03060-5730,US,42.70277023,-71.43778992,2022-12-05 05:53:35
Target,4601 Commonwealth Centre Pkwy,,Midlothian,VA,23112-2639,US,37.42088699,-77.63417816,2022-12-05 05:53:37
Target,201 Perimeter Dr,,Midlothian,VA,23113-7314,US,37.51177979,-77.69274139,2022-12-05 05:53:37
Target,11301 Midlothian Tpke,,Richmond,VA,23235-4715,US,37.50405121,-77.60510254,2022-12-05 05:53:37
Target,7107 Forest Hill Ave,,Richmond,VA,23225-1501,US,37.53514862,-77.5276413,2022-12-05 05:53:37
Target,5401 W Broad St,,Richmond,VA,23230-2629,US,37.58691788,-77.50079346,2022-12-05 05:53:37
Target,2530 Weir Rd,,Chester,VA,23831-5350,US,37.35028076,-77.41043091,2022-12-05 05:53:36
Target,11290 W Broad St,,Glen Allen,VA,23060-5815,US,37.65192032,-77.60534668,2022-12-05 05:53:37
Target,9001 Staples Mill Rd,,Henrico,VA,23228-2022,US,37.63900757,-77.51135254,2022-12-05 05:53:37
Target,4521 S Laburnum Ave,,Richmond,VA,23231-2421,US,37.5309639,-77.35610962,2022-12-05 05:53:37
Target,10100 Brook Rd,,Glen Allen,VA,23059-6514,US,37.67360687,-77.46260071,2022-12-05 05:53:37
Target,721 Southpark Blvd,,Colonial Heights,VA,23834-3605,US,37.24879074,-77.38639832,2022-12-05 05:53:36
Target,7235 Bell Creek Rd,,Mechanicsville,VA,23111-3541,US,37.60019302,-77.35075378,2022-12-05 05:53:37
Target,4630 Monticello Ave,,Williamsburg,VA,23188-8200,US,37.27136993,-76.76068115,2022-12-05 05:53:36
Target,9785 Patriot Hwy,,Fredericksburg,VA,22407-9406,US,38.22491837,-77.50180054,2022-12-05 05:53:37
Target,200 Marquis Pkwy,,Williamsburg,VA,23185-5371,US,37.25895309,-76.64105225,2022-12-05 05:53:36
Target,1180 Carl D Silver Pkwy,,Fredericksburg,VA,22401-4913,US,38.29985046,-77.51248932,2022-12-05 05:53:37
Target,25 S Gateway Dr,,Fredericksburg,VA,22406-1228,US,38.34479904,-77.49320221,2022-12-05 05:53:37
Target,312 Connor Dr,,Charlottesville,VA,22911-5605,US,38.12850952,-78.44099426,2022-12-05 05:53:37
Target,12130 Jefferson Ave,,Newport News,VA,23602-6908,US,37.10782623,-76.49227142,2022-12-05 05:53:36
Target,1090 Stafford Market Pl,,Stafford,VA,22556-4523,US,38.46874237,-77.40866089,2022-12-05 05:53:37
Target,15341 Montanus Dr,,Culpeper,VA,22701-2523,US,38.48337936,-77.96682739,2022-12-05 05:53:38
Target,5001 Holt Ave,,Hampton,VA,23666-2282,US,37.04244232,-76.39244843,2022-12-05 05:53:36
Target,"4200 Portsmouth Blvd, STE 600",,Chesapeake,VA,23321-2100,US,36.82858658,-76.41442108,2022-12-05 05:53:36
Target,811 Town Center Dr,,Waynesboro,VA,22980-9262,US,38.05630875,-78.94219971,2022-12-05 05:53:38
Target,4310 Fortuna Center Plz,,Dumfries,VA,22025-1538,US,38.59737778,-77.33310699,2022-12-05 05:53:35
Target,60 Shining Willow Way,,La Plata,MD,20646-4224,US,38.54148483,-76.98249054,2022-12-05 05:53:35
Target,45155 First Colony Way,,California,MD,20619-2416,US,38.29768372,-76.51382446,2022-12-05 05:53:37
Target,2460 Prince William Pkwy,,Woodbridge,VA,22192-4148,US,38.65447617,-77.28878784,2022-12-05 05:53:35
Target,1245 N Military Hwy,,Norfolk,VA,23502-2228,US,36.86526871,-76.21229553,2022-12-05 05:53:36
Target,250 New Rd,,Somers Point,NJ,08244-2177,US,39.32512283,-74.59536743,2022-12-05 05:53:38
Target,2100 N 2nd St,,Millville,NJ,08332-1304,US,39.42067337,-75.04096985,2022-12-05 05:53:38
Target,380 Consumer Sq,,Mays Landing,NJ,08330-3326,US,39.45183182,-74.6335907,2022-12-05 05:53:38
Target,148 John Hunn Brown Rd,,Dover,DE,19901-4708,US,39.15934372,-75.51106262,2022-12-05 05:53:37
Target,4001 Black Horse Pike,,Turnersville,NJ,08012-1762,US,39.7334671,-75.03961945,2022-12-05 05:53:38
Target,487 Cross Keys Rd,,Sicklerville,NJ,08081-9749,US,39.74734879,-74.99406433,2022-12-05 05:53:38
Target,675 Woodbury Glassboro Rd,,Sewell,NJ,08080-3733,US,39.76498413,-75.13211823,2022-12-05 05:53:38
Target,125 E North Pointe Dr,,Salisbury,MD,21804-2283,US,38.41596603,-75.56024933,2022-12-05 05:53:37
Target,209 Stafford Park Blvd,,Manahawkin,NJ,08050-2734,US,39.71038818,-74.28475952,2022-12-05 05:53:39
Target,1139 White Horse Rd,,Voorhees,NJ,08043-2107,US,39.85103989,-74.98390198,2022-12-05 05:53:38
Target,751 Route 73 S,,Marlton,NJ,08053-9637,US,39.86697388,-74.92263794,2022-12-05 05:53:38
Target,800 Christiana Mall,,Newark,DE,19702-3216,US,39.67893982,-75.64957428,2022-12-05 05:53:37
Target,3240 Kirkwood Hwy,,Wilmington,DE,19808-6130,US,39.73601913,-75.62495422,2022-12-05 05:53:37
Target,4 Centerton Rd,,Mount Laurel,NJ,08054-6102,US,39.96839905,-74.91443634,2022-12-05 05:53:38
Target,28539 Marlboro Ave,,Easton,MD,21601-2752,US,38.78219986,-76.08640289,2022-12-05 05:53:37
Target,4004 Rte 130 N,,Delran,NJ,08075-2414,US,40.0125351,-74.95871735,2022-12-05 05:53:38
Target,3225 Louisiana Ave,,Lafayette,LA,70501-1406,US,30.26529884,-91.99583435,2022-12-05 05:53:35
Target,4313 Ambassador Caffery Pkwy,,Lafayette,LA,70508-6703,US,30.16010284,-92.04910278,2022-12-05 05:53:35
Target,6885 Siegen Ln,,Baton Rouge,LA,70809-4528,US,30.38446045,-91.06130219,2022-12-05 05:53:35
Target,2001 Millerville Rd,,Baton Rouge,LA,70816-1408,US,30.44124985,-91.02236938,2022-12-05 05:53:35
Target,1720 W Prien Lake Rd,,Lake Charles,LA,70601-8361,US,30.19984245,-93.24591827,2022-12-05 05:53:42
Target,2030 Hammond Square Dr,,Hammond,LA,70403-6156,US,30.48053169,-90.461586,2022-12-05 05:53:35
Target,718 Maguire Blvd,,Orlando,FL,32803-3706,US,28.55524254,-81.3454895,2022-12-05 05:53:38
Target,120 W Grant St,,Orlando,FL,32806-3932,US,28.51585007,-81.37950134,2022-12-05 05:53:38
Target,880 Sand Lake Rd,,Orlando,FL,32809-7710,US,28.44934654,-81.39065552,2022-12-05 05:53:38
Target,325 N Alafaya Trl,,Orlando,FL,32828-7012,US,28.55220032,-81.20220184,2022-12-05 05:53:38
Target,3055 Columbia Blvd,Ste 101,Titusville,FL,32780-7865,US,28.55184937,-80.84075928,2022-12-05 05:53:38
Target,250 Crockett Blvd,,Merritt Island,FL,32953-4395,US,28.38668823,-80.70466614,2022-12-05 05:53:38
Target,1135 W Riverdale Rd,,Riverdale,UT,84405-3722,US,41.17361069,-112.00623322,2022-12-05 05:53:37
Target,815 W 2000 N,,Layton,UT,84041-1632,US,41.08774948,-111.98110962,2022-12-05 05:53:37
Target,200 N Market Place Dr,,Centerville,UT,84014-1752,US,40.91825104,-111.88700104,2022-12-05 05:53:37
Target,1110 S 300 W,,Salt Lake City,UT,84101-3053,US,40.74491501,-111.90166473,2022-12-05 05:53:37
Target,5518 W High Market Dr,,West Valley City,UT,84120-1306,US,40.71390152,-112.02339935,2022-12-05 05:53:37
Target,"2236 S 1300 East, Ste D-1",,Salt Lake City,UT,84106-2898,US,40.72237778,-111.8560791,2022-12-05 05:53:37
Target,5800 S Redwood Rd,,Taylorsville,UT,84123-5327,US,40.64610291,-111.94017792,2022-12-05 05:53:37
Target,7779 Jordan Landing Blvd,,West Jordan,UT,84084-1975,US,40.61065292,-111.98410797,2022-12-05 05:53:37
Target,7025 S Park Centre Dr,,Salt Lake City,UT,84121-6619,US,40.62256622,-111.85018158,2022-12-05 05:53:37
Target,10130 S State St,,Sandy,UT,84070-4118,US,40.56697845,-111.89299774,2022-12-05 05:53:37
Target,11525 Parkway Plaza Dr,,South Jordan,UT,84095-5605,US,40.54149628,-111.97808075,2022-12-05 05:53:37
Target,608 W Main St,,American Fork,UT,84003-9762,US,40.37850571,-111.81525421,2022-12-05 05:53:37
Target,1501 Miller Park Way,,West Milwaukee,WI,53214-3654,US,43.01483917,-87.96961212,2022-12-05 05:53:35
Target,3900 N 124th St,,Wauwatosa,WI,53222-2105,US,43.08750153,-88.06410217,2022-12-05 05:53:35
Target,5701 N Lydell Ave,,Glendale,WI,53217-4537,US,43.1214447,-87.91306305,2022-12-05 05:53:35
Target,12725 W Bluemound Rd,,Brookfield,WI,53005-8032,US,43.03421783,-88.0717926,2022-12-05 05:53:35
Target,2600 S 108th St,,West Allis,WI,53227-1926,US,42.99673843,-88.0447998,2022-12-05 05:53:35
Target,2950 S Chase Ave,,Milwaukee,WI,53207-6407,US,42.99200821,-87.90821075,2022-12-05 05:53:35
Target,4798 S Moorland Rd,,New Berlin,WI,53151-7486,US,42.95807266,-88.10689545,2022-12-05 05:53:35
Target,2401 Kossow Rd,,Waukesha,WI,53186-2904,US,43.03453827,-88.17757416,2022-12-05 05:53:35
Target,N95 W 17707 Shady Ln,,Menomonee Falls,WI,53051-8012,US,43.18964386,-88.12900543,2022-12-05 05:53:35
Target,7800 S Lovers Lane Rd,,Franklin,WI,53132-2290,US,42.90391541,-88.0370636,2022-12-05 05:53:35
Target,8989 S Howell Ave,,Oak Creek,WI,53154-3803,US,42.88276672,-87.91564941,2022-12-05 05:53:35
Target,1250 N Port Washington Rd,,Grafton,WI,53024-9315,US,43.31914139,-87.92230988,2022-12-05 05:53:35
Target,5300 Durand Ave,,Racine,WI,53406-5056,US,42.6988945,-87.84371948,2022-12-05 05:53:35
Target,9777 76th St,,Pleasant Prairie,WI,53158-1990,US,42.56441116,-87.92839813,2022-12-05 05:53:35
Target,4085 State Highway 28,,Sheboygan Falls,WI,53085-2848,US,43.71646881,-87.7665329,2022-12-05 05:53:36
Target,3050 N Lewis Ave,,Waukegan,IL,60087-2231,US,42.40798569,-87.85649109,2022-12-05 05:53:37
Target,6601 Grand Ave,,Gurnee,IL,60031-4591,US,42.38311768,-87.96575928,2022-12-05 05:53:35
Target,975 Rockland Rd,,Lake Bluff,IL,60044-1778,US,42.27915192,-87.87382507,2022-12-05 05:53:37
Target,485 N Rolling Meadows Dr,,Fond Du Lac,WI,54937-9784,US,43.79090118,-88.48496246,2022-12-05 05:53:35
Target,2099 Skokie Valley Rd,,Highland Park,IL,60035-1728,US,42.19167709,-87.82496643,2022-12-05 05:53:37
Target,3227 SE Military Dr,,San Antonio,TX,78223-3876,US,29.35359192,-98.43651581,2022-12-05 05:53:37
Target,2810 SW Military Dr,,San Antonio,TX,78224-1032,US,29.35594749,-98.5425415,2022-12-05 05:53:37
Target,8223 State Highway 151,,San Antonio,TX,78245-2104,US,29.4387989,-98.64903259,2022-12-05 05:53:37
Target,7608 NE Zac Lentz Pkwy,,Victoria,TX,77904-1390,US,28.86544228,-96.9993515,2022-12-05 05:53:42
Target,5355 W Loop 1604 N,,San Antonio,TX,78253-5300,US,29.49325371,-98.70956421,2022-12-05 05:53:37
Target,1401 W Esplanade Ave,Ste 200,Kenner,LA,70065-2845,US,30.01706505,-90.24751282,2022-12-05 05:53:35
Target,4500 Veterans Memorial Blvd,,Metairie,LA,70006-5330,US,30.00289726,-90.18411255,2022-12-05 05:53:35
Target,1731 Manhattan Blvd,,Harvey,LA,70058-3409,US,29.88954735,-90.05342865,2022-12-05 05:53:35
Target,69320 Highway 21,,Covington,LA,70433-7220,US,30.44244194,-90.14066315,2022-12-05 05:53:35
Target,1727 Martin Luther King Jr Blvd,,Houma,LA,70360-2409,US,29.61122513,-90.75698853,2022-12-05 05:53:35
Target,3867 Promenade Pkwy,,D'iberville,MS,39540-5363,US,30.4549427,-88.89989471,2022-12-05 05:53:38
Target,501 Elsinger Blvd,,Conway,AR,72032-4717,US,35.0864296,-92.41403198,2022-12-05 05:53:35
Target,4000 McCain Blvd,,North Little Rock,AR,72116-8039,US,34.78841782,-92.22833252,2022-12-05 05:53:35
Target,12700 Chenal Pkwy,,Little Rock,AR,72211-3360,US,34.75550842,-92.41437531,2022-12-05 05:53:35
Target,420 S University Ave,,Little Rock,AR,72205-5246,US,34.74979019,-92.34507751,2022-12-05 05:53:35
Target,7377 Alcoa Rd,,Bryant,AR,72022-6204,US,34.60425949,-92.53099823,2022-12-05 05:53:35
Target,1900 S Koeller St,,Oshkosh,WI,54902-6153,US,43.99842834,-88.57763672,2022-12-05 05:53:35
Target,800 Rock Hill Dr,,Bensalem,PA,19020-1628,US,40.1357193,-74.96160126,2022-12-05 05:53:38
Target,G3515 Miller Rd,,Flint,MI,48507-1273,US,42.98364639,-83.74945831,2022-12-05 05:53:35
Target,3255 Owen Rd,,Fenton,MI,48430-1755,US,42.78725815,-83.73693085,2022-12-05 05:53:35
Target,650 Brown Rd,,Auburn Hills,MI,48326-1307,US,42.70642853,-83.2910614,2022-12-05 05:53:35
Target,10025 E Highland Rd,,Howell,MI,48843-1879,US,42.63504791,-83.75743866,2022-12-05 05:53:35
Target,2400 S Telegraph Rd,,Bloomfield Hills,MI,48302-0255,US,42.60389709,-83.293396,2022-12-05 05:53:35
Target,8043 Challis Rd,,Brighton,MI,48116-7446,US,42.54491425,-83.79212952,2022-12-05 05:53:35
Target,495 Haggerty Hwy,,Walled Lake,MI,48390-3936,US,42.53391647,-83.44127655,2022-12-05 05:53:35
Target,2887 S Rochester Rd,,Rochester Hills,MI,48307-4580,US,42.63793182,-83.12941742,2022-12-05 05:53:35
Target,27100 Wixom Rd,,Novi,MI,48374-1115,US,42.48835754,-83.53366089,2022-12-05 05:53:35
Target,8200 26 Mile Rd,,Shelby Township,MI,48316-5132,US,42.71139908,-83.03313446,2022-12-05 05:53:35
Target,1301 Coolidge Hwy,,Troy,MI,48084-7017,US,42.54478836,-83.18946075,2022-12-05 05:53:35
Target,30333 Southfield Rd,,Southfield,MI,48076-1352,US,42.51289749,-83.22502899,2022-12-05 05:53:35
Target,20100 Haggerty Rd,,Livonia,MI,48152-1087,US,42.43440628,-83.43159485,2022-12-05 05:53:35
Target,30020 Grand River Ave,,Farmington Hills,MI,48336-4722,US,42.4520874,-83.34332275,2022-12-05 05:53:35
Target,2310 Metropolitan Pkwy,,Sterling Heights,MI,48310-4209,US,42.56197739,-83.08531189,2022-12-05 05:53:35
Target,13221 Hall Rd,,Utica,MI,48315-5834,US,42.62853241,-82.99658966,2022-12-05 05:53:35
Target,32001 John R Rd,,Madison Heights,MI,48071-1322,US,42.52851486,-83.10853577,2022-12-05 05:53:35
Target,28800 Dequindre Rd,,Warren,MI,48092-2466,US,42.50365829,-83.08329773,2022-12-05 05:53:35
Target,20877 Hall Rd,,Macomb,MI,48044-4526,US,42.6305809,-82.91259766,2022-12-05 05:53:35
Target,51400 Gratiot Ave,,Chesterfield,MI,48051-2007,US,42.67707825,-82.82909393,2022-12-05 05:53:35
Target,29451 Plymouth Rd,,Livonia,MI,48150-2112,US,42.36676407,-83.3347702,2022-12-05 05:53:35
Target,35401 Warren Rd,,Westland,MI,48185-6590,US,42.33732224,-83.39046478,2022-12-05 05:53:35
Target,43670 Ford Rd,,Canton,MI,48187-3101,US,42.32347107,-83.47160339,2022-12-05 05:53:35
Target,33860 S Gratiot Ave,,Clinton Township,MI,48035-6115,US,42.54545593,-82.90294647,2022-12-05 05:53:35
Target,26650 Ford Rd,,Dearborn Heights,MI,48127-2841,US,42.3280983,-83.30270386,2022-12-05 05:53:35
Target,231 S State St,,Ann Arbor,MI,48104-2005,US,42.27942657,-83.7407074,2022-12-05 05:53:35
Target,47330 Michigan Ave,,Canton,MI,48188-2310,US,42.26963425,-83.50296021,2022-12-05 05:53:35
Target,6143 U S Highway 98,Ste 80,Hattiesburg,MS,39402-8533,US,31.32351494,-89.38506317,2022-12-05 05:53:38
Target,2550 Catron St,,Bozeman,MT,59718-7993,US,45.7106781,-111.07067108,2022-12-05 05:53:35
Target,2235 Springfield Ave,,Vauxhall,NJ,07088-1100,US,40.71548462,-74.284729,2022-12-05 05:53:35
Target,430 Mariner Way,,Biddeford,ME,04005-9440,US,43.47399902,-70.51409912,2022-12-05 05:53:38
Target,200 Running Hill Rd,,South Portland,ME,04106-3258,US,43.63424301,-70.34777069,2022-12-05 05:53:38
Target,80 Damante Dr,,Concord,NH,03301-5759,US,43.21889877,-71.48519897,2022-12-05 05:53:35
Target,11 Andrews Rd,,Somersworth,NH,03878-1042,US,43.23504639,-70.88452148,2022-12-05 05:53:38
Target,"200 S Main St, Unit 24",,West Lebanon,NH,03784-2014,US,43.63368225,-72.3219986,2022-12-05 05:53:36
Target,125 Topsham Fair Mall Rd,,Topsham,ME,04086-1799,US,43.93403625,-69.98526764,2022-12-05 05:53:35
Target,100 Quality Dr,,Hooksett,NH,03106-2651,US,43.04561615,-71.46120453,2022-12-05 05:53:35
Target,1450 Greenland Rd,Ste 1,Greenland,NH,03840-2438,US,43.0489502,-70.81858826,2022-12-05 05:53:38
Target,220 S River Rd,,Bedford,NH,03110-6819,US,42.94100189,-71.47351074,2022-12-05 05:53:35
Target,119 Crossing Way,,Augusta,ME,04330-6184,US,44.31240463,-69.80499268,2022-12-05 05:53:35
Target,600 Amherst St,,Nashua,NH,03063-1002,US,42.79898834,-71.53678894,2022-12-05 05:53:35
Target,46 Ash Brook Rd,,Keene,NH,03431-5918,US,42.92818832,-72.30190277,2022-12-05 05:53:35
Target,30 Rhl Blvd,,South Charleston,WV,25309-8278,US,38.33822632,-81.71451569,2022-12-05 05:53:35
Target,200 Butler Commons,,Butler,PA,16001-2482,US,40.87496185,-79.94155121,2022-12-05 05:53:35
Target,550 Grandview Crossing Dr,,Gibsonia,PA,15044-7105,US,40.6423378,-79.9413147,2022-12-05 05:53:35
Target,105 Blazier Dr,,Pittsburgh,PA,15237-6039,US,40.5864563,-80.0421524,2022-12-05 05:53:35
Target,2661 Freeport Rd,,Pittsburgh,PA,15238-1441,US,40.53795624,-79.83707428,2022-12-05 05:53:35
Target,6700 Peach St,,Erie,PA,16509-7712,US,42.05552292,-80.09452057,2022-12-05 05:53:35
Target,4801 McKnight Rd Ste 3,,Pittsburgh,PA,15237-3423,US,40.52668762,-80.00752258,2022-12-05 05:53:35
Target,288 Mt Nebo Pointe Dr,,Pittsburgh,PA,15237-1317,US,40.53546143,-80.06777191,2022-12-05 05:53:35
Target,6231 PENN AVE,,PITTSBURGH,PA,15206-3978,US,40.46086502,-79.92227936,2022-12-05 05:53:35
Target,4004 Monroeville Blvd,,Monroeville,PA,15146-2506,US,40.43437576,-79.77203369,2022-12-05 05:53:35
Target,360 Waterfront Dr E,,Homestead,PA,15120-5004,US,40.41076279,-79.91080475,2022-12-05 05:53:35
Target,600 Chauvet Dr,,Pittsburgh,PA,15275-1043,US,40.44575882,-80.1832962,2022-12-05 05:53:35
Target,8931 Route 30,,North Huntingdon,PA,15642-2791,US,40.32084274,-79.68833923,2022-12-05 05:53:35
Target,1717 Lebanon Church Rd,,West Mifflin,PA,15236-1450,US,40.34861374,-79.95320129,2022-12-05 05:53:35
Target,6206 State Rte 30,,Greensburg,PA,15601-6399,US,40.30352783,-79.59617615,2022-12-05 05:53:35
Target,201 S Hills Vlg,,Pittsburgh,PA,15241-1408,US,40.34424591,-80.0570755,2022-12-05 05:53:35
Target,335 Washington Rd,,Washington,PA,15301-2701,US,40.18811417,-80.22699738,2022-12-05 05:53:35
Target,153 Sierra Dr,,Altoona,PA,16601-9341,US,40.45930099,-78.40602112,2022-12-05 05:53:35
Target,120 Matthew Dr,,Uniontown,PA,15401-8418,US,39.90794373,-79.75799561,2022-12-05 05:53:35
Target,10451 Indianapolis Blvd,,Highland,IN,46322-3511,US,41.52417374,-87.46833038,2022-12-05 05:53:36
Target,9885 Wicker Ave,,Saint John,IN,46373-9413,US,41.43972015,-87.46783447,2022-12-05 05:53:36
Target,8005 Calumet Ave,,Munster,IN,46321-1217,US,41.56711578,-87.50728607,2022-12-05 05:53:36
Target,1346 E 53rd St,,Chicago,IL,60615-4002,US,41.79959869,-87.59339905,2022-12-05 05:53:36
Target,17605 S Halsted St,,Homewood,IL,60430-2007,US,41.56879044,-87.63428497,2022-12-05 05:53:36
Target,2910 1st Ave S,,Fort Dodge,IA,50501-2972,US,42.50615311,-94.15735626,2022-12-05 05:53:37
Target,320 S Duff Ave,,Ames,IA,50010-6644,US,42.01916504,-93.60746765,2022-12-05 05:53:37
Target,11148 Plum Dr,,Urbandale,IA,50322-6328,US,41.64719391,-93.76729584,2022-12-05 05:53:37
Target,1800 Valley West Dr,,West Des Moines,IA,50266-1104,US,41.59925842,-93.75275421,2022-12-05 05:53:37
Target,5901 Douglas Ave,,Des Moines,IA,50322-3303,US,41.63041687,-93.69973755,2022-12-05 05:53:37
Target,5405 Mills Civic Pkwy,,West Des Moines,IA,50266-5303,US,41.56132126,-93.77983093,2022-12-05 05:53:37
Target,2135 SE Delaware Ave,,Ankeny,IA,50021-4592,US,41.70953751,-93.57878876,2022-12-05 05:53:37
Target,1111 E Army Post Rd Ste 2204,,Des Moines,IA,50315-5962,US,41.52371979,-93.60205078,2022-12-05 05:53:35
Target,3450 4th St SW,,Mason City,IA,50401-1572,US,43.14978409,-93.25337219,2022-12-05 05:53:37
Target,7409 W Virginia Ave,,Phoenix,AZ,85035-1336,US,33.47542572,-112.2186203,2022-12-05 05:53:36
Target,9350 W Northern Ave,,Glendale,AZ,85305-1103,US,33.55418015,-112.25978851,2022-12-05 05:53:36
Target,9830 W Lower Buckeye Rd,,Tolleson,AZ,85353-9424,US,33.42305756,-112.26937866,2022-12-05 05:53:36
Target,10404 N 43rd Ave,,Glendale,AZ,85302-2019,US,33.58018494,-112.15296936,2022-12-05 05:53:36
Target,5715 N 19th Ave,,Phoenix,AZ,85015-2433,US,33.52076721,-112.09680176,2022-12-05 05:53:36
Target,1515 N Litchfield Rd,,Goodyear,AZ,85395-1237,US,33.46294022,-112.35569,2022-12-05 05:53:36
Target,1625 E Camelback Rd,,Phoenix,AZ,85016-3901,US,33.50752258,-112.04646301,2022-12-05 05:53:36
Target,8055 W Bell Rd,,Peoria,AZ,85382-3806,US,33.63620758,-112.22853851,2022-12-05 05:53:36
Target,995 S Cotton Ln,,Goodyear,AZ,85338-4604,US,33.43740845,-112.42186737,2022-12-05 05:53:36
Target,13731 W Bell Rd,,Surprise,AZ,85374-3871,US,33.63725281,-112.35320282,2022-12-05 05:53:36
Target,16806 N 7th St,,Phoenix,AZ,85022-2662,US,33.63864899,-112.06900024,2022-12-05 05:53:36
Target,2140 E Baseline Rd,,Phoenix,AZ,85042-6910,US,33.3793335,-112.03501129,2022-12-05 05:53:36
Target,2727 W Agua Fria Fwy,,Phoenix,AZ,85027-3929,US,33.66675949,-112.1195755,2022-12-05 05:53:36
Target,4515 E Thomas Rd,,Phoenix,AZ,85018-7614,US,33.47738647,-111.98451233,2022-12-05 05:53:36
Target,12602 N Paradise Village Pkwy W,,Phoenix,AZ,85032-7671,US,33.60040665,-111.98924255,2022-12-05 05:53:36
Target,24890 N Lake Pleasant Pkwy,,Peoria,AZ,85383-1348,US,33.70947266,-112.27532196,2022-12-05 05:53:36
Target,4734 E Ray Rd,,Phoenix,AZ,85044-6225,US,33.32138062,-111.98154449,2022-12-05 05:53:36
Target,1800 E Rio Salado Pkwy,Ste 120,Tempe,AZ,85281-2266,US,33.43044281,-111.90525055,2022-12-05 05:53:36
Target,21001 N Tatum Blvd Ste 20,,Phoenix,AZ,85050-4207,US,33.6748848,-111.97458649,2022-12-05 05:53:36
Target,9000 E Talking Stick Way,,Scottsdale,AZ,85250-8502,US,33.54021072,-111.88762665,2022-12-05 05:53:36
Target,1818 E Baseline Rd,,Tempe,AZ,85283-1502,US,33.3792038,-111.90746307,2022-12-05 05:53:36
Target,15444 N Frank Lloyd Wright Blvd,,Scottsdale,AZ,85260-2845,US,33.62729263,-111.88829041,2022-12-05 05:53:36
Target,1230 S Longmore Ave,,Mesa,AZ,85202-9602,US,33.39215469,-111.86486816,2022-12-05 05:53:36
Target,3425 W Frye Rd,,Chandler,AZ,85226-5008,US,33.29607773,-111.89996338,2022-12-05 05:53:36
Target,1135 S Gilbert Rd,,Mesa,AZ,85204-5205,US,33.39416504,-111.78598785,2022-12-05 05:53:36
Target,32351 N Scottsdale Rd,,Scottsdale,AZ,85266-1513,US,33.77902603,-111.92301178,2022-12-05 05:53:36
Target,3777 S ARIZONA AVE,,Chandler,AZ,85248-2700,US,33.25001907,-111.83833313,2022-12-05 05:53:36
Target,1515 E Warner Rd,,Gilbert,AZ,85296-3138,US,33.33424377,-111.75736237,2022-12-05 05:53:36
Target,3931 S Gilbert Rd,,Gilbert,AZ,85297-7004,US,33.27841187,-111.78635406,2022-12-05 05:53:36
Target,16825 E Shea Blvd,,Fountain Hills,AZ,85268-6668,US,33.57392883,-111.71835327,2022-12-05 05:53:36
Target,1760 Palm Beach Lakes Blvd,,West Palm Beach,FL,33401-2008,US,26.72269058,-80.08499908,2022-12-05 05:53:37
Target,500 N Congress Ave,,Lake Park,FL,33403-3802,US,26.80586052,-80.082901,2022-12-05 05:53:37
Target,10155 Okeechobee Blvd,,West Palm Beach,FL,33411-1404,US,26.71087456,-80.20249176,2022-12-05 05:53:37
Target,5900 Lake Worth Rd,,Greenacres,FL,33463-3212,US,26.61818314,-80.13673401,2022-12-05 05:53:37
Target,5900 State Rd 7,,Lake Worth,FL,33449-5438,US,26.59315491,-80.20293427,2022-12-05 05:53:37
Target,650 N Congress Ave,,Boynton Beach,FL,33426-3445,US,26.5333786,-80.08837128,2022-12-05 05:53:37
Target,10201 Hagen Ranch Rd,,Boynton Beach,FL,33437-3758,US,26.52584076,-80.16600037,2022-12-05 05:53:37
Target,1200 Linton Blvd,,Delray Beach,FL,33444-1115,US,26.43758011,-80.0847702,2022-12-05 05:53:37
Target,21637 State Road 7,,Boca Raton,FL,33428-1843,US,26.35486412,-80.20459747,2022-12-05 05:53:37
Target,3599 W Hillsboro Blvd,,Deerfield Beach,FL,33442-9404,US,26.31951714,-80.15145874,2022-12-05 05:53:37
Target,1200 S Federal Hwy,,Deerfield Beach,FL,33441-7037,US,26.30187988,-80.09259796,2022-12-05 05:53:37
Target,9600 Westview Dr,,Coral Springs,FL,33076-2514,US,26.29705238,-80.25213623,2022-12-05 05:53:37
Target,4400 N State Rd 7,,Coral Springs,FL,33073-3353,US,26.28471756,-80.20420074,2022-12-05 05:53:37
Target,2650 NW Federal Hwy,,Stuart,FL,34994-9318,US,27.23658943,-80.27146912,2022-12-05 05:53:37
Target,3200 N Federal Hwy,,Fort Lauderdale,FL,33306-1062,US,26.16824722,-80.11585236,2022-12-05 05:53:37
Target,10720 SW Village Pkwy,,Port Saint Lucie,FL,34987-2188,US,27.26993942,-80.42700195,2022-12-05 05:53:37
Target,12801 W Sunrise Blvd,,Sunrise,FL,33323-4020,US,26.15405083,-80.31853485,2022-12-05 05:53:37
Target,8201 Federated West Roadway,,Plantation,FL,33324-2719,US,26.11820984,-80.2582016,2022-12-05 05:53:37
Target,5800 S University Dr,,Davie,FL,33328-6102,US,26.04798317,-80.24945831,2022-12-05 05:53:37
Target,3251 Hollywood Blvd,Ste 300,Hollywood,FL,33021-6904,US,26.01270676,-80.17437744,2022-12-05 05:53:37
Target,11253 Pines Blvd,,Pembroke Pines,FL,33026-4118,US,26.00908661,-80.29946136,2022-12-05 05:53:37
Target,21265 Biscayne Blvd,,Aventura,FL,33180-1241,US,25.97164345,-80.14096832,2022-12-05 05:53:37
Target,16901 Miramar Pkwy,,Miramar,FL,33027-4528,US,25.98011017,-80.37149811,2022-12-05 05:53:37
Target,5601 NW 183rd St,,Miami Gardens,FL,33055-2305,US,25.94054985,-80.29109955,2022-12-05 05:53:37
Target,14075 Biscayne Blvd,,North Miami Beach,FL,33181-1629,US,25.90688515,-80.15673065,2022-12-05 05:53:37
Target,1750 W 37th St,,Hialeah,FL,33012-4687,US,25.85378647,-80.31716156,2022-12-05 05:53:37
Target,5800 20th St,,Vero Beach,FL,32966-1017,US,27.64041519,-80.44804382,2022-12-05 05:53:37
Target,3401 N Miami Ave,Ste 100,Miami,FL,33127-3500,US,25.8103447,-80.19364166,2022-12-05 05:53:37
Target,"1045 5th St, Unit 201",,Miami Beach,FL,33139-6504,US,25.7749691,-80.13912964,2022-12-05 05:53:37
Target,1906 Ponce De Leon Blvd,,Coral Gables,FL,33134-4413,US,25.7549305,-80.25918579,2022-12-05 05:53:37
Target,2070 Sam Rittenberg Blvd,,Charleston,SC,29407-4605,US,32.79943085,-80.0306015,2022-12-05 05:53:38
Target,7250 Rivers Ave,,North Charleston,SC,29406-4625,US,32.93550873,-80.03623199,2022-12-05 05:53:38
Target,450 Azalea Square Blvd,,Summerville,SC,29483-7321,US,33.0402832,-80.15773773,2022-12-05 05:53:38
Target,1300 Long Grove Dr,,Mount Pleasant,SC,29464-9462,US,32.82434464,-79.81781769,2022-12-05 05:53:38
Target,3150 Bel Air Mall,,Mobile,AL,36606-3203,US,30.67139244,-88.12001038,2022-12-05 05:53:36
Target,790 Schillinger Rd S,,Mobile,AL,36695-8979,US,30.67387962,-88.228302,2022-12-05 05:53:36
Target,1698 US Highway 98,,Daphne,AL,36526-4252,US,30.60321617,-87.89650726,2022-12-05 05:53:36
Target,3820 Gulf Shores Pkwy,,Gulf Shores,AL,36542-2819,US,30.30357361,-87.68052673,2022-12-05 05:53:36
Target,2950 S Blue Angel Pkwy,,Pensacola,FL,32506-6905,US,30.36316109,-87.35808563,2022-12-05 05:53:36
Target,1749 E Nine Mile Rd,,Pensacola,FL,32514-5729,US,30.5300827,-87.22383118,2022-12-05 05:53:36
Target,4711 Bayou Blvd,,Pensacola,FL,32503-2607,US,30.46899223,-87.20859528,2022-12-05 05:53:36
Target,4727 Highway 90,,Pace,FL,32571-1403,US,30.6011734,-87.12627411,2022-12-05 05:53:36
Target,250 E Miracle Strip Pkwy,,Mary Esther,FL,32569-1924,US,30.41055489,-86.65887451,2022-12-05 05:53:36
Target,853 Harbor Blvd,,Destin,FL,32541-2709,US,30.39074135,-86.48093414,2022-12-05 05:53:36
Target,7777 E Hampden Ave,,Denver,CO,80231-4806,US,39.65532684,-104.9002533,2022-12-05 05:53:41
Target,1400 S Havana St,,Aurora,CO,80012-4014,US,39.69157028,-104.8636322,2022-12-05 05:53:41
Target,2490 S. Colorado Blvd,,Denver,CO,80222-5907,US,39.67081833,-104.9390564,2022-12-05 05:53:41
Target,93 N Quebec St,,Denver,CO,80230,US,39.71743011,-104.90437317,2022-12-05 05:53:41
Target,4301 E Virginia Ave,,Glendale,CO,80246-1510,US,39.70820236,-104.93770599,2022-12-05 05:53:41
Target,14200 E Ellsworth Ave,,Aurora,CO,80012-1402,US,39.71536636,-104.82119751,2022-12-05 05:53:41
Target,6767 S Clinton St,,Englewood,CO,80112-3617,US,39.59337234,-104.88155365,2022-12-05 05:53:41
Target,16910 E Quincy Ave,,Aurora,CO,80015-2745,US,39.63667297,-104.78997803,2022-12-05 05:53:41
Target,3650 River Point Pkwy,,Sheridan,CO,80110-3312,US,39.64962387,-105.00592804,2022-12-05 05:53:41
Target,15700 E Briarwood Cir,,Aurora,CO,80016-1558,US,39.59200287,-104.8049469,2022-12-05 05:53:41
Target,"1600 California St, Ste 14",,Denver,CO,80202-3709,US,39.74518585,-104.99176788,2022-12-05 05:53:41
Target,7930 Northfield Blvd,,Denver,CO,80238-3527,US,39.78392029,-104.89499664,2022-12-05 05:53:41
Target,1950 E County Line Rd,,Highlands Ranch,CO,80126-2437,US,39.56506348,-104.96567535,2022-12-05 05:53:41
Target,10001 Commons St,,Lone Tree,CO,80124-5547,US,39.53487015,-104.88365173,2022-12-05 05:53:41
Target,1985 Sheridan Blvd,,Edgewater,CO,80214-1325,US,39.74672318,-105.05544281,2022-12-05 05:53:41
Target,1265 Sgt Jon Stiles Dr,,Highlands Ranch,CO,80129-2265,US,39.54955292,-105.00510406,2022-12-05 05:53:41
Target,460 S Vance St,,Lakewood,CO,80226-3305,US,39.70837021,-105.07951355,2022-12-05 05:53:41
Target,7400 S Gartrell Rd,,Aurora,CO,80016-4236,US,39.58177185,-104.72186279,2022-12-05 05:53:41
Target,9390 W Cross Dr,,Littleton,CO,80123-2202,US,39.61042023,-105.10099792,2022-12-05 05:53:41
Target,11150 S Twenty Mile Rd,,Parker,CO,80134-4952,US,39.51308823,-104.77178955,2022-12-05 05:53:41
Target,5071 Kipling St,,Wheat Ridge,CO,80033-2251,US,39.78860474,-105.11238098,2022-12-05 05:53:41
Target,14500 W Colfax Ave Unit B1,,Lakewood,CO,80401-3203,US,39.73379135,-105.15772247,2022-12-05 05:53:41
Target,7899 Wadsworth Blvd,,Arvada,CO,80003-2107,US,39.84020996,-105.0850296,2022-12-05 05:53:41
Target,1001 E 120th Ave,,Thornton,CO,80233-5711,US,39.91635132,-104.97509766,2022-12-05 05:53:41
Target,10445 Reed St,,Westminster,CO,80021-6063,US,39.88645172,-105.07837677,2022-12-05 05:53:41
Target,5010 Founders Pkwy,,Castle Rock,CO,80108-7838,US,39.40837097,-104.85700226,2022-12-05 05:53:41
Target,2171 Prairie Center Pkwy,,Brighton,CO,80601-7000,US,39.9563179,-104.77980042,2022-12-05 05:53:41
Target,14451 Orchard Pkwy,,Westminster,CO,80023-9174,US,39.95871735,-104.99511719,2022-12-05 05:53:41
Target,400 Marshall Rd,,Superior,CO,80027-8623,US,39.95652008,-105.1740036,2022-12-05 05:53:41
Target,2800 Pearl St,,Boulder,CO,80301-1123,US,40.02188873,-105.25671387,2022-12-05 05:53:35
Target,5405 Washington Pike,,Knoxville,TN,37918-7004,US,36.0368576,-83.88780975,2022-12-05 05:53:36
Target,6670 Clinton Hwy,,Knoxville,TN,37912-1016,US,36.00846481,-84.02217102,2022-12-05 05:53:35
Target,8040 Ray Mears Blvd,,Knoxville,TN,37919-5457,US,35.92212296,-84.0477829,2022-12-05 05:53:35
Target,1900 Town Center Blvd,,Knoxville,TN,37922-6669,US,35.86204147,-84.07823944,2022-12-05 05:53:35
Target,11100 Parkside Dr,,Knoxville,TN,37934-1960,US,35.90058136,-84.15129852,2022-12-05 05:53:35
Target,800 Watkins Rd,,Maryville,TN,37801-4597,US,35.7519722,-83.99152374,2022-12-05 05:53:35
Target,2626 E Stone Dr,Ste 90,Kingsport,TN,37660-5848,US,36.55184555,-82.4938736,2022-12-05 05:53:37
Target,2701 Plainfield Rd,,Joliet,IL,60435-1166,US,41.57712173,-88.15438843,2022-12-05 05:53:36
Target,1111 Brook Forest Ave,,Shorewood,IL,60404-8845,US,41.54227448,-88.20278931,2022-12-05 05:53:36
Target,12800 S State Route 59,,Plainfield,IL,60585-5414,US,41.64973068,-88.20559692,2022-12-05 05:53:36
Target,13460 S Archer Ave,,Lemont,IL,60439-4755,US,41.64400864,-88.0040741,2022-12-05 05:53:36
Target,1188 W Boughton Rd,,Bolingbrook,IL,60440-1508,US,41.7048111,-88.12200165,2022-12-05 05:53:36
Target,2370 E Lincoln Hwy,,New Lenox,IL,60451-9533,US,41.50719833,-87.92063141,2022-12-05 05:53:36
Target,15850 S 94th Ave,,Orland Park,IL,60462-4725,US,41.60329819,-87.85064697,2022-12-05 05:53:36
Target,7601 Kingery Hwy,,Willowbrook,IL,60527-5538,US,41.75014114,-87.94345093,2022-12-05 05:53:36
Target,7300 191st St,,Tinley Park,IL,60487-9361,US,41.54528046,-87.79530334,2022-12-05 05:53:36
Target,5071 Cal Sag Rd,,Crestwood,IL,60418-1458,US,41.65690231,-87.74573517,2022-12-05 05:53:36
Target,9250 Joliet Rd,,Hodgkins,IL,60525-4162,US,41.78072357,-87.86008453,2022-12-05 05:53:36
Target,4120 W 95th St,,Oak Lawn,IL,60453-2675,US,41.72099686,-87.72496033,2022-12-05 05:53:36
Target,7100 S Cicero Ave,,Chicago,IL,60629-5813,US,41.76277161,-87.74282837,2022-12-05 05:53:36
Target,800 Broadview Village Sq,,Broadview,IL,60155-4887,US,41.85480881,-87.85160065,2022-12-05 05:53:36
Target,4433 S Pulaski Rd,,Chicago,IL,60632-4010,US,41.81293488,-87.72254944,2022-12-05 05:53:36
Target,9900 Sowder Village Sq,,Manassas,VA,20109-5464,US,38.73944092,-77.53204346,2022-12-05 05:53:35
Target,10301 New Guinea Rd,,Fairfax,VA,22032-3268,US,38.79868698,-77.30168152,2022-12-05 05:53:35
Target,6600 Springfield Mall,,Springfield,VA,22150-1712,US,38.77561951,-77.17359924,2022-12-05 05:53:35
Target,6100 Arlington Blvd,,Falls Church,VA,22044-2901,US,38.86804581,-77.14204407,2022-12-05 05:53:35
Target,5115 Leesburg Pike,,Falls Church,VA,22041-3207,US,38.84467316,-77.11841583,2022-12-05 05:53:35
Target,740 N Glebe Rd,,Arlington,VA,22203-2257,US,38.87957764,-77.11382294,2022-12-05 05:53:35
Target,6600 Richmond Hwy,,Alexandria,VA,22306-6601,US,38.77600479,-77.08240509,2022-12-05 05:53:35
Target,1500 Wilson Blvd,,Rosslyn,VA,22209-2458,US,38.89459991,-77.07430267,2022-12-05 05:53:35
Target,"900 Army Navy Dr, Ste a2",,Arlington,VA,22202-4935,US,38.86549759,-77.06243896,2022-12-05 05:53:35
Target,3101 Richmond Hwy,,Alexandria,VA,22305-3042,US,38.83390427,-77.05000305,2022-12-05 05:53:35
Target,3505 Connecticut Ave NW,,Washington,DC,20008-2400,US,38.93599319,-77.05819702,2022-12-05 05:53:35
Target,3100 14th St NW,Ste 201,Washington,DC,20010-2444,US,38.92927551,-77.03274536,2022-12-05 05:53:35
Target,1940 W 33rd St,,Chicago,IL,60608-6107,US,41.83561325,-87.67486572,2022-12-05 05:53:36
Target,3749 Carpenter Rd,,Ypsilanti,MI,48197-9809,US,42.23544312,-83.67731476,2022-12-05 05:53:35
Target,1515 County Road B W,,Roseville,MN,55113-6005,US,45.00765991,-93.16369629,2022-12-05 05:53:39
Target,975 County Road E,,Vadnais Heights,MN,55127-7114,US,45.05223465,-93.06069946,2022-12-05 05:53:39
Target,1329 5th St SE,,Minneapolis,MN,55414-1390,US,44.98161697,-93.2350769,2022-12-05 05:53:39
Target,1650 New Brighton Blvd,,Minneapolis,MN,55413-1643,US,45.00481415,-93.22993469,2022-12-05 05:53:39
Target,3800 Lexington Ave N,,Shoreview,MN,55126-2916,US,45.05674362,-93.14485168,2022-12-05 05:53:39
Target,900 Nicollet Mall,,Minneapolis,MN,55403-2530,US,44.97501755,-93.27410126,2022-12-05 05:53:39
Target,1300 W Lake St,,Minneapolis,MN,55408-2793,US,44.9487648,-93.29618073,2022-12-05 05:53:39
Target,3601 Highway 100 S,,Minneapolis,MN,55416-2500,US,44.93693924,-93.3467865,2022-12-05 05:53:39
Target,755 53rd Ave NE,,Fridley,MN,55421-1240,US,45.0658989,-93.25119781,2022-12-05 05:53:39
Target,529 Lincoln St,,Worcester,MA,01605-1905,US,42.29246902,-71.77510071,2022-12-05 05:53:35
Target,70 Worcester Providence Tpke #100,,Millbury,MA,01527-2652,US,42.19439316,-71.77468872,2022-12-05 05:53:35
Target,330 Turnpike Rd,,Westborough,MA,01581-2813,US,42.28043365,-71.65592957,2022-12-05 05:53:35
Target,423 Donald Lynch Blvd,,Marlborough,MA,01752-4709,US,42.35948563,-71.60716248,2022-12-05 05:53:35
Target,86 Orchard Hill Park Dr,,Leominster,MA,01453-7020,US,42.52719116,-71.71373749,2022-12-05 05:53:35
Target,620 George Washington Hwy,,Lincoln,RI,02865-4216,US,41.9374733,-71.47866821,2022-12-05 05:53:35
Target,2177 Killingly Cmns,,Dayville,CT,06241-2188,US,41.83901978,-71.88378143,2022-12-05 05:53:35
Target,371 Putnam Pike Ste A-250,,Smithfield,RI,02917-2440,US,41.87704468,-71.51829529,2022-12-05 05:53:35
Target,1205 S Washington St,,North Attleboro,MA,02760-6251,US,41.94034576,-71.35192871,2022-12-05 05:53:35
Target,195 River Rd,,Lisbon,CT,06351-3253,US,41.58519363,-71.99693298,2022-12-05 05:53:35
Target,90 Elm St,,Enfield,CT,06082-3770,US,41.99583435,-72.58152771,2022-12-05 05:53:35
Target,2727 N Maize Rd,,Wichita,KS,67205-7311,US,37.7329483,-97.46482086,2022-12-05 05:53:38
Target,7575 Maple St,,Wichita,KS,67209-2013,US,37.67821884,-97.43109894,2022-12-05 05:53:38
Target,2024 N Rock Rd,,Derby,KS,67037-3752,US,37.56892014,-97.24169159,2022-12-05 05:53:38
Target,10800 E 21st St N,,Wichita,KS,67206-3542,US,37.72421646,-97.21148682,2022-12-05 05:53:38
Target,8801 Queens Blvd,,Elmhurst,NY,11373-4449,US,40.73532867,-73.87490082,2022-12-05 05:53:35
Target,7000 AUSTIN ST,,FOREST HILLS,NY,11375-1022,US,40.72089767,-73.84712219,2022-12-05 05:53:35
Target,1801 S Loop 288,,Denton,TX,76205-4801,US,33.18995285,-97.09877014,2022-12-05 05:53:37
Target,122 E Interstate 20,,Weatherford,TX,76087-8556,US,32.72742081,-97.78405762,2022-12-05 05:53:37
Target,8917 Tehama Ridge Pkwy,,Fort Worth,TX,76177-2005,US,32.90211868,-97.32478333,2022-12-05 05:53:37
Target,6604 Lake Worth Blvd,,Lake Worth,TX,76135-3000,US,32.81412888,-97.42932129,2022-12-05 05:53:37
Target,5959 Long Prairie Rd,,Flower Mound,TX,75028-2224,US,33.06789017,-97.08326721,2022-12-05 05:53:37
Target,8000 Denton Hwy,,Watauga,TX,76148-2464,US,32.88978577,-97.25691223,2022-12-05 05:53:37
Target,751 Alta Mere Dr,,Fort Worth,TX,76116-1526,US,32.74898911,-97.43203735,2022-12-05 05:53:37
Target,8532 Davis Blvd,,North Richland Hills,TX,76182-8300,US,32.90818405,-97.18765259,2022-12-05 05:53:37
Target,301 Carroll St,,Fort Worth,TX,76107-1956,US,32.75547791,-97.3540802,2022-12-05 05:53:37
Target,1101 Ira E Woods Ave,,Grapevine,TX,76051-4020,US,32.93062973,-97.08958435,2022-12-05 05:53:37
Target,1400 Precinct Line Rd,,Hurst,TX,76053-3828,US,32.83666992,-97.18399811,2022-12-05 05:53:37
Target,5700 Overton Ridge Blvd,,Fort Worth,TX,76132-3220,US,32.6786232,-97.41259766,2022-12-05 05:53:37
Target,1401 W Glade Rd,,Euless,TX,76039-5417,US,32.88087845,-97.10443878,2022-12-05 05:53:37
Target,725 Hebron Pkwy,,Lewisville,TX,75057-5001,US,33.01184464,-96.97120667,2022-12-05 05:53:37
Target,4885 Eldorado Pkwy,,Frisco,TX,75033-8662,US,33.17361069,-96.84490204,2022-12-05 05:53:37
Target,4760 State Highway 121,,Lewisville,TX,75056-2913,US,33.06403732,-96.88503265,2022-12-05 05:53:37
Target,8550 Tom Landry Fwy,,Fort Worth,TX,76120-4414,US,32.75827789,-97.17015839,2022-12-05 05:53:37
Target,3201 Preston Rd,,Frisco,TX,75034-9446,US,33.10479736,-96.8119812,2022-12-05 05:53:37
Target,7845 N Macarthur Blvd,,Irving,TX,75063-7516,US,32.91309357,-96.9618988,2022-12-05 05:53:37
Target,2200 Dallas Pkwy,,Plano,TX,75093-4300,US,33.03033447,-96.82695007,2022-12-05 05:53:37
Target,3333 W Airport Fwy,,Irving,TX,75062-5921,US,32.83919907,-96.99095154,2022-12-05 05:53:37
Target,8900 State Highway 121,,McKinney,TX,75070-2917,US,33.1290741,-96.73117828,2022-12-05 05:53:37
Target,3730 Belt Line Rd,,Addison,TX,75001-4301,US,32.95095062,-96.85385132,2022-12-05 05:53:37
Target,1600 W Arbrook Blvd,,Arlington,TX,76015-4107,US,32.6841011,-97.13595581,2022-12-05 05:53:37
Target,2025 N Central Expy,,Mckinney,TX,75070-2911,US,33.2201004,-96.63819885,2022-12-05 05:53:37
Target,16731 Coit Rd,,Dallas,TX,75248-1750,US,32.9830513,-96.76957703,2022-12-05 05:53:37
Target,200 NW John Jones Dr,,Burleson,TX,76028-5615,US,32.52350235,-97.34924316,2022-12-05 05:53:37
Target,8900 Highway 7,,St.Louis Park,MN,55426-3919,US,44.93592834,-93.39273834,2022-12-05 05:53:39
Target,5537 W Broadway Ave,,Crystal,MN,55428-3507,US,45.05273056,-93.36555481,2022-12-05 05:53:39
Target,13201 Ridgedale Dr,,Minnetonka,MN,55305-1809,US,44.97015762,-93.44741058,2022-12-05 05:53:39
Target,4175 Vinewood Ln N,,Plymouth,MN,55442-2624,US,45.03142548,-93.45079803,2022-12-05 05:53:39
Target,7535 W Broadway Ave,,Brooklyn Park,MN,55428-1287,US,45.09107971,-93.37793732,2022-12-05 05:53:39
Target,8225 Flying Cloud Dr,,Eden Prairie,MN,55344-5315,US,44.85570145,-93.42533875,2022-12-05 05:53:39
Target,4848 County Road 101,,Minnetonka,MN,55345-2635,US,44.91690826,-93.50489807,2022-12-05 05:53:39
Target,8600 Springbrook Dr NW,,Coon Rapids,MN,55433-6033,US,45.12681961,-93.26874542,2022-12-05 05:53:39
Target,300 Clydesdale Trl,,Medina,MN,55340-4538,US,45.04540634,-93.52958679,2022-12-05 05:53:39
Target,851 W 78th St,,Chanhassen,MN,55317-9579,US,44.86178207,-93.54268646,2022-12-05 05:53:39
Target,1500 109th Ave NE,,Blaine,MN,55449-4670,US,45.1656723,-93.23242188,2022-12-05 05:53:39
Target,15005 SW 88th St,,Miami,FL,33196-1314,US,25.68546677,-80.43793488,2022-12-05 05:53:37
Target,10101 W Flagler St,,Miami,FL,33174-1830,US,25.77118874,-80.35979462,2022-12-05 05:53:37
Target,7795 SW 40th St,,Miami,FL,33155-3546,US,25.73558807,-80.3212204,2022-12-05 05:53:37
Target,20500 SW 112th Ave,,Miami,FL,33189-2296,US,25.57594681,-80.37515259,2022-12-05 05:53:37
Target,7800 SW 104th St,,Miami,FL,33156-2631,US,25.67279053,-80.32257843,2022-12-05 05:53:37
Target,8350 S Dixie Hwy,,Miami,FL,33143-7714,US,25.69314194,-80.30569458,2022-12-05 05:53:37
Target,50 Holyoke St,,Holyoke,MA,01040-2709,US,42.16822052,-72.6422348,2022-12-05 05:53:35
Target,367 Russell St,,Hadley,MA,01035-9456,US,42.35731125,-72.54724121,2022-12-05 05:53:35
Target,1245 Bald Hill Rd,,Warwick,RI,02886-4233,US,41.7065773,-71.49417877,2022-12-05 05:53:35
Target,400 Bald Hill Rd,Ste 200,Warwick,RI,02886-6101,US,41.72239304,-71.47640991,2022-12-05 05:53:35
Target,3601 32nd Ave S,,Grand Forks,ND,58201-5911,US,47.88718796,-97.07946777,2022-12-05 05:53:41
Target,1316 N Highway 77,,Waxahachie,TX,75165-5116,US,32.42212296,-96.83757782,2022-12-05 05:53:37
Target,39739 Lyndon B Johnson Fwy,,Dallas,TX,75237-3560,US,32.64988708,-96.86301422,2022-12-05 05:53:37
Target,739 N Highway 67,,Cedar Hill,TX,75104-2142,US,32.60322952,-96.93669128,2022-12-05 05:53:37
Target,1629 N Town East Blvd,,Mesquite,TX,75150-4105,US,32.8134613,-96.62159729,2022-12-05 05:53:37
Target,554 W Interstate 20,,Grand Prairie,TX,75052-6932,US,32.67782593,-97.00964355,2022-12-05 05:53:37
Target,2417 N Haskell Ave,,Dallas,TX,75204-3707,US,32.80435562,-96.79138184,2022-12-05 05:53:37
Target,5270 S State Highway 360,,Grand Prairie,TX,75052-8307,US,32.64282227,-97.06056976,2022-12-05 05:53:37
Target,1801 Highway 287 N,,Mansfield,TX,76063-7533,US,32.58996582,-97.14440918,2022-12-05 05:53:37
Target,6464 E NORTHWEST HWY STE 212,,Dallas,TX,75214-7802,US,32.85640717,-96.75270081,2022-12-05 05:53:37
Target,6419 Skillman St,,Dallas,TX,75231-7109,US,32.86568832,-96.74501038,2022-12-05 05:53:37
Target,"8335 Westchester Dr, Ste 200",,Dallas,TX,75225-5716,US,32.86449051,-96.80736542,2022-12-05 05:53:37
Target,850 Steger Towne Rd,,Rockwall,TX,75032-5658,US,32.89409637,-96.46798706,2022-12-05 05:53:37
Target,9440 Marsh Ln,,Dallas,TX,75220-4924,US,32.86274338,-96.85443878,2022-12-05 05:53:37
Target,4701 Lakeview Pkwy,,Rowlett,TX,75088-4037,US,32.90854263,-96.55808258,2022-12-05 05:53:37
Target,601 S Plano Rd,,Richardson,TX,75081-4512,US,32.94040298,-96.69729614,2022-12-05 05:53:37
Target,13131 Montfort Dr,,Dallas,TX,75240-5112,US,32.92778015,-96.81307983,2022-12-05 05:53:37
Target,5301 N Garland Ave,,Garland,TX,75040-2716,US,32.965271,-96.646698,2022-12-05 05:53:37
Target,3440 W FM 544,,Wylie,TX,75098-9408,US,33.00917816,-96.59349823,2022-12-05 05:53:37
Target,120 W Parker Rd,,Plano,TX,75075-2331,US,33.03740311,-96.70825195,2022-12-05 05:53:37
Target,8455 N Wickham Rd,,Melbourne,FL,32940-6607,US,28.22800636,-80.72032166,2022-12-05 05:53:38
Target,2750 W New Haven Ave,,Melbourne Village,FL,32904-3706,US,28.08000374,-80.66596222,2022-12-05 05:53:38
Target,180 Eagleview Blvd,,Exton,PA,19341-3012,US,40.05258942,-75.66533661,2022-12-05 05:53:37
Target,5401 Bosque Blvd,,Waco,TX,76710-4442,US,31.53489113,-97.19242859,2022-12-05 05:53:36
Target,3061 Wildflower Dr,,Bryan,TX,77802-3060,US,30.66481781,-96.32209015,2022-12-05 05:53:36
Target,2100 Texas Ave S,,College Station,TX,77840-3918,US,30.61075592,-96.31512451,2022-12-05 05:53:36
Target,2050 Lime Kiln Rd,,Green Bay,WI,54311-6264,US,44.4653511,-87.98600006,2022-12-05 05:53:36
Target,1001 Cormier Rd,,Green Bay,WI,54304-4404,US,44.49058914,-88.07066345,2022-12-05 05:53:36
Target,1800 S Kensington Dr,,Appleton,WI,54915-4136,US,44.24586105,-88.35682678,2022-12-05 05:53:36
Target,4301 W Wisconsin Ave,Ste 42,Appleton,WI,54913-8605,US,44.26985931,-88.46903229,2022-12-05 05:53:35
Target,410 S Ashland Ave,,Sturgeon Bay,WI,54235-3805,US,44.82339859,-87.4031601,2022-12-05 05:53:36
Target,5300 US Highway 10 E,,Stevens Point,WI,54482-8551,US,44.52444458,-89.52272797,2022-12-05 05:53:35
Target,1611 Blue Lakes Blvd N,,Twin Falls,ID,83301-3374,US,42.59083557,-114.46289825,2022-12-05 05:53:42
Target,633 N Milwaukee St,,Boise,ID,83704-9139,US,43.61058044,-116.28575897,2022-12-05 05:53:35
Target,15901 Ford Rd,,Dearborn,MI,48126-2800,US,42.32794189,-83.19953156,2022-12-05 05:53:35
Target,3100 Fairlane Dr,,Allen Park,MI,48101-2870,US,42.28524017,-83.20659637,2022-12-05 05:53:35
Target,14099 Pardee Rd,,Taylor,MI,48180-4792,US,42.20329285,-83.25514221,2022-12-05 05:53:35
Target,23555 Allen Rd,,Woodhaven,MI,48183-3381,US,42.13772964,-83.22459412,2022-12-05 05:53:35
Target,7989 US Highway 64,,Memphis,TN,38133-4007,US,35.20346451,-89.79660797,2022-12-05 05:53:37
Target,601 Colonial Rd,,Memphis,TN,38117-5132,US,35.11317444,-89.90361786,2022-12-05 05:53:37
Target,5959 Poplar Ave,,Memphis,TN,38119-3938,US,35.10135651,-89.86297607,2022-12-05 05:53:37
Target,9235 Poplar Ave,,Germantown,TN,38138-7903,US,35.06520844,-89.75572968,2022-12-05 05:53:37
Target,325 New Byhalia Rd,,Collierville,TN,38017-3705,US,35.05064011,-89.69039917,2022-12-05 05:53:37
Target,5150 Goodman Rd,,Olive Branch,MS,38654-7903,US,34.96492767,-89.89868927,2022-12-05 05:53:37
Target,7255 Interstate Dr,,Horn Lake,MS,38637-1410,US,34.96572113,-90.00456238,2022-12-05 05:53:35
Target,3000 E Highland Dr,Ste A,Jonesboro,AR,72401-6321,US,35.82293701,-90.6664505,2022-12-05 05:53:35
Target,93 Stonebrook Pl,,Jackson,TN,38305-3637,US,35.6865654,-88.85771942,2022-12-05 05:53:37
Target,4000 1st Ave,,Evansville,IN,47710-3614,US,38.015728,-87.57646942,2022-12-05 05:53:41
Target,6625 E Lloyd Expy,,Evansville,IN,47715-2757,US,37.97540665,-87.47071075,2022-12-05 05:53:41
Target,5151 Frederica St,,Owensboro,KY,42301-7443,US,37.71748734,-87.122612,2022-12-05 05:53:41
Target,2703 Route 541,,Burlington,NJ,08016-4175,US,40.03614044,-74.82298279,2022-12-05 05:53:38
Target,15922 Crain Hwy SE,,Brandywine,MD,20613-8000,US,38.67245102,-76.87319946,2022-12-05 05:53:35
Target,3101 Donnell Dr,,District Heights,MD,20747-3204,US,38.84863663,-76.88643646,2022-12-05 05:53:35
Target,3300 Western Pkwy,,Waldorf,MD,20603-4582,US,38.62121582,-76.92279816,2022-12-05 05:53:35
Target,6163 Oxon Hill Rd,,Oxon Hill,MD,20745-3108,US,38.8060112,-76.98353577,2022-12-05 05:53:35
Target,4300 24th Ave,,Fort Gratiot,MI,48059-3806,US,43.03425598,-82.45335388,2022-12-05 05:53:35
Target,531 Brookwood Village,,Homewood,AL,35209-4501,US,33.46769333,-86.7749176,2022-12-05 05:53:35
Target,4616 Highway 280,,Birmingham,AL,35242-5028,US,33.42552948,-86.71179962,2022-12-05 05:53:35
Target,5561 Grove Blvd,,Birmingham,AL,35226-4600,US,33.36159897,-86.85256195,2022-12-05 05:53:35
Target,250 S Colonial Dr,,Alabaster,AL,35007-4657,US,33.22489548,-86.80397797,2022-12-05 05:53:35
Target,400 Oxford Exchange Blvd,,Oxford,AL,36203-3459,US,33.60882568,-85.78318024,2022-12-05 05:53:35
Target,1129 S Park St,,Carrollton,GA,30117-4429,US,33.55892181,-85.07646942,2022-12-05 05:53:35
Target,3649 S Hastings Way,,Eau Claire,WI,54701-8182,US,44.7808609,-91.4340744,2022-12-05 05:53:39
Target,1708 N Central Ave,,Marshfield,WI,54449-1514,US,44.68423462,-90.16300964,2022-12-05 05:53:38
Target,356 12th St SW,,Forest Lake,MN,55025-1749,US,45.27428436,-93.00005341,2022-12-05 05:53:39
Target,749 Apollo Dr,,Lino Lakes,MN,55014-3035,US,45.18449402,-93.10454559,2022-12-05 05:53:39
Target,5240 N Academy Blvd,,Colorado Springs,CO,80918-4004,US,38.90520477,-104.78006744,2022-12-05 05:53:41
Target,3810 Bloomington St,,Colorado Springs,CO,80922-3203,US,38.88820648,-104.7177124,2022-12-05 05:53:41
Target,1630 E Cheyenne Mountain Blvd,,Colorado Springs,CO,80906-4050,US,38.79299927,-104.80154419,2022-12-05 05:53:41
Target,9670 Prominent Pt,,Colorado Springs,CO,80924-5000,US,38.97338104,-104.7460022,2022-12-05 05:53:41
Target,3300 Dillon Dr,,Pueblo,CO,81008-1040,US,38.30316544,-104.6060791,2022-12-05 05:53:40
Target,514 Shallowford Rd NW,,Gainesville,GA,30504-4154,US,34.29055786,-83.84650421,2022-12-05 05:53:35
Target,2022 Cumming Hwy,,Canton,GA,30115-8071,US,34.23459625,-84.4566803,2022-12-05 05:53:35
Target,100 Cherokee Pl,,Cartersville,GA,30121-2954,US,34.17248917,-84.7856369,2022-12-05 05:53:35
Target,3378 Cobb Pkwy NW,,Acworth,GA,30101-8304,US,34.03970718,-84.68378448,2022-12-05 05:53:35
Target,4305 Norfolk Pkwy,Ste 102,Melbourne,FL,32904-8605,US,28.03812218,-80.66139984,2022-12-05 05:53:38
Target,1525 S Power Rd,,Mesa,AZ,85206-3707,US,33.38890839,-111.68347168,2022-12-05 05:53:36
Target,2151 N Power Rd,,Mesa,AZ,85215-2971,US,33.4539566,-111.68227386,2022-12-05 05:53:36
Target,5110 S Power Rd,,Mesa,AZ,85212-4201,US,33.32294846,-111.68967438,2022-12-05 05:53:36
Target,21398 S Ellsworth Loop Rd,,Queen Creek,AZ,85142-5379,US,33.25441742,-111.64163208,2022-12-05 05:53:36
Target,1815 Norman Dr,,Valdosta,GA,31601-3502,US,30.84358978,-83.31645966,2022-12-05 05:53:35
Target,2610 Pleasant Valley Rd,,York,PA,17402-9609,US,39.98715591,-76.68029022,2022-12-05 05:53:37
Target,2251 York Crossing Dr,,York,PA,17408-4753,US,39.96515656,-76.77814484,2022-12-05 05:53:37
Target,1589 Fruitville Pike,,Lancaster,PA,17601-4005,US,40.06811142,-76.31143951,2022-12-05 05:53:37
Target,2385 Covered Bridge Dr,,Lancaster,PA,17602-1174,US,40.0262146,-76.20344543,2022-12-05 05:53:37
Target,960 Lititz Pike,,Lititz,PA,17543-9328,US,40.13242722,-76.30702209,2022-12-05 05:53:37
Target,4600 High Pointe Blvd,,Harrisburg,PA,17111-2447,US,40.24612808,-76.80667877,2022-12-05 05:53:36
Target,5125 Jonestown Rd Ste 331,,Harrisburg,PA,17112-2983,US,40.30892563,-76.7964325,2022-12-05 05:53:36
Target,6416 Carlisle Pike,Ste 1900,Mechanicsburg,PA,17050-2384,US,40.25004959,-77.01069641,2022-12-05 05:53:36
Target,246 Westminster Dr,,Carlisle,PA,17013-3117,US,40.19551086,-77.1576004,2022-12-05 05:53:37
Target,202 Highway 332 W,,Lake Jackson,TX,77566-4013,US,29.05020714,-95.46469879,2022-12-05 05:53:38
Target,2000 Bunker Lake Blvd NW,,Andover,MN,55304-4014,US,45.217556,-93.31598663,2022-12-05 05:53:39
Target,3300 124th Ave NW,,Coon Rapids,MN,55433-3805,US,45.19494247,-93.35036469,2022-12-05 05:53:39
Target,655 Cheshire Rd,,Lanesborough,MA,01237-9501,US,42.49526215,-73.20611572,2022-12-05 05:53:35
Target,10555 N Oracle Rd,,Oro Valley,AZ,85737-9353,US,32.39915848,-110.95899963,2022-12-05 05:53:36
Target,3901 W Ina Rd,,Tucson,AZ,85741-2206,US,32.33615494,-111.04839325,2022-12-05 05:53:36
Target,4040 N Oracle Rd,,Tucson,AZ,85705-2720,US,32.27986145,-110.97699738,2022-12-05 05:53:36
Target,3699 E Broadway Blvd,,Tucson,AZ,85716-5400,US,32.22346878,-110.91458893,2022-12-05 05:53:36
Target,6500 E Grant Rd,,Tucson,AZ,85715-3801,US,32.24930954,-110.85340881,2022-12-05 05:53:36
Target,1225 W Irvington Rd,,Tucson,AZ,85714-1167,US,32.16096115,-110.98972321,2022-12-05 05:53:36
Target,9615 E Old Spanish Trl,,Tucson,AZ,85748-7540,US,32.20741653,-110.78677368,2022-12-05 05:53:36
Target,4151 E Highway 90,,Sierra Vista,AZ,85635-2425,US,31.5557785,-110.25576019,2022-12-05 05:53:38
Target,10900 Stadium Pkwy,,Kansas City,KS,66111-8100,US,39.12723541,-94.83182526,2022-12-05 05:53:35
Target,15700 Shawnee Mission Pkwy,,Shawnee,KS,66217-9321,US,39.01021957,-94.76807404,2022-12-05 05:53:35
Target,9040 N Skyview Ave,,Kansas City,MO,64154-8501,US,39.25769043,-94.6546402,2022-12-05 05:53:35
Target,6100 Broadmoor St,,Mission,KS,66202-3229,US,39.0177803,-94.66532898,2022-12-05 05:53:35
Target,8420 N Madison Ave,,Kansas City,MO,64155-2777,US,39.24900818,-94.59516907,2022-12-05 05:53:35
Target,4375 N Chouteau Trfy,,Kansas City,MO,64117-1743,US,39.17389679,-94.53307343,2022-12-05 05:53:35
Target,11501 W 97th St,,Overland Park,KS,66214-2289,US,38.95038605,-94.71886444,2022-12-05 05:53:35
Target,8509 State Line Rd,,Kansas City,MO,64114-2723,US,38.97247314,-94.6071167,2022-12-05 05:53:35
Target,15345 W 119th St,,Olathe,KS,66062-1074,US,38.91068649,-94.7644043,2022-12-05 05:53:35
Target,12200 Blue Valley Pkwy,,Overland Park,KS,66213-2639,US,38.90819931,-94.67465973,2022-12-05 05:53:35
Target,9220 NE Barry Rd,,Kansas City,MO,64157-1209,US,39.24737549,-94.46337128,2022-12-05 05:53:35
Target,20255 W 154th St,,Olathe,KS,66062-7055,US,38.84894943,-94.81993866,2022-12-05 05:53:35
Target,8101 W 151st,,Overland Park,KS,66223-2113,US,38.85366821,-94.68199158,2022-12-05 05:53:35
Target,1201 W 136th St,,Kansas City,MO,64145-1647,US,38.88008499,-94.60723114,2022-12-05 05:53:35
Target,17810 E 39th St S,,Independence,MO,64055-3870,US,39.05072403,-94.3692627,2022-12-05 05:53:35
Target,1850 NW Chipman Rd,,Lees Summit,MO,64081-3938,US,38.93115234,-94.40894318,2022-12-05 05:53:35
Target,3201 S Iowa St,,Lawrence,KS,66046-5205,US,38.92553711,-95.26351166,2022-12-05 05:53:35
Target,1040 NE CORONADO,,Blue Springs,MO,64014-2971,US,39.0237999,-94.24886322,2022-12-05 05:53:35
Target,5201 N Belt Hwy,Ste H,St. Joseph,MO,64506-1297,US,39.81546783,-94.81235504,2022-12-05 05:53:35
Target,2120 SW Wanamaker Rd,,Topeka,KS,66614-5231,US,39.02821732,-95.75966644,2022-12-05 05:53:35
Target,800 Commons Pl,,Manhattan,KS,66503-3001,US,39.17175674,-96.60534668,2022-12-05 05:53:36
Target,5220 Jimmy Lee Smith Pkwy,,Hiram,GA,30141-2739,US,33.88581467,-84.74421692,2022-12-05 05:53:35
Target,2331 E Lincoln Hwy,,Langhorne,PA,19047-1812,US,40.17650223,-74.87843323,2022-12-05 05:53:38
Target,2340 Highway 77,,Panama City,FL,32405-4404,US,30.19123077,-85.64915466,2022-12-05 05:53:37
Target,15555 Starfish St,,Panama City Beach,FL,32413-2457,US,30.21978188,-85.86868286,2022-12-05 05:53:36
Target,500 Nassau Park Blvd,,Princeton,NJ,08540-5991,US,40.30613708,-74.67704773,2022-12-05 05:53:38
Target,3767 Las Vegas Blvd S Ste 100,,Las Vegas,NV,89109-4308,US,36.10474396,-115.17255402,2022-12-05 05:53:41
Target,4001 S Maryland Pkwy,,Las Vegas,NV,89119-7556,US,36.11654282,-115.13886261,2022-12-05 05:53:41
Target,3550 S Rainbow Blvd,,Las Vegas,NV,89103-1004,US,36.12440109,-115.24199677,2022-12-05 05:53:41
Target,8750 W Charleston Blvd,,Las Vegas,NV,89117-5452,US,36.16108704,-115.28713226,2022-12-05 05:53:40
Target,3210 N Tenaya Way,,Las Vegas,NV,89129-6239,US,36.21953964,-115.25,2022-12-05 05:53:40
Target,1200 S Nellis Blvd,,Las Vegas,NV,89104-5752,US,36.15805817,-115.06095886,2022-12-05 05:53:41
Target,4100 Blue Diamond Rd,,Las Vegas,NV,89139-7717,US,36.04072189,-115.19464111,2022-12-05 05:53:41
Target,4155 S Grand Canyon Dr,,Las Vegas,NV,89147-7123,US,36.11447144,-115.31112671,2022-12-05 05:53:40
Target,6371 N Decatur Blvd,,Las Vegas,NV,89130-8001,US,36.27298737,-115.20948029,2022-12-05 05:53:40
Target,605 N Stephanie St,,Henderson,NV,89014-2612,US,36.06505966,-115.04771423,2022-12-05 05:53:41
Target,9725 S Eastern Ave,,Las Vegas,NV,89183-6841,US,36.01211929,-115.12179565,2022-12-05 05:53:41
Target,6480 Sky Pointe Dr,,Las Vegas,NV,89131-4038,US,36.28043747,-115.26374054,2022-12-05 05:53:40
Target,7090 N 5th St,,North Las Vegas,NV,89084-1333,US,36.28866959,-115.13309479,2022-12-05 05:53:40
Target,695 S Green Valley Pkwy,,Henderson,NV,89052-0404,US,36.0033989,-115.08518219,2022-12-05 05:53:41
Target,350 W Lake Mead Pkwy,,Henderson,NV,89015-7088,US,36.03847885,-114.99409485,2022-12-05 05:53:41
Target,3699 Hwy 95,,Bullhead City,AZ,86442-9119,US,35.0519371,-114.59210205,2022-12-05 05:53:42
Target,4001 N Midland Dr,,Midland,TX,79707-3534,US,32.02379608,-102.14545441,2022-12-05 05:53:37
Target,3909 E 42nd St,,Odessa,TX,79762-5939,US,31.89193916,-102.34781647,2022-12-05 05:53:37
Target,4235 Sunset Dr,,San Angelo,TX,76904-5653,US,31.43187523,-100.50124359,2022-12-05 05:53:35
Target,7302 University Ave,,Lubbock,TX,79423-1423,US,33.52800751,-101.87229919,2022-12-05 05:53:39
Target,6064 Marsha Sharp Freeway,,Lubbock,TX,79407-3726,US,33.54779434,-101.95327759,2022-12-05 05:53:39
Target,5001 University Towne Center Dr,,Morgantown,WV,26501-2267,US,39.64943314,-80.00099945,2022-12-05 05:53:35
Target,2800 Meadowbrook Mall,,Bridgeport,WV,26330-9795,US,39.31182861,-80.27442169,2022-12-05 05:53:35
Target,11120 Lomas Blvd NE,,Albuquerque,NM,87112-5582,US,35.08552933,-106.52785492,2022-12-05 05:53:39
Target,8510 Montgomery Blvd NE,,Albuquerque,NM,87111-2307,US,35.13003159,-106.54799652,2022-12-05 05:53:39
Target,2120 Louisiana Blvd NE,,Albuquerque,NM,87110-5402,US,35.10158157,-106.56808472,2022-12-05 05:53:39
Target,6100 Paseo Del Norte NE,,Albuquerque,NM,87113-1512,US,35.17274857,-106.58200073,2022-12-05 05:53:39
Target,9371 Coors Blvd NW,,Albuquerque,NM,87114-4005,US,35.18603897,-106.66426086,2022-12-05 05:53:39
Target,4225 Crestview Dr,,Rio Rancho,NM,87124-5903,US,35.25242615,-106.65139008,2022-12-05 05:53:39
Target,3550 Zafarano Dr,,Santa Fe,NM,87507-2606,US,35.63935089,-106.01286316,2022-12-05 05:53:39
Target,2823 Wilma Rudolph Blvd,,Clarksville,TN,37040-5002,US,36.58675385,-87.29208374,2022-12-05 05:53:35
Target,907 W McDermott Dr,,Allen,TX,75013-6503,US,33.09954071,-96.68128967,2022-12-05 05:53:37
Target,150 E Stacy Rd,Ste 2400,Allen,TX,75002-8756,US,33.12351608,-96.66208649,2022-12-05 05:53:37
Target,1200 N Sepulveda Blvd,,Manhattan Beach,CA,90266-5104,US,33.88891983,-118.3948288,2022-12-05 05:53:38
Target,1601 Kingsdale Ave,,Redondo Beach,CA,90278-3928,US,33.86930847,-118.35704803,2022-12-05 05:53:38
Target,14310 Hawthorne Blvd,,Lawndale,CA,90260-1515,US,33.90149307,-118.35070801,2022-12-05 05:53:38
Target,8900 S Sepulveda Blvd,,Los Angeles,CA,90045-3604,US,33.95570755,-118.3957901,2022-12-05 05:53:38
Target,2169 W Redondo Beach Blvd,,Gardena,CA,90247-3625,US,33.88667679,-118.31607819,2022-12-05 05:53:41
Target,2700 W 120th St,,Hawthorne,CA,90250-3388,US,33.92256546,-118.32112885,2022-12-05 05:53:38
Target,3433 Sepulveda Blvd,,Torrance,CA,90505-2606,US,33.82645035,-118.34598541,2022-12-05 05:53:41
Target,3471 W Century Blvd,,Inglewood,CA,90301-1218,US,33.94802475,-118.3328476,2022-12-05 05:53:38
Target,6000 Sepulveda Blvd,Ste 2250,Culver City,CA,90230-6423,US,33.98529816,-118.39469147,2022-12-05 05:53:38
Target,10820 Jefferson Blvd,,Culver City,CA,90230-4935,US,33.99913406,-118.39403534,2022-12-05 05:53:38
Target,43 Peninsula Ctr,,Rolling Hills Estates,CA,90274-3583,US,33.77342224,-118.37661743,2022-12-05 05:53:41
Target,651 W Sepulveda Blvd,,Carson,CA,90745-6314,US,33.80923843,-118.28600311,2022-12-05 05:53:41
Target,20700 S Avalon Blvd,Ste 700,Carson,CA,90746-3701,US,33.84317017,-118.26062012,2022-12-05 05:53:41
Target,3535 S La Cienega Blvd,,Los Angeles,CA,90016-4407,US,34.02270126,-118.3730011,2022-12-05 05:53:38
Target,1621 S Alameda St,,Compton,CA,90220-4973,US,33.87965393,-118.21894073,2022-12-05 05:53:41
Target,420 Broadway,,Santa Monica,CA,90401-2314,US,34.01541519,-118.49267578,2022-12-05 05:53:38
Target,1701 N Gaffey St,,San Pedro,CA,90731-1274,US,33.76008606,-118.29347229,2022-12-05 05:53:41
Target,1833A LaCienega Blvd,,Los Angeles,CA,90035-4664,US,34.04425812,-118.37915802,2022-12-05 05:53:38
Target,1610 Wilshire Blvd,,Santa Monica,CA,90403-5508,US,34.02832794,-118.48649597,2022-12-05 05:53:38
Target,11840 W. Santa Monica Blvd,,Los Angeles,CA,90025-2202,US,34.04352951,-118.45657349,2022-12-05 05:53:38
Target,3131 S HOOVER ST STE 1910,,LOS ANGELES,CA,90089-1910,US,34.02430725,-118.28511047,2022-12-05 05:53:35
Target,"1302 S. La Brea Ave, Ste A",,Los Angeles,CA,90019-2909,US,34.0496788,-118.34374237,2022-12-05 05:53:38
Target,10861 Weyburn Ave,,Los Angeles,CA,90024-2957,US,34.06302643,-118.44419861,2022-12-05 05:53:38
Target,415 S LaBrea Ave,,Los Angeles,CA,90036-3523,US,34.06661987,-118.34435272,2022-12-05 05:53:35
Target,8480 Beverly Blvd Ste 1A,,Los Angeles,CA,90048-3414,US,34.07429886,-118.37550354,2022-12-05 05:53:35
Target,6750 Cherry Ave,,Long Beach,CA,90805-1717,US,33.87757111,-118.16663361,2022-12-05 05:53:41
Target,950 E 33rd St,,Signal Hill,CA,90755-5114,US,33.81681824,-118.18216705,2022-12-05 05:53:41
Target,735 S Figueroa St,,Los Angeles,CA,90017-2571,US,34.04883194,-118.26100922,2022-12-05 05:53:35
Target,620 S Virgil Ave Ste 100,,Los Angeles,CA,90005-4080,US,34.06264114,-118.28613281,2022-12-05 05:53:35
Target,5700 Firestone Blvd,,South Gate,CA,90280-3704,US,33.9483757,-118.1674881,2022-12-05 05:53:41
Target,5622 Amanda Ln,,Orchard Park,NY,14127-1555,US,42.79208374,-78.78372955,2022-12-05 05:53:35
Target,2626 Delaware Ave,,Buffalo,NY,14216-1737,US,42.95580292,-78.87375641,2022-12-05 05:53:40
Target,1750 Walden Ave,,Cheektowaga,NY,14225-4925,US,42.91092682,-78.77262115,2022-12-05 05:53:39
Target,4920 Transit Rd,,Depew,NY,14043-4625,US,42.87932587,-78.69833374,2022-12-05 05:53:39
Target,7414 Niagara Falls Blvd,,Niagara Falls,NY,14304-1720,US,43.08976364,-78.97983551,2022-12-05 05:53:40
Target,1575 Niagara Falls Blvd,,Amherst,NY,14228-2704,US,42.99858856,-78.81866455,2022-12-05 05:53:40
Target,8290 Transit Rd,,Williamsville,NY,14221-2820,US,42.99465942,-78.69850159,2022-12-05 05:53:39
Target,11990 Business Park Blvd N,,Champlin,MN,55316-2005,US,45.17234421,-93.38848114,2022-12-05 05:53:39
Target,625 3rd Ave Ext,,Rensselaer,NY,12144-5618,US,42.64482498,-73.70046234,2022-12-05 05:53:36
Target,675 Troy Schenectady Rd,,Latham,NY,12110-2459,US,42.75649643,-73.77108002,2022-12-05 05:53:36
Target,1440 Central Ave,,Colonie,NY,12205-5118,US,42.70580673,-73.8239212,2022-12-05 05:53:36
Target,26 Crossing Blvd,,Clifton Park,NY,12065-4180,US,42.85760117,-73.77241516,2022-12-05 05:53:36
Target,428 Balltown Rd,,Schenectady,NY,12304-2245,US,42.77571106,-73.89009857,2022-12-05 05:53:36
Target,204 Saratoga Rd,,Schenectady,NY,12302-4509,US,42.8666153,-73.93092346,2022-12-05 05:53:36
Target,3031 Route 50,,Saratoga Springs,NY,12866-2926,US,43.09939575,-73.74382782,2022-12-05 05:53:36
Target,100 Amsterdam Commons,,Amsterdam,NY,12010-7565,US,42.965271,-74.19021606,2022-12-05 05:53:35
Target,578 Aviation Rd,Ste 1S,Queensbury,NY,12804-1803,US,43.3278923,-73.67854309,2022-12-05 05:53:36
Target,1 Sangertown Sq Ste 3,,New Hartford,NY,13413-1595,US,43.08364487,-75.31515503,2022-12-05 05:53:36
Target,10621 Carmenita Rd,,Santa Fe Springs,CA,90670-4017,US,33.93793106,-118.04799652,2022-12-05 05:53:41
Target,7530 Orangethorpe Ave,,Buena Park,CA,90621-3429,US,33.85767365,-118.00106812,2022-12-05 05:53:41
Target,8800 Whittier Blvd,,Pico Rivera,CA,90660-2658,US,34.00112534,-118.08599854,2022-12-05 05:53:35
Target,12051 Imperial Hwy,,Norwalk,CA,90650-3084,US,33.91796112,-118.07613373,2022-12-05 05:53:41
Target,3600 Rosemead Blvd,,Rosemead,CA,91770-2066,US,34.07495117,-118.07006836,2022-12-05 05:53:35
Target,1050 Huntington Dr,,Duarte,CA,91010-2475,US,34.13810349,-117.98291779,2022-12-05 05:53:35
Target,10600 Firestone Blvd,,Norwalk,CA,90650-7410,US,33.92513275,-118.10704803,2022-12-05 05:53:41
Target,20200 Bloomfield Ave,,Cerritos,CA,90703-7821,US,33.84715652,-118.06256866,2022-12-05 05:53:41
Target,12100 Harbor Blvd,,Garden Grove,CA,92840-4004,US,33.78702927,-117.91361237,2022-12-05 05:53:41
Target,79 Commerce Way,,Seekonk,MA,02771-5816,US,41.79605865,-71.3211441,2022-12-05 05:53:35
Target,579 GAR Hwy,Ste 5,Swansea,MA,02777-4587,US,41.7490654,-71.20742798,2022-12-05 05:53:35
Target,479 State Rd,,North Dartmouth,MA,02747-4309,US,41.63729095,-71.00326538,2022-12-05 05:53:35
Target,81 Taunton Depot Dr,,Taunton,MA,02780-6915,US,41.87774277,-71.06858063,2022-12-05 05:53:35
Target,2421 Cranberry Hwy,Ste 110,Wareham,MA,02571-5022,US,41.7736702,-70.74555969,2022-12-05 05:53:38
Target,101 Independence Mall Way,,Kingston,MA,02364-3048,US,41.97112656,-70.71685791,2022-12-05 05:53:38
Target,4200 S Medford Dr,,Lufkin,TX,75901-5644,US,31.3134346,-94.72006989,2022-12-05 05:53:35
Target,3100 Highway 365 Ste 90,,Port Arthur,TX,77642-7796,US,29.9457016,-93.98899841,2022-12-05 05:53:38
Target,4300 Veterans Memorial Dr,,Batavia,NY,14020-1258,US,43.01599121,-78.20199585,2022-12-05 05:53:39
Target,600 Greece Ridge Center Dr,,Rochester,NY,14626-2825,US,43.20240021,-77.6929245,2022-12-05 05:53:39
Target,5425 S Padre Island Dr,Ste 125,Corpus Christi,TX,78411-5301,US,27.70682144,-97.37401581,2022-12-05 05:53:42
Target,3857 State Route 31,,Liverpool,NY,13090-1309,US,43.18779755,-76.24710846,2022-12-05 05:53:38
Target,8061 Brewerton Rd,,Cicero,NY,13039-8061,US,43.16181564,-76.12258148,2022-12-05 05:53:38
Target,4554 Virginia Beach Blvd,Ste 500,Virginia Beach,VA,23462-3004,US,36.84462357,-76.13343811,2022-12-05 05:53:36
Target,1316 Greenbrier Pkwy,,Chesapeake,VA,23320-0605,US,36.77176666,-76.23176575,2022-12-05 05:53:36
Target,2060 S Independence Blvd,,Virginia Beach,VA,23453-4747,US,36.78868866,-76.10902405,2022-12-05 05:53:36
Target,525 First Colonial Rd,,Virginia Beach,VA,23451-6119,US,36.84671783,-76.02288055,2022-12-05 05:53:36
Target,2233 Upton Dr,,Virginia Beach,VA,23454-1186,US,36.75582123,-76.00978851,2022-12-05 05:53:36
Target,233 Carmichael Way,,Chesapeake,VA,23322-2182,US,36.65901184,-76.23403931,2022-12-05 05:53:36
Target,1290 N State St,,Provo,UT,84604-6432,US,40.25161362,-111.66635132,2022-12-05 05:53:37
Target,175 W Center St,,Orem,UT,84057-4607,US,40.29589844,-111.69924164,2022-12-05 05:53:37
Target,5600 Whittier Blvd,,Commerce,CA,90022-4106,US,34.01820374,-118.15080261,2022-12-05 05:53:35
Target,"330 N Westlake Ave, Unit 500",,Los Angeles,CA,90026-7734,US,34.06928253,-118.26593781,2022-12-05 05:53:35
Target,2120 W Main St,,Alhambra,CA,91801-1856,US,34.0909462,-118.14749908,2022-12-05 05:53:35
Target,4211 Eagle Rock Blvd,,Los Angeles,CA,90065-4404,US,34.12293625,-118.22514343,2022-12-05 05:53:35
Target,141 Lakewood Center Mall,,Lakewood,CA,90712-2419,US,33.85303879,-118.13981628,2022-12-05 05:53:41
Target,5500 W Sunset Blvd,,Los Angeles,CA,90028-8522,US,34.09796906,-118.30943298,2022-12-05 05:53:35
Target,11525 South St,,Cerritos,CA,90703-6627,US,33.85929489,-118.0879364,2022-12-05 05:53:41
Target,2626 Colorado Blvd,,Los Angeles,CA,90041-1070,US,34.14166641,-118.22433472,2022-12-05 05:53:35
Target,777 E Colorado Blvd,,Pasadena,CA,91101-2104,US,34.14677048,-118.13500214,2022-12-05 05:53:35
Target,2195 Glendale Galleria,,Glendale,CA,91210-2101,US,34.14308167,-118.25908661,2022-12-05 05:53:35
Target,2400 Bernadette Dr,,Columbia,MO,65203-4616,US,38.96435928,-92.37696075,2022-12-05 05:53:37
Target,919 Highway D,,Osage Beach,MO,65065-3169,US,38.1618042,-92.60426331,2022-12-05 05:53:42
Target,735 W Stadium Blvd,,Jefferson City,MO,65109-4753,US,38.57938004,-92.21424103,2022-12-05 05:53:37
Target,1240 Broadway,,Chula Vista,CA,91911-2911,US,32.60457993,-117.08042908,2022-12-05 05:53:40
Target,3060 Plaza Bonita Rd,,National City,CA,91950-8004,US,32.65449905,-117.064888,2022-12-05 05:53:40
Target,910 Eastlake Pkwy,,Chula Vista,CA,91914-3558,US,32.65051651,-116.96845245,2022-12-05 05:53:40
Target,3030 Grape St,,San Diego,CA,92102-1134,US,32.72686005,-117.12904358,2022-12-05 05:53:40
Target,935 Sweetwater Rd Ste 101,,Spring Valley,CA,91977-4837,US,32.71336365,-117.01093292,2022-12-05 05:53:40
Target,3029 University Ave,,San Diego,CA,92104-3036,US,32.74836731,-117.1289444,2022-12-05 05:53:40
Target,3424 College Ave,,San Diego,CA,92115-7134,US,32.74126053,-117.05552673,2022-12-05 05:53:40
Target,3245 Sports Arena Blvd,,San Diego,CA,92110-4529,US,32.7518959,-117.21024323,2022-12-05 05:53:40
Target,1288 Camino Del Rio N,,San Diego,CA,92108-1511,US,32.76756287,-117.15090179,2022-12-05 05:53:40
Target,4864 Newport Ave,,San Diego,CA,92107-3111,US,32.7453804,-117.2484436,2022-12-05 05:53:40
Target,5500 Grossmont Ctr Dr,Ste 1,La Mesa,CA,91942-3015,US,32.77971649,-117.01230621,2022-12-05 05:53:40
Target,2911 Jamacha Rd,,El Cajon,CA,92019-4342,US,32.73879623,-116.93852997,2022-12-05 05:53:40
Target,8001 Othello Ave,,San Diego,CA,92111-3713,US,32.8163681,-117.15100098,2022-12-05 05:53:40
Target,5680 Balboa Ave,,San Diego,CA,92111-2702,US,32.82204819,-117.17929077,2022-12-05 05:53:40
Target,250 Broadway,,El Cajon,CA,92021-4539,US,32.80927277,-116.95899963,2022-12-05 05:53:40
Target,9846 Mission Gorge Rd,,Santee,CA,92071-3834,US,32.84193802,-116.98300934,2022-12-05 05:53:40
Target,9500 Gilman Dr,,La Jolla,CA,92093-5004,US,32.87972641,-117.23680878,2022-12-05 05:53:40
Target,8251 Mira Mesa Blvd,,San Diego,CA,92126-2603,US,32.91081238,-117.14631653,2022-12-05 05:53:40
Target,14823 Pomerado Rd,,Poway,CA,92064-2803,US,32.98058319,-117.06086731,2022-12-05 05:53:35
Target,17170 Camino Del Sur,,San Diego,CA,92127-4166,US,33.0201683,-117.12563324,2022-12-05 05:53:35
Target,280 E Via Rancho Pkwy,,Escondido,CA,92025-8005,US,33.06992722,-117.06529236,2022-12-05 05:53:35
Target,1010 N El Camino Real,,Encinitas,CA,92024-1320,US,33.06304169,-117.26470947,2022-12-05 05:53:40
Target,1280 Auto Park Way,,Escondido,CA,92029-2231,US,33.11310577,-117.09963226,2022-12-05 05:53:35
Target,3150 Business Park Dr,,Vista,CA,92081-8520,US,33.13671112,-117.22851562,2022-12-05 05:53:35
Target,1751 University Dr,,Vista,CA,92083-7775,US,33.16915512,-117.2143631,2022-12-05 05:53:35
Target,2255 S El Camino Real,,Oceanside,CA,92054-6318,US,33.18402481,-117.32969666,2022-12-05 05:53:35
Target,443 College Blvd,,Oceanside,CA,92057-5435,US,33.24703979,-117.29322815,2022-12-05 05:53:35
Target,29676 Rancho California Rd,,Temecula,CA,92591-5283,US,33.50629425,-117.14635468,2022-12-05 05:53:35
Target,990 Avenida Vista Hermosa,,San Clemente,CA,92673-6360,US,33.46310806,-117.60673523,2022-12-05 05:53:35
Target,41040 California Oaks Rd,,Murrieta,CA,92562-5749,US,33.56564331,-117.20391083,2022-12-05 05:53:35
Target,6835 Katella Ave,,Cypress,CA,90630-5107,US,33.80373001,-118.01290131,2022-12-05 05:53:41
Target,12300 Seal Beach Blvd,,Seal Beach,CA,90740-2709,US,33.78265381,-118.06999969,2022-12-05 05:53:41
Target,13831 Brookhurst St,,Garden Grove,CA,92843-3120,US,33.76150131,-117.95591736,2022-12-05 05:53:41
Target,200 Westminster Mall,,Westminster,CA,92683-4984,US,33.74561691,-118.01226044,2022-12-05 05:53:41
Target,2270 N Bellflower Blvd,,Long Beach,CA,90815-2017,US,33.79843903,-118.12323761,2022-12-05 05:53:41
Target,5760 E 7TH ST,,Long Beach,CA,90803-2002,US,33.7743988,-118.11966705,2022-12-05 05:53:41
Target,16400 Beach Blvd,,Westminster,CA,92683-7858,US,33.72538376,-117.98628998,2022-12-05 05:53:41
Target,1441 W 17th St,,Santa Ana,CA,92706-3301,US,33.76145935,-117.88748169,2022-12-05 05:53:41
Target,19041 Beach Blvd,,Huntington Beach,CA,92648-2305,US,33.68608093,-117.99042511,2022-12-05 05:53:41
Target,2707 Schofield Ave,,Schofield,WI,54476-2430,US,44.90671921,-89.59130859,2022-12-05 05:53:36
Target,4001 Phoenix Ave,,Fort Smith,AR,72903-6099,US,35.34100342,-94.38812256,2022-12-05 05:53:39
Target,3130 S Airport Rd W,,Traverse City,MI,49684-8995,US,44.72535324,-85.63777161,2022-12-05 05:53:38
Target,32858 FM 2978 Rd,,Magnolia,TX,77354-6073,US,30.21687889,-95.56529236,2022-12-05 05:53:36
Target,259 Interstate 45 S,,Huntsville,TX,77340-4903,US,30.70689011,-95.56624603,2022-12-05 05:53:36
Target,2725 N Main St,,Roswell,NM,88201-6512,US,33.42776108,-104.52178955,2022-12-04 18:43:16
Target,4400 Centerplace Dr,,Greeley,CO,80634-3756,US,40.39387512,-104.75054932,2022-12-05 05:53:41
Target,1725 Rocky Mountain Ave,,Loveland,CO,80538-8851,US,40.4092865,-105.00449371,2022-12-05 05:53:41
Target,2936 Council Tree Ave,,Fort Collins,CO,80525-6300,US,40.52709961,-105.02242279,2022-12-05 05:53:41
Target,105 W Troutman Pkwy,,Fort Collins,CO,80525-3038,US,40.52732468,-105.07853699,2022-12-05 05:53:41
Target,460 S College Ave,,Fort Collins,CO,80524-2992,US,40.58231735,-105.0762558,2022-12-05 05:53:41
Target,551 S Hover Rd,,Longmont,CO,80501-7920,US,40.15301895,-105.13400269,2022-12-05 05:53:41
Target,1708 Dell Range Blvd,,Cheyenne,WY,82009-4945,US,41.16166687,-104.79967499,2022-12-05 05:53:41
Target,15300 Grove Circle N,,Maple Grove,MN,55369-4469,US,45.13620758,-93.47442627,2022-12-05 05:53:39
Target,21615 S Diamond Lake Rd,,Rogers,MN,55374-8893,US,45.19775009,-93.55463409,2022-12-05 05:53:39
Target,503 I 45 N,,Conroe,TX,77304-2331,US,30.31431389,-95.47385406,2022-12-05 05:53:36
Target,160-08 Jamaica Ave,,Jamaica,NY,11432-6110,US,40.70379257,-73.79858398,2022-12-05 05:53:35
Target,1995 E Market St,,Harrisonburg,VA,22801-3433,US,38.42587662,-78.84300232,2022-12-05 05:53:38
Target,2400 10th St SW,,Minot,ND,58701-2013,US,48.20710754,-101.31339264,2022-12-03 04:28:36
Target,1150 Seaboard St,,Myrtle Beach,SC,29577-6517,US,33.71343994,-78.89357758,2022-12-05 05:53:37
Target,140 Sayebrook Pkwy,,Myrtle Beach,SC,29588-6834,US,33.65393448,-78.98049164,2022-12-05 05:53:37
Target,1615 N State Route 50,,Bourbonnais,IL,60914-9303,US,41.17396164,-87.85372925,2022-12-05 05:53:36
Target,3710 Ridgemont Dr,,Abilene,TX,79606-2726,US,32.4054184,-99.76725769,2022-12-05 05:53:35
Target,6365 I 55 N,,Jackson,MS,39213-9742,US,32.39855957,-90.14781952,2022-12-05 05:53:38
Target,170 Promenade Blvd,,Flowood,MS,39232-8017,US,32.34333801,-90.06062317,2022-12-05 05:53:38
Target,"17401 Ventura Blvd, Unit A1",,Encino,CA,91316-3860,US,34.16164017,-118.5127182,2022-12-05 05:53:38
Target,5711 Sepulveda Blvd,,Van Nuys,CA,91411-2918,US,34.17523575,-118.46651459,2022-12-05 05:53:35
Target,14920 Raymer St,,Van Nuys,CA,91405-1146,US,34.21268845,-118.46022034,2022-12-05 05:53:35
Target,20801 Ventura Blvd,,Woodland Hills,CA,91364-2319,US,34.16708755,-118.58557129,2022-12-05 05:53:38
Target,8999 Balboa Blvd,,Northridge,CA,91325-2608,US,34.2347908,-118.50299835,2022-12-05 05:53:35
Target,8840 Corbin Ave,,Northridge,CA,91324-3309,US,34.23080063,-118.56080627,2022-12-05 05:53:38
Target,6700 Topanga Canyon Blvd,,Canoga Park,CA,91303-2624,US,34.19163895,-118.60299683,2022-12-05 05:53:38
Target,11051 Victory Blvd,,North Hollywood,CA,91606-3719,US,34.18815994,-118.37164307,2022-12-05 05:53:35
Target,10340 N Sepulveda Blvd,,Mission Hills,CA,91345-2422,US,34.25772858,-118.46665955,2022-12-05 05:53:35
Target,9725 Laurel Canyon Blvd,,Pacoima,CA,91331-4100,US,34.24573517,-118.41926575,2022-12-05 05:53:35
Target,6635 Fallbrook Ave,,West Hills,CA,91307-3520,US,34.19090652,-118.62644196,2022-12-05 05:53:38
Target,1033 N Hollywood Way,,Burbank,CA,91505-2540,US,34.16904068,-118.34799957,2022-12-05 05:53:35
Target,11133 Balboa Blvd,,Granada Hills,CA,91344-4204,US,34.27333832,-118.50293732,2022-12-05 05:53:35
Target,"7021 Hollywood Blvd, #210",,Los Angeles,CA,90028-6034,US,34.10194778,-118.34267426,2022-12-05 05:53:35
Target,"7100 Santa Monica Blvd, STE 201",,West Hollywood,CA,90046-5896,US,34.09034348,-118.34463501,2022-12-05 05:53:35
Target,1800 W Empire Ave,,Burbank,CA,91504-3403,US,34.18962097,-118.33000183,2022-12-05 05:53:35
Target,999 Corporate Dr,,Westbury,NY,11590-6614,US,40.74154663,-73.59990692,2022-12-05 05:53:36
Target,248 Sunrise Hwy,,Freeport,NY,11520-3943,US,40.65579987,-73.57160187,2022-12-05 05:53:36
Target,101 Shore Rd,,Port Washington,NY,11050-2259,US,40.84120178,-73.70446014,2022-12-05 05:53:35
Target,1730 Hempstead TPK,,Elmont,NY,11003-1856,US,40.70869827,-73.70379639,2022-12-05 05:53:35
Target,110 W Meadows Dr,,Glenwood Springs,CO,81601-9516,US,39.5558548,-107.34378052,2022-12-05 05:53:35
Target,715 Blue River Pkwy,,Silverthorne,CO,80498-9224,US,39.63725281,-106.07766724,2022-12-05 05:53:35
Target,3530 Wolverine Dr,,Montrose,CO,81401-4952,US,38.4437561,-107.86855316,2022-12-05 05:53:43
Target,2424 Highway 6 and 50 Ste C,,Grand Junction,CO,81505-1103,US,39.0928688,-108.60118103,2022-12-05 05:53:35
Target,8201 I-40 W,,Amarillo,TX,79121-1104,US,35.18566132,-101.93469238,2022-12-05 05:53:41
Target,7003 S Broadway Ave,,Tyler,TX,75703-4737,US,32.27342987,-95.30905151,2022-12-05 05:53:35
Target,3092 N Eastman Rd,Ste 100,Longview,TX,75605-5093,US,32.54863739,-94.72480011,2022-12-05 05:53:35
Target,2735 Beene Blvd,,Bossier City,LA,71111-5491,US,32.55901718,-93.7070694,2022-12-05 05:53:35
Target,749 N KROCKS RD,,ALLENTOWN,PA,18106-9046,US,40.56618881,-75.56085968,2022-12-05 05:53:38
Target,1600 N Cedar Crest Blvd,,Allentown,PA,18104-2318,US,40.61271286,-75.53503418,2022-12-05 05:53:38
Target,912 Airport Center Dr,,Allentown,PA,18109-9385,US,40.63911057,-75.43959808,2022-12-05 05:53:37
Target,610 N West End Blvd,,Quakertown,PA,18951-4100,US,40.45912552,-75.37273407,2022-12-05 05:53:38
Target,3835 Dryland Way,,Easton,PA,18045-8208,US,40.71268082,-75.28813934,2022-12-05 05:53:37
Target,4220 N 5th Street Hwy,,Temple,PA,19560-1738,US,40.39729309,-75.92887115,2022-12-05 05:53:37
Target,100 Upland Square Dr,,Pottstown,PA,19464-1575,US,40.26905823,-75.65629578,2022-12-05 05:53:37
Target,4599 Perkiomen Ave,,Reading,PA,19606-3201,US,40.30832672,-75.85942078,2022-12-05 05:53:37
Target,1204 New Brunswick Ave,,Phillipsburg,NJ,08865-4124,US,40.67357635,-75.13452148,2022-12-05 05:53:37
Target,2769 Papermill Rd,,Wyomissing,PA,19610-3329,US,40.35943604,-75.98337555,2022-12-05 05:53:37
Target,155 Mountaineer Dr,,Stroudsburg,PA,18360-8170,US,40.99643326,-75.2448349,2022-12-05 05:53:37
Target,200 Promenade Blvd,,Bridgewater,NJ,08807-3456,US,40.56236267,-74.5531311,2022-12-05 05:53:37
Target,1515 US Highway 22,,Watchung,NJ,07069-6509,US,40.6415329,-74.42184448,2022-12-05 05:53:37
Target,2690 US Hwy 22 E,,Union,NJ,07083-8512,US,40.68704987,-74.30886078,2022-12-05 05:53:37
Target,15272 Summit Ave,,Fontana,CA,92336-0231,US,34.15215302,-117.47296143,2022-12-05 05:53:35
Target,16964 Slover Ave,,Fontana,CA,92337-7556,US,34.06497955,-117.43457031,2022-12-05 05:53:35
Target,3520 Tyler St,,Riverside,CA,92503-4175,US,33.90691376,-117.45962524,2022-12-05 05:53:35
Target,3333 Arlington Ave,,Riverside,CA,92506-3252,US,33.9473877,-117.38243103,2022-12-05 05:53:35
Target,499 W Orange Show Rd,,San Bernardino,CA,92408-2029,US,34.07871628,-117.29184723,2022-12-05 05:53:35
Target,2755 Canyon Springs Pkwy,,Riverside,CA,92507-0932,US,33.93891525,-117.28173828,2022-12-05 05:53:35
Target,27320 W Lugonia Ave,,Redlands,CA,92374-2041,US,34.07191467,-117.20690918,2022-12-05 05:53:35
Target,60 Longview Dr,,Bangor,ME,04401-3629,US,44.84218979,-68.74156189,2022-12-05 05:53:35
Target,111 Pioneer Trl,,Chaska,MN,55318-1121,US,44.82705688,-93.60050964,2022-12-05 05:53:39
Target,875 E Main St,,Waconia,MN,55387-1081,US,44.84087372,-93.7703476,2022-12-05 05:53:39
Target,2541 E Lohman Ave,Ste A,Las Cruces,NM,88011-8233,US,32.31743622,-106.74420166,2022-12-05 05:53:38
Target,801 Sunland Park Dr,,El Paso,TX,79912-5209,US,31.81843948,-106.54829407,2022-12-05 05:53:38
Target,6001 W Gateway Blvd,,El Paso,TX,79925-3416,US,31.78315163,-106.41471863,2022-12-05 05:53:38
Target,1901 George Dieter Dr,,El Paso,TX,79936-3855,US,31.76981735,-106.30513763,2022-12-05 05:53:38
Target,1874 Joe Battle Blvd,,El Paso,TX,79936-0962,US,31.75918579,-106.26531219,2022-12-05 05:53:38
Target,1300 State Highway 55 NE,,Buffalo,MN,55313-4321,US,45.16430283,-93.85559082,2022-12-05 05:53:39
Target,1370 Highway 15 S,,Hutchinson,MN,55350-3801,US,44.86854553,-94.37782288,2022-12-05 05:53:40
Target,2505 1st St S,,Willmar,MN,56201-4215,US,45.0978508,-95.04135895,2022-12-05 05:53:40
Target,3121 E Colorado Blvd,,Pasadena,CA,91107-3814,US,34.14709854,-118.08575439,2022-12-05 05:53:35
Target,2000 9th Ave SE,,Watertown,SD,57201-5352,US,44.8886528,-97.08345032,2022-12-05 05:53:40
Target,793 Iyannough Rd,,Hyannis,MA,02601-5027,US,41.66692734,-70.2946167,2022-12-05 05:53:38
Target,600 Kirkwood Mall,,Bismarck,ND,58504-5704,US,46.7990799,-100.7835083,2022-12-03 02:51:18
Target,965 Town Center Dr.,,La Canada Flintridge,CA,91011-1638,US,34.20513153,-118.19927216,2022-12-05 05:53:35
Target,102 Richmond Ranch Rd,,Texarkana,TX,75503-1081,US,33.45792389,-94.09213257,2022-12-05 05:53:37
Target,1851 E Highway 69,,Prescott,AZ,86301-5665,US,34.54961014,-112.43177032,2022-12-05 05:53:39
Target,1415 Eglin St,,Rapid City,SD,57701-9504,US,44.09872055,-103.18844604,2022-12-05 05:53:35
Target,3600 Nolana Ave,,McAllen,TX,78504-4594,US,26.24456978,-98.25440216,2022-12-05 05:53:39
Target,2427 E Expressway 83,,Mission,TX,78572-8354,US,26.19720268,-98.28366852,2022-12-05 05:53:39
Target,7400 N 10th St,,Mcallen,TX,78504-7700,US,26.26848221,-98.21655273,2022-12-05 05:53:39
Target,708 E Expressway 83,,McAllen,TX,78503-1609,US,26.18636894,-98.21305847,2022-12-05 05:53:39
Target,1910 Bob Bullock Loop,,Laredo,TX,78043-9733,US,27.51610947,-99.45180511,2022-12-05 05:53:37
Target,7501 San Dario Ave,,Laredo,TX,78045-7207,US,27.56958389,-99.49993134,2022-12-05 05:53:37
Target,1002 Dixieland Rd,,Harlingen,TX,78552-5913,US,26.18300629,-97.72171783,2022-12-05 05:53:39
Target,1850 Adams St,,Mankato,MN,56001-4864,US,44.17292404,-93.95142365,2022-12-05 05:53:40
Target,6845 Sierra Center Pkwy,,Reno,NV,89511-2214,US,39.46353149,-119.78096771,2022-12-04 14:03:45
Target,1550 E Lincoln Way,,Sparks,NV,89434-8989,US,39.53543472,-119.71688843,2022-12-04 14:03:45
Target,910 Jacks Valley Rd,,Carson City,NV,89705-6936,US,39.09992981,-119.77754211,2022-12-04 14:03:45
Target,3968 Missouri Flat Rd,,Placerville,CA,95667-5240,US,38.71033478,-120.84333801,2022-12-04 18:43:16
Target,2700 Bell Rd,,Auburn,CA,95603-2508,US,38.94345856,-121.09590912,2022-12-05 05:53:38
Target,5104 Commons Dr,,Rocklin,CA,95677-3911,US,38.80495071,-121.20869446,2022-12-05 05:53:38
Target,4400 Town Center Blvd,,El Dorado Hills,CA,95762-7130,US,38.65021515,-121.06288147,2022-12-05 05:53:38
Target,950 Groveland Ln,,Lincoln,CA,95648-8041,US,38.87046814,-121.3037796,2022-12-05 05:53:38
Target,430 Blue Ravine Rd,,Folsom,CA,95630-3402,US,38.67160797,-121.15328217,2022-12-05 05:53:38
Target,10451 Fairway Dr,,Roseville,CA,95678-1987,US,38.79113007,-121.28956604,2022-12-05 05:53:38
Target,1925 Douglas Blvd,,Roseville,CA,95661-3834,US,38.74576187,-121.25460815,2022-12-05 05:53:38
Target,5837 Sunrise Blvd,,Citrus Heights,CA,95610-6866,US,38.67321014,-121.274086,2022-12-05 05:53:38
Target,1153 Butte House Rd,,Yuba City,CA,95991-3102,US,39.14658356,-121.63282776,2022-12-05 05:53:38
Target,5001 Madison Ave,,Sacramento,CA,95841-2604,US,38.66160965,-121.34922791,2022-12-05 05:53:38
Target,2939 Market Pl,,Salina,KS,67401-8598,US,38.78445053,-97.60953522,2022-12-05 05:53:38
Target,12795 Main St,,Hesperia,CA,92345-9110,US,34.42503738,-117.38399506,2022-12-05 05:53:35
Target,19201 Bear Valley Rd,,Apple Valley,CA,92308-6763,US,34.46917725,-117.24394989,2022-12-05 05:53:35
Target,20288 US Highway 18,,Apple Valley,CA,92307-2937,US,34.52747345,-117.21723175,2022-12-05 05:53:35
Target,27100 Eucalyptus Ave,,Moreno Valley,CA,92555-4522,US,33.9376564,-117.18911743,2022-12-05 05:53:35
Target,24425 Magic Mountain Pkwy,,Valencia,CA,91355-3403,US,34.420681,-118.56122589,2022-12-05 05:53:35
Target,19105 Golden Valley Rd,,Santa Clarita,CA,91387-1428,US,34.3941803,-118.4649353,2022-12-05 05:53:35
Target,2907 Cochran St,,Simi Valley,CA,93065-2773,US,34.28026581,-118.73924255,2022-12-05 05:53:38
Target,51 Tierra Rejada Rd,,Simi Valley,CA,93065-2902,US,34.27319336,-118.79705048,2022-12-05 05:53:38
Target,800 New Los Angeles Ave,,Moorpark,CA,93021-3585,US,34.27875519,-118.86775208,2022-12-05 05:53:38
Target,30740 Russell Ranch Rd,,Westlake Village,CA,91362-4063,US,34.14812088,-118.79393768,2022-12-05 05:53:38
Target,2705 Teller Rd,,Thousand Oaks,CA,91320-1190,US,34.19135284,-118.93463898,2022-12-05 05:53:38
Target,39440 10th St W,,Palmdale,CA,93551-3747,US,34.5993576,-118.14673615,2022-12-05 05:53:35
Target,4800 3rd Ave,,Kearney,NE,68845-2892,US,40.72241974,-99.08563995,2022-12-05 05:53:41
Target,9882 Adams Ave,,Huntington Beach,CA,92646-4808,US,33.67150116,-117.95600128,2022-12-05 05:53:41
Target,4202 13th Ave SW,,Fargo,ND,58103-3308,US,46.86062622,-96.85298157,2022-12-05 05:53:41
Target,3301 Highway 10 E,,Moorhead,MN,56560-2516,US,46.8757019,-96.72830963,2022-12-05 05:53:41
Target,4900 E Main St,,Farmington,NM,87402-8658,US,36.76863861,-108.14821625,2022-12-04 18:43:16
Target,3303 N Montana Ave,,Helena,MT,59602-7817,US,46.62129593,-112.01927948,2022-12-05 05:53:35
Target,3250 US Hwy 41 W,,Marquette,MI,49855-9483,US,46.55117416,-87.46032715,2022-12-05 05:53:38
Target,403 Main St,,Billings,MT,59105-3227,US,45.80603409,-108.47273254,2022-12-03 02:16:30
Target,2601 Central Ave,,Billings,MT,59102-6652,US,45.7708168,-108.5823288,2022-12-03 04:28:36
Target,301 E Morrison Rd,,Brownsville,TX,78526-3366,US,25.96859932,-97.50948334,2022-12-05 05:53:39
Target,6280 N Eagle Rd,,Boise,ID,83713-0955,US,43.66172409,-116.35241699,2022-12-05 05:53:35
Target,16300 N Market Place Blvd,,Nampa,ID,83687-7910,US,43.61016083,-116.58945465,2022-12-05 05:53:35
Target,2420 N Reserve St,,Missoula,MT,59808-1317,US,46.88764572,-114.03723907,2022-12-05 05:53:37
Target,2365 US Highway 93 N,,Kalispell,MT,59901-2558,US,48.23597336,-114.32673645,2022-12-04 18:43:15
Target,2401 E Kansas Ave,,Garden City,KS,67846-6962,US,37.97967529,-100.84347534,2022-12-04 18:43:16
Target,3790 Center St NE,,Salem,OR,97301-2905,US,44.93888092,-122.98674774,2022-12-05 05:53:35
Target,6450 Keizer Station Blvd NE,,Keizer,OR,97303-1695,US,45.01226044,-122.99505615,2022-12-05 05:53:35
Target,2255 14th Ave SE,,Albany,OR,97322-8513,US,44.6300354,-123.07859802,2022-12-05 05:53:39
Target,25925 SW Heather Pl,,Wilsonville,OR,97070-5785,US,45.33309937,-122.76699829,2022-12-05 05:53:35
Target,21365 SW Baler Way,,Sherwood,OR,97140-8989,US,45.36644363,-122.83865356,2022-12-05 05:53:35
Target,9009 SW Hall Blvd,,Tigard,OR,97223-4432,US,45.45416641,-122.77945709,2022-12-05 05:53:35
Target,2295 SE Tualatin Valley Hwy,,Hillsboro,OR,97123-7915,US,45.50719833,-122.95701599,2022-12-05 05:53:35
Target,10775 SW Beaverton Hillsdale Hwy,,Beaverton,OR,97005-3001,US,45.487854,-122.78820801,2022-12-05 05:53:35
Target,9000 SE Sunnyside Rd,,Clackamas,OR,97015-9758,US,45.43140411,-122.57080841,2022-12-05 05:53:35
Target,11095 NE Evergreen Pkwy,,Hillsboro,OR,97006-7510,US,45.5391655,-122.86480713,2022-12-05 05:53:35
Target,3031 SE Powell Blvd,,Portland,OR,97202-1955,US,45.49749374,-122.63409424,2022-12-05 05:53:35
Target,939 SW Morrison St,,Portland,OR,97205-2727,US,45.52012634,-122.68180847,2022-12-05 05:53:35
Target,4030 NE Halsey St,,Portland,OR,97232-1833,US,45.53367996,-122.6215744,2022-12-05 05:53:35
Target,9800 SE Washington St,,Portland,OR,97216-2420,US,45.51601791,-122.56234741,2022-12-05 05:53:35
Target,2750 Gateway St,,Springfield,OR,97477-1172,US,44.07178879,-123.04533386,2022-12-05 05:53:39
Target,4575 W 11th Ave,,Eugene,OR,97402-5442,US,44.04935837,-123.170784,2022-12-05 05:53:41
Target,9401 NE Cascades Pkwy,,Portland,OR,97220-6824,US,45.57659149,-122.56481934,2022-12-05 05:53:35
Target,1555 N Tomahawk Island Dr,,Portland,OR,97217-8296,US,45.61296844,-122.68235779,2022-12-05 05:53:35
Target,21500 NE Halsey St,,Fairview,OR,97024-8616,US,45.53278351,-122.4421463,2022-12-05 05:53:35
Target,16200 SE Mill Plain Blvd,,Vancouver,WA,98684-9638,US,45.61670685,-122.50513458,2022-12-05 05:53:35
Target,7809C NE Vancouver Plaza Dr,,Vancouver,WA,98662-6624,US,45.65067673,-122.59178162,2022-12-05 05:53:35
Target,8801 NE Hazel Dell Ave,,Vancouver,WA,98665-8145,US,45.68638611,-122.66768646,2022-12-05 05:53:35
Target,205 Three Rivers Dr,,Kelso,WA,98626-3127,US,46.14271545,-122.89932251,2022-12-05 05:53:35
Target,11400 51st Ave NW,,Gig Harbor,WA,98332-7891,US,47.36086273,-122.60733795,2022-12-05 05:53:35
Target,3320 S 23rd St,,Tacoma,WA,98405-1603,US,47.23721313,-122.47994232,2022-12-05 05:53:35
Target,5618 Lakewood Town Center Blvd SW,,Lakewood,WA,98499-3894,US,47.16363907,-122.51177979,2022-12-05 05:53:35
Target,2201 S Commons,,Federal Way,WA,98003-6023,US,47.313591,-122.30554199,2022-12-05 05:53:35
Target,3310 S Meridian,,Puyallup,WA,98373-3777,US,47.15934372,-122.29516602,2022-12-05 05:53:35
Target,2800 SW Barton St,,Seattle,WA,98126-3975,US,47.52188873,-122.36883545,2022-12-05 05:53:35
Target,10302 156Th St E,,Puyallup,WA,98374-9321,US,47.11346054,-122.29199982,2022-12-05 05:53:35
Target,26301 104th Ave SE,,Kent,WA,98030-7649,US,47.36660767,-122.20297241,2022-12-05 05:53:35
Target,301 Strander Blvd,,Tukwila,WA,98188-2971,US,47.45529938,-122.25800323,2022-12-05 05:53:35
Target,665 Sleater Kinney Rd SE,,Lacey,WA,98503-1007,US,47.0427475,-122.83586121,2022-12-05 05:53:35
Target,9400 192nd Ave E,,Bonney Lake,WA,98391-8564,US,47.17207336,-122.17169189,2022-12-05 05:53:35
Target,2925 Harrison Ave NW,,Olympia,WA,98502-2566,US,47.04462814,-122.9373703,2022-12-05 05:53:35
Target,1215 N Landing Way,,Renton,WA,98057-5521,US,47.49677277,-122.20040131,2022-12-05 05:53:35
Target,3201 NW Randall Way,,Silverdale,WA,98383-7952,US,47.65821838,-122.69404602,2022-12-05 05:53:35
Target,1401 2nd Ave,,Seattle,WA,98101-2007,US,47.60894012,-122.33905792,2022-12-05 05:53:35
Target,"1448 NW Market St, Ste 100",,Seattle,WA,98107-1743,US,47.66891098,-122.37577057,2022-12-05 05:53:35
Target,4053 Factoria Square Mall SE,,Bellevue,WA,98006-1286,US,47.57420349,-122.17295074,2022-12-05 05:53:35
Target,4535 University Way NE,,Seattle,WA,98105-4510,US,47.66232681,-122.31343842,2022-12-05 05:53:35
Target,272 116th Ave NE,,Bellevue,WA,98004-5213,US,47.61253357,-122.18460083,2022-12-05 05:53:35
Target,755 NW Gilman Blvd,,Issaquah,WA,98027-5357,US,47.54220963,-122.0508728,2022-12-05 05:53:35
Target,302 NE Northgate Way,,Seattle,WA,98125-6047,US,47.70896912,-122.32501221,2022-12-05 05:53:41
Target,17700 NE 76th St,,Redmond,WA,98052-3300,US,47.67242432,-122.10402679,2022-12-05 05:53:41
Target,13950 NE 178th Pl,Ste. 100,Woodinville,WA,98072-3523,US,47.75891495,-122.15460205,2022-12-05 05:53:41
Target,18305 Alderwood Mall Pkwy,,Lynnwood,WA,98037-3961,US,47.83244705,-122.2665863,2022-12-05 05:53:41
Target,405 SE Everett Mall Way,,Everett,WA,98208-3243,US,47.91004944,-122.22678375,2022-12-05 05:53:41
Target,9601 Market Pl,,Lake Stevens,WA,98258-7949,US,47.99868393,-122.10190582,2022-12-05 05:53:41
Target,16818 Twin Lakes Ave,,Marysville,WA,98271-4724,US,48.14941788,-122.19202423,2022-12-05 05:53:41
Target,199 Cascade Mall Dr,,Burlington,WA,98233-3251,US,48.46535492,-122.33860779,2022-12-05 05:53:41
Target,2132 W Pullman Rd,,Moscow,ID,83843-4011,US,46.73404694,-117.03128815,2022-12-05 05:53:41
Target,43525 10th St W,,Lancaster,CA,93534-6091,US,34.67365646,-118.1493988,2022-12-05 05:53:35
Target,401 SE Wyoming Blvd,,Casper,WY,82609-4219,US,42.84712982,-106.2646637,2022-12-05 05:53:37
Target,209 W Ventura Blvd,,Camarillo,CA,93010-8359,US,34.21723938,-119.07312775,2022-12-05 05:53:38
Target,2850 N OXNARD BLVD,,Oxnard,CA,93036-5443,US,34.24238968,-119.17800903,2022-12-05 05:53:38
Target,4200 E Main St,,Ventura,CA,93003-5230,US,34.2619133,-119.2370224,2022-12-05 05:53:38
Target,245 S Mills Rd,,Ventura,CA,93003-3435,US,34.27048874,-119.24900055,2022-12-05 05:53:38
Target,10881 Olson Dr,,Rancho Cordova,CA,95670-5646,US,38.59605026,-121.28600311,2022-12-05 05:53:38
Target,1919 Fulton Ave,,Sacramento,CA,95825-1905,US,38.60056686,-121.40340424,2022-12-05 05:53:38
Target,6507 4th Ave,,Sacramento,CA,95817-2611,US,38.54920578,-121.42658234,2022-12-05 05:53:38
Target,3601 N Freeway Blvd,,Sacramento,CA,95834-2902,US,38.64088821,-121.49932861,2022-12-05 05:53:38
Target,1707 J St,,Sacramento,CA,95811-3007,US,38.57780838,-121.48355865,2022-12-05 05:53:38
Target,8101 Cosumnes River Blvd,,Sacramento,CA,95823-5415,US,38.45862579,-121.41385651,2022-12-05 05:53:38
Target,2505 Riverside Blvd,,Sacramento,CA,95818-2234,US,38.56222153,-121.49751282,2022-12-05 05:53:38
Target,7505 Laguna Blvd,,Elk Grove,CA,95758-5061,US,38.4262886,-121.4151001,2022-12-05 05:53:38
Target,2005 Town Center Plz,,West Sacramento,CA,95691-4957,US,38.54989624,-121.53670502,2022-12-05 05:53:38
Target,3316 7th Ave SE,,Aberdeen,SD,57401-6639,US,45.45745087,-98.44058228,2022-12-05 05:53:42
Target,315 W Canfield Ave,,Coeur d'Alene,ID,83815-7750,US,47.73467636,-116.7910614,2022-12-05 05:53:42
Target,13724 E Sprague Ave,,Spokane,WA,99216-0812,US,47.65605164,-117.2199707,2022-12-05 05:53:42
Target,4915 S Regal St,,Spokane,WA,99223-7633,US,47.60960007,-117.36499786,2022-12-05 05:53:42
Target,2000 10th Ave S,,Great Falls,MT,59405-2753,US,47.4933815,-111.2713089,2022-12-04 14:03:44
Target,27818 Clinton Keith Rd,,Murrieta,CA,92562-8554,US,33.60388947,-117.17359924,2022-12-05 05:53:35
Target,"1450 Ala Moana Blvd, Ste 2401",,Honolulu,HI,96814-4604,US,21.29235077,-157.84205627,2022-12-05 05:53:43
Target,345 Hahani St,,Kailua,HI,96734-2838,US,21.3914299,-157.7394104,2022-12-05 05:53:43
Target,4380 Lawehana St,,Honolulu,HI,96818-3137,US,21.35569954,-157.92900085,2022-12-05 05:53:43
Target,4450 Kapolei Pkwy,Ste 100,Kapolei,HI,96707-1878,US,21.3315773,-158.09281921,2022-12-05 05:53:43
Target,100 Hookele St,,Kahului,HI,96732-3509,US,20.87459946,-156.45500183,2022-12-05 05:53:40
Target,2295 N Imperial Ave,,El Centro,CA,92243-1335,US,32.81332779,-115.56764221,2022-12-05 05:53:37
Target,78935 US Hwy 111,,La Quinta,CA,92253-2072,US,33.70858383,-116.28969574,2022-12-05 05:53:35
Target,72549 Highway 111,,Palm Desert,CA,92260-3306,US,33.72432709,-116.40342712,2022-12-05 05:53:35
Target,9770 N Newport Hwy,,Spokane,WA,99218-1249,US,47.74757385,-117.40026093,2022-12-05 05:53:42
Target,1450 S Yuma Palms Pkwy,,Yuma,AZ,85365-1707,US,32.70474243,-114.6053772,2022-12-05 05:53:37
Target,38019 47Th St E,,Palmdale,CA,93552-3103,US,34.57435608,-118.0478363,2022-12-05 05:53:35
Target,4303 Nawiliwili Rd,,Lihue,HI,96766-9581,US,21.96877098,-159.37690735,2022-12-05 05:53:43
Target,2355 W Kettleman Ln,,Lodi,CA,95242-4120,US,38.11715698,-121.30378723,2022-12-05 05:53:37
Target,2185 Bronze Star Dr,,Woodland,CA,95776-5406,US,38.67221069,-121.72531128,2022-12-05 05:53:38
Target,3030 Harbor Blvd Ste A,,Costa Mesa,CA,92626-2562,US,33.68243027,-117.91799927,2022-12-05 05:53:40
Target,3300 S Bristol St,,Santa Ana,CA,92704-7246,US,33.70275497,-117.88697815,2022-12-05 05:53:40
Target,289 E 17th St,,Costa Mesa,CA,92627-3831,US,33.63240051,-117.91692352,2022-12-05 05:53:40
Target,1102 Springwater Ave,,Wenatchee,WA,98801-1548,US,47.43843842,-120.32738495,2022-12-05 05:53:41
Target,12 N Fair Ave,,Yakima,WA,98901-4520,US,46.60667801,-120.4900589,2022-12-05 05:53:41
Target,67750 E Palm Canyon Dr,,Cathedral City,CA,92234-5441,US,33.78955078,-116.48145294,2022-12-05 05:53:35
Target,3527 W Florida Ave,,Hemet,CA,92545-3564,US,33.74588776,-117.00886536,2022-12-05 05:53:35
Target,30340 Haun Rd,,Menifee,CA,92584-6806,US,33.6801033,-117.1728363,2022-12-05 05:53:35
Target,5740 N Blackstone Ave,,Fresno,CA,93710-5006,US,36.82141113,-119.78849792,2022-12-05 05:53:37
Target,695 W Herndon Ave,,Clovis,CA,93612-0104,US,36.83982849,-119.72771454,2022-12-05 05:53:37
Target,7600 N Blackstone Ave,,Fresno,CA,93720-4300,US,36.84707642,-119.78699493,2022-12-05 05:53:37
Target,3173 E Shields Ave,,Fresno,CA,93726-6902,US,36.78035355,-119.7711792,2022-12-05 05:53:37
Target,900 Shaw Ave,,Clovis,CA,93612-3900,US,36.80702591,-119.69856262,2022-12-05 05:53:37
Target,3150 W Shaw Ave,,Fresno,CA,93711-3215,US,36.80943298,-119.84732056,2022-12-05 05:53:37
Target,6655 North Riverside Dr,,Fresno,CA,93722-9308,US,36.83472824,-119.91256714,2022-12-05 05:53:37
Target,140 N 12th Ave,,Hanford,CA,93230-5971,US,36.32411957,-119.67581177,2022-12-05 05:53:37
Target,3308 N Dinuba Blvd,,Visalia,CA,93291-8718,US,36.35871506,-119.29525757,2022-12-05 05:53:37
Target,4247 S Mooney Blvd,,Visalia,CA,93277-9146,US,36.29251862,-119.3165741,2022-12-05 05:53:37
Target,2195 E Prosperity Ave,,Tulare,CA,93274-7754,US,36.22453308,-119.3145752,2022-12-05 05:53:37
Target,3280 R St,,Merced,CA,95348-1954,US,37.32248688,-120.48551178,2022-12-05 05:53:37
Target,1000 Commerce Ave,,Atwater,CA,95301-5213,US,37.34151459,-120.61070251,2022-12-05 05:53:37
Target,1405 W Pacheco Blvd,,Los Banos,CA,93635-8506,US,37.0545845,-120.87538147,2022-12-05 05:53:37
Target,1363 W Henderson Ave,,Porterville,CA,93257-1456,US,36.07865906,-119.04699707,2022-12-05 05:53:37
Target,3000 Countryside Dr,,Turlock,CA,95380-8402,US,37.52086639,-120.87908173,2022-12-05 05:53:37
Target,2425 Claribel Rd,,Riverbank,CA,95367-9456,US,37.71335983,-120.95328522,2022-12-05 05:53:37
Target,1790 Airline Hwy,,Hollister,CA,95023-5621,US,36.83540344,-121.39004517,2022-12-05 05:53:37
Target,3405 Mchenry Ave,,Modesto,CA,95350-1445,US,37.68715286,-120.99558258,2022-12-05 05:53:37
Target,3900 Sisk Rd,,Modesto,CA,95356-3215,US,37.69382095,-121.06311798,2022-12-05 05:53:37
Target,6705 Camino Arroyo,,Gilroy,CA,95020-7075,US,37.00032425,-121.5541153,2022-12-05 05:53:37
Target,63435 N Highway 97,,Bend,OR,97703-7802,US,44.10381699,-121.30051422,2022-12-05 05:53:41
Target,1200 N Muldoon Rd,Ste F,Anchorage,AK,99504-6103,US,61.22681808,-149.74568176,2022-12-04 18:43:16
Target,1801 E Parks Hwy,,Wasilla,AK,99654-7350,US,61.57820129,-149.40406799,2022-12-04 18:43:16
Target,150 W 100th Ave,Ste A,Anchorage,AK,99515-2673,US,61.12909317,-149.88169861,2022-12-04 18:43:16
Target,1951 E 20th St,,Chico,CA,95928-6300,US,39.72598648,-121.80319214,2022-12-05 05:53:39
Target,4255 CAMPUS DR STE A150,,Irvine,CA,92612-2668,US,33.64995575,-117.83834076,2022-12-05 05:53:40
Target,2300 Park Ave,,Tustin,CA,92782-2702,US,33.69995117,-117.82804108,2022-12-05 05:53:40
Target,3750 Barranca Pkwy,,Irvine,CA,92606-8200,US,33.68558121,-117.81257629,2022-12-05 05:53:40
Target,26932 La Paz Rd,,Aliso Viejo,CA,92656-3038,US,33.57095718,-117.70531464,2022-12-05 05:53:35
Target,900 Spectrum Center Dr,,Irvine,CA,92618-4958,US,33.64794922,-117.74007416,2022-12-05 05:53:35
Target,13200 Jamboree Rd,,Irvine,CA,92602-2307,US,33.72743607,-117.78491211,2022-12-05 05:53:35
Target,26762 Portola Pkwy,,Foothill Ranch,CA,92610-1712,US,33.67695236,-117.66429901,2022-12-05 05:53:35
Target,30602 Santa Margarita Pkwy,,Rancho Santa Margarita,CA,92688-2814,US,33.64183807,-117.59758759,2022-12-05 05:53:35
Target,25601 Jeronimo Rd,,Mission Viejo,CA,92691-2794,US,33.62332153,-117.68199921,2022-12-05 05:53:35
Target,18287 Collier Ave,,Lake Elsinore,CA,92530-2755,US,33.68914413,-117.34199524,2022-12-05 05:53:35
Target,31874 Del Obispo St,,San Juan Capistrano,CA,92675-3204,US,33.49846649,-117.6594696,2022-12-05 05:53:35
Target,27551 Puerta Real,,Mission Viejo,CA,92691-6321,US,33.56261444,-117.67164612,2022-12-05 05:53:35
Target,24500 Alicia Pkwy,,Mission Viejo,CA,92691-4508,US,33.60628128,-117.68900299,2022-12-05 05:53:35
Target,3891 State St,,Santa Barbara,CA,93105-3166,US,34.44002914,-119.75085449,2022-12-05 05:53:38
Target,6865 Hollister Ave,,Goleta,CA,93117-3017,US,34.42856598,-119.86762238,2022-12-05 05:53:38
Target,223 E Betteravia Rd,,Santa Maria,CA,93454-7803,US,34.9225769,-120.43418121,2022-12-05 05:53:41
Target,11000 Stockdale Hwy,,Bakersfield,CA,93311-3635,US,35.3499794,-119.125,2022-12-05 05:53:41
Target,2901 Ming Ave,,Bakersfield,CA,93304-4144,US,35.33698273,-119.03660583,2022-12-05 05:53:41
Target,9100 Rosedale Hwy,,Bakersfield,CA,93312-2143,US,35.38527679,-119.10281372,2022-12-05 05:53:41
Target,3401 Mall View Rd,,Bakersfield,CA,93306-3060,US,35.3936615,-118.95554352,2022-12-05 05:53:41
Target,11990 LOS OSOS VALLEY RD,,San Luis Obispo,CA,93405-6861,US,35.25233078,-120.68535614,2022-12-05 05:53:41
Target,2305 Theatre Dr,,Paso Robles,CA,93446-9604,US,35.584198,-120.69842529,2022-12-05 05:53:37
Target,1640 N Main St,,Salinas,CA,93906-5102,US,36.71485519,-121.65299225,2022-12-05 05:53:42
Target,133 General Stilwell Dr,,Marina,CA,93933-6242,US,36.66715622,-121.81038666,2022-12-05 05:53:42
Target,2040 California Ave,,Sand City,CA,93955-3150,US,36.62107849,-121.84381866,2022-12-05 05:53:42
Target,1415 Main St,,Watsonville,CA,95076-3755,US,36.9155426,-121.77436066,2022-12-05 05:53:37
Target,1061 Cochrane Rd,,Morgan Hill,CA,95037-9305,US,37.15758896,-121.65399933,2022-12-05 05:53:37
Target,1825 41st Ave,,Capitola,CA,95010-2504,US,36.97478485,-121.96875763,2022-12-05 05:53:37
Target,5630 Cottle Rd,,San Jose,CA,95123-3696,US,37.25040817,-121.80337524,2022-12-05 05:53:37
Target,280 Spreckels Ave,,Manteca,CA,95336-6005,US,37.79502869,-121.19728088,2022-12-05 05:53:37
Target,16858 Golden Valley Pkwy,,Lathrop,CA,95330-8535,US,37.80853653,-121.29905701,2022-12-05 05:53:37
Target,4707 Pacific Ave,,Stockton,CA,95207-6301,US,37.99163437,-121.31459808,2022-12-05 05:53:37
Target,2800 Naglee Rd,,Tracy,CA,95304-7307,US,37.75778961,-121.45845032,2022-12-05 05:53:37
Target,10424 Trinity Parkway,,Stockton,CA,95219-7225,US,38.05213165,-121.37271881,2022-12-05 05:53:37
Target,3155 Silver Creek Rd,,San Jose,CA,95121-1730,US,37.30786133,-121.81300354,2022-12-05 05:53:37
Target,879 Blossom Hill Rd,,San Jose,CA,95123-1213,US,37.25209045,-121.86004639,2022-12-05 05:53:37
Target,1750 Story Rd,,San Jose,CA,95122-1921,US,37.34009933,-121.84093475,2022-12-05 05:53:37
Target,450 N Capitol Ave,,San Jose,CA,95133-1938,US,37.37385559,-121.84458923,2022-12-05 05:53:37
Target,2161 Monterey Hwy,,San Jose,CA,95125-1057,US,37.30398941,-121.86580658,2022-12-05 05:53:37
Target,2155 Morrill Ave,,San Jose,CA,95132-1130,US,37.41402817,-121.87638855,2022-12-05 05:53:37
Target,4300 Las Positas Rd,,Livermore,CA,94551-9641,US,37.70085526,-121.74643707,2022-12-05 05:53:37
Target,1811 Hillsdale Ave,,San Jose,CA,95124-3027,US,37.26462555,-121.91880798,2022-12-05 05:53:37
Target,533 Coleman Ave,,San Jose,CA,95110-2047,US,37.33916473,-121.90501404,2022-12-05 05:53:37
Target,2004 El Camino Real,,Santa Clara,CA,95050-4051,US,37.35029984,-121.96086884,2022-12-05 05:53:37
Target,95 Holger Way,,San Jose,CA,95134-1377,US,37.41811371,-121.95550537,2022-12-05 05:53:37
Target,1600 Saratoga Ave,,San Jose,CA,95129-5101,US,37.29098511,-121.98976898,2022-12-05 05:53:37
Target,2800 Dublin Blvd,,Dublin,CA,94568-4589,US,37.703228,-121.85319519,2022-12-05 05:53:37
Target,43950 Pacific Commons Blvd,,Fremont,CA,94538-3803,US,37.50222015,-121.96804047,2022-12-05 05:53:37
Target,20745 Stevens Creek Blvd,,Cupertino,CA,95014-2123,US,37.32394409,-122.03642273,2022-12-05 05:53:37
Target,298 W McKinley Ave,,Sunnyvale,CA,94086-6193,US,37.37379837,-122.0330658,2022-12-05 05:53:37
Target,39201 Fremont Blvd,,Fremont,CA,94538-1301,US,37.54514694,-121.98439789,2022-12-05 05:53:37
Target,555 Showers Dr,,Mountain View,CA,94040-1432,US,37.40116501,-122.10632324,2022-12-05 05:53:37
Target,7200 Amador Plaza Rd,,Dublin,CA,94568-2320,US,37.70658875,-121.93103027,2022-12-05 05:53:37
Target,1775 E Bayshore Rd,,East Palo Alto,CA,94303-2523,US,37.4600563,-122.13546753,2022-12-05 05:53:37
Target,2499 Whipple Rd,,Hayward,CA,94544-7807,US,37.60797119,-122.06300354,2022-12-05 05:53:37
Target,2485 El Camino Real,,Redwood City,CA,94063-2849,US,37.47514725,-122.21768188,2022-12-05 05:53:37
Target,2220 Bridgepointe Pkwy,,San Mateo,CA,94404-1569,US,37.558918,-122.28378296,2022-12-05 05:53:37
Target,19661 Hesperian Blvd,,Hayward,CA,94541-4200,US,37.66628647,-122.12008667,2022-12-05 05:53:37
Target,15555 E 14th St,Ste 400,San Leandro,CA,94578-1978,US,37.69979095,-122.12682343,2022-12-05 05:53:37
Target,2610 Bishop Dr,,San Ramon,CA,94583-2338,US,37.76177216,-121.96414948,2022-12-05 05:53:37
Target,1150 El Camino Real,,San Bruno,CA,94066-2420,US,37.63687515,-122.41642761,2022-12-05 05:53:38
Target,133 Serramonte Ctr,,Daly City,CA,94015-2349,US,37.6705513,-122.4701767,2022-12-05 05:53:38
Target,5001 Junipero Serra Blvd,,Colma,CA,94014-3217,US,37.67374039,-122.4649353,2022-12-05 05:53:38
Target,100 Westlake Ctr,,Daly City,CA,94015-1407,US,37.7003212,-122.48287964,2022-12-05 05:53:38
Target,2700 Fifth Street,,Alameda,CA,94501-6574,US,37.7887001,-122.28026581,2022-12-05 05:53:38
Target,285 Winston Dr,,San Francisco,CA,94132-1921,US,37.72661591,-122.47646332,2022-12-05 05:53:38
Target,1690 Folsom St,,San Francisco,CA,94103-3723,US,37.77018738,-122.41577148,2022-12-05 05:53:38
Target,789 Mission St,,San Francisco,CA,94103-3132,US,37.78464127,-122.40399933,2022-12-05 05:53:38
Target,2650 Broadway,,Oakland,CA,94612-3110,US,37.81525421,-122.26373291,2022-12-05 05:53:38
Target,2675 Geary Blvd,,San Francisco,CA,94118-3400,US,37.78186417,-122.447052,2022-12-05 05:53:38
Target,1555 40th Street,,Emeryville,CA,94608-3515,US,37.82833481,-122.28912354,2022-12-05 05:53:38
Target,1414 University Ave,,Berkeley,CA,94702-1548,US,37.86996078,-122.28375244,2022-12-05 05:53:38
Target,2187 Shattuck Ave,,Berkeley,CA,94704-1308,US,37.8695488,-122.26773071,2022-12-05 05:53:38
Target,1057 Eastshore Hwy,,Albany,CA,94710-1011,US,37.8832016,-122.30699921,2022-12-05 05:53:38
Target,180 Donahue St,,Sausalito,CA,94965-1250,US,37.87377548,-122.51079559,2022-12-05 05:53:38
Target,4500 Macdonald Ave,,Richmond,CA,94805-2307,US,37.93199539,-122.32820892,2022-12-05 05:53:38
Target,1871 N Main St,,Walnut Creek,CA,94596-4106,US,37.90512848,-122.06400299,2022-12-05 05:53:37
Target,125 Shoreline Pkwy,,San Rafael,CA,94901-5521,US,37.95514297,-122.49058533,2022-12-05 05:53:38
Target,1400 Fitzgerald Dr,,Pinole,CA,94564-2250,US,37.98759842,-122.30984497,2022-12-05 05:53:38
Target,560 Contra Costa Blvd,,Pleasant Hill,CA,94523-1216,US,37.97735977,-122.06700134,2022-12-05 05:53:37
Target,200 Vintage Way,,Novato,CA,94945-5005,US,38.08974838,-122.55313873,2022-12-05 05:53:38
Target,4301 Century Blvd,,Pittsburg,CA,94565-7101,US,38.00770569,-121.84062195,2022-12-05 05:53:37
Target,904 Admiral Callaghan Lane,,Vallejo,CA,94591-3680,US,38.13240814,-122.22260284,2022-12-05 05:53:38
Target,401 Kenilworth Drive,,Petaluma,CA,94952-3413,US,38.24465561,-122.62640381,2022-12-05 05:53:38
Target,5769 Lone Tree Way,,Antioch,CA,94531-8587,US,37.9640007,-121.73799896,2022-12-05 05:53:37
Target,205 Soscol Ave,,Napa,CA,94559-4007,US,38.28273392,-122.27700043,2022-12-05 05:53:38
Target,2059 Cadenasso Dr,,Fairfield,CA,94533-6806,US,38.24670029,-122.06821442,2022-12-05 05:53:38
Target,4000 Bel Aire Plz,,Napa,CA,94558-2835,US,38.32246017,-122.30762482,2022-12-05 05:53:38
Target,475 Rohnert Park Expy W,,Rohnert Park,CA,94928-7907,US,38.34679031,-122.71983337,2022-12-05 05:53:38
Target,1980 Santa Rosa Ave,,Santa Rosa,CA,95407-7621,US,38.41704178,-122.70957947,2022-12-05 05:53:38
Target,3000 Harbison Dr,,Vacaville,CA,95687-3909,US,38.36130524,-121.9618454,2022-12-05 05:53:38
Target,950 Coddingtown Center,,Santa Rosa,CA,95401-3506,US,38.45661545,-122.73036957,2022-12-05 05:53:38
Target,4601 2nd St,,Davis,CA,95618-9446,US,38.55443573,-121.69928741,2022-12-05 05:53:38
Target,2525 4th St,,Eureka,CA,95501-0823,US,40.8059082,-124.14476013,2022-12-04 18:43:16
Target,1280 Dana Dr,,Redding,CA,96003-4038,US,40.5868187,-122.34871674,2022-12-04 18:43:16
Target,2000 Crater Lake Hwy,,Medford,OR,97504-4161,US,42.34739685,-122.87819672,2022-12-04 14:03:45
Target,74-5455 Makala Blvd,,Kailua Kona,HI,96740-2727,US,19.6484127,-156.00285339,2022-12-05 05:53:40
Target,391 E Makaala St.,,Hilo,HI,96720-5146,US,19.70050049,-155.05923462,2022-12-05 05:53:40
Target,2941 Queensgate Dr,,Richland,WA,99352-9101,US,46.25839233,-119.31329346,2022-12-05 05:53:41
Target,1106 N Columbia Center Blvd,,Kennewick,WA,99336-1161,US,46.2219162,-119.22200775,2022-12-05 05:53:41
Target,30 Bellis Fair Pkwy,,Bellingham,WA,98226-5573,US,48.78649521,-122.49359894,2022-12-04 18:43:16
Target,600 Broadway,,New York City,New York,10012-3206,US,40.72515488,-73.99674225,2022-12-05 05:53:35
Target,2101 Church Ave,,Brooklyn,New York,11226-4363,US,40.65047073,-73.9595871,2022-12-05 05:53:35
Target,1825 NJ-35,,Wall Township,New Jersey,07719-3541,US,40.16573715,-74.05084229,2022-12-04 14:03:42
Target,215 E Fordham Rd,,Bronx,New York,10458-5060,US,40.86257553,-73.89627075,2022-12-05 05:53:35
Target,2551 NE 9th Ct,,Homestead,Florida,33033-4724,US,25.48048019,-80.43829346,2022-12-05 05:53:37
Target,3450 U.S. Hwy 190 Ste 2,,Mandeville,Louisiana,70471-3196,US,30.3907299,-90.08618164,2022-12-05 05:53:35
Target,27249 Chagrin Blvd,,Woodmere,Ohio,44122-4211,US,41.46334839,-81.48630524,2022-12-05 05:53:35
Target,22165 FM 529,,Katy,Texas,77493-5094,US,29.87226295,-95.75971222,2022-12-05 05:53:36
Target,609 N Dillon St,,Los Angeles,California,90026-3604,US,34.07905579,-118.27931976,2022-12-05 05:53:35
Target,5731 Bickett St,,Huntington Park,California,90255-2624,US,33.99023056,-118.2172699,2022-12-05 05:53:41
Target,270 Mount Herman Rd,,Scotts Valley,California,95066-4024,US,37.04836273,-122.03192902,2022-12-05 05:53:37
Target,1745 Quentin Rd,,Lebanon,Pennsylvania,17042-7435,US,40.31279755,-76.42641449,2022-12-05 05:53:36
Target,"211 King St, 001",,Charleston,South Carolina,29401-3128,US,32.78044891,-79.93340302,2022-12-05 05:53:38
Target,482 Smithfield St,,Pittsburgh,Pennsylvania,15219-4407,US,40.43938828,-79.99890137,2022-12-05 05:53:35
Target,12675 NW Cornell Rd,,Portland,Oregon,97229-5886,US,45.52605438,-122.80809784,2022-12-05 05:53:35
Target,603 Center St,,Auburn,Maine,04210-6306,US,44.12410355,-70.22299194,2022-12-05 05:53:35
