company_name,address_line_1,address_line_2,city,state_alpha,postal_code,country_code,latitude,longitude,when_verified
Waffle House,298 JAMES LEE BLVD,,CRESTVIEW,FL,32536,US,30.76239014,-86.57624817,2022-11-26 19:44:49
Waffle House,8000 MACON HWY,,ATHENS,GA,30606,US,33.8897171,-83.41285706,2022-11-26 19:44:51
Waffle House,2903 MARTHA BERRY,,ROME,GA,30161,US,34.30598068,-85.17437744,2022-11-26 19:44:51
Waffle House,2535 JOHN HAWKINS,,HOOVER,AL,35244,US,33.35466766,-86.84338379,2022-11-26 19:44:51
Waffle House,2735 FOREST PARKWAY,,ELLENWOOD,GA,30294,US,33.61217117,-84.30039215,2022-11-26 19:44:51
Waffle House,1201 BANKHEAD HWY,,CARROLLTON,GA,30117,US,33.59624863,-85.03610229,2022-11-26 19:44:51
Waffle House,5176 CALDWELL MILL,,HOOVER,AL,35244,US,33.38677597,-86.73960876,2022-11-26 19:44:51
Waffle House,4284 BELLS FERRY RD,,KENNESAW,GA,30144,US,34.05490875,-84.5565033,2022-11-26 19:44:51
Waffle House,938 ALLISON BONNETT,,HUEYTOWN,AL,35023,US,33.45700073,-86.96559906,2022-11-26 19:44:51
Waffle House,1325 US HWY 74 WEST,,WADESBORO,NC,28170,US,34.97808456,-80.09294128,2022-11-26 19:44:51
Waffle House,8060 ROCKBRIDGE RD,,LITHONIA,GA,30058,US,33.77513123,-84.07415009,2022-11-26 19:44:51
Waffle House,8765 TARA BLVD.,,JONESBORO,GA,30236,US,33.51584625,-84.3631134,2022-11-26 19:44:51
Waffle House,4896 UNIVERSITY DR,,HUNTSVILLE,AL,35816,US,34.73865891,-86.65707397,2022-11-26 19:44:51
Waffle House,2111 HWY 92,,DOUGLASVILLE,GA,30135,US,33.7475853,-84.70163727,2022-11-26 19:44:51
Waffle House,2210 DEMERE RD,,ST SIMONS ISLAND,GA,31522,US,31.16058922,-81.39129639,2022-11-26 19:44:49
Waffle House,408 PRATT AVENUE,,HUNTSVILLE,AL,35801,US,34.73870087,-86.57959747,2022-11-26 19:44:51
Waffle House,8239 HWY. 278,,COVINGTON,GA,30014,US,33.59996414,-83.83444977,2022-11-26 19:44:51
Waffle House,11500 MEMORIAL PKWY,,HUNTSVILLE,AL,35803,US,34.62802887,-86.56736755,2022-11-26 19:44:51
Waffle House,4915 US HWY. 129 N.,,JEFFERSON,GA,30549,US,34.15208817,-83.64324951,2022-11-26 19:44:51
Waffle House,3745 HIGHWAY 53,,HUNTSVILLE,AL,35806,US,34.79183197,-86.66790771,2022-11-26 19:44:51
Waffle House,1686 OLD YORK ROAD,,YORK,SC,29745,US,34.98612976,-81.20160675,2022-11-26 19:44:51
Waffle House,28 BIRMINGHAM HWY,,CHATTANOOGA,TN,37419,US,35.01727295,-85.38215637,2022-11-26 19:44:51
Waffle House,7106 BAILEY CREEK,,HUNTSVILLE,AL,35802,US,34.67291641,-86.53900146,2022-11-26 19:44:51
Waffle House,41 YEMASSEE ROAD,,YEMASSEE,SC,29945,US,32.63235092,-80.87506104,2022-11-26 19:44:49
Waffle House,7705 LEE HIGHWAY,,CHATTANOOGA,TN,37421,US,35.06155777,-85.13304901,2022-11-26 19:44:51
Waffle House,36 SHIELDS RD,,HUNTSVILLE,AL,35811,US,34.7747612,-86.52731323,2022-11-26 19:44:51
Waffle House,901 E BUTLER RD,,MAULDIN,SC,29607,US,34.80378723,-82.28508759,2022-11-26 19:44:51
Waffle House,6007 SHALLOWFORD RD,,CHATTANOOGA,TN,37411,US,35.05409241,-85.18772888,2022-11-26 19:44:51
Waffle House,2680 GEORGETOWN RD,,CLEVELAND,TN,37311,US,35.19089508,-84.88518524,2022-11-26 19:44:51
Waffle House,500 PELHAM RD NORTH,,JACKSONVILLE,AL,36265,US,33.81850052,-85.76132202,2022-11-26 19:44:51
Waffle House,710 HIGHWAY 19 NORTH,,MERIDIAN,MS,39307,US,32.36336899,-88.72845459,2022-11-26 19:44:51
Waffle House,801 HWY 78 EAST,,JASPER,AL,35501,US,33.84742355,-87.26651001,2022-11-26 19:44:51
Waffle House,1315 N HWY 45 ALT RT,,WEST POINT,MS,39773,US,33.58589935,-88.65911102,2022-11-26 19:44:51
Waffle House,110 VENTURE DR,,BRUNSWICK,GA,31525,US,31.24540138,-81.5056076,2022-11-26 19:44:49
Waffle House,5021 HIGHWAY 493,,MERIDIAN,MS,39305,US,32.41270065,-88.70040131,2022-11-26 19:44:51
Waffle House,203 CARL CANNON BLVD,,JASPER,AL,35501,US,33.79286575,-87.24334717,2022-11-26 19:44:51
Waffle House,1255 SCENIC HWY,,LAWRENCEVILLE,GA,30045,US,33.90000153,-84.00590515,2022-11-26 19:44:51
Waffle House,3270 BUFORD DR,,BUFORD,GA,30519,US,34.06773376,-83.9874115,2022-11-26 19:44:51
Waffle House,889 1ST AVENUE,,MERIDIAN,MS,39301,US,32.36534119,-88.67577362,2022-11-26 19:44:51
Waffle House,670 MAGNOLIA STREET,,LINCOLN,AL,35096,US,33.59476852,-86.1223526,2022-11-26 19:44:51
Waffle House,2880 BROWNS BRIDGE,,GAINESVILLE,GA,30504,US,34.27921295,-83.87483978,2022-11-26 19:44:51
Waffle House,3275 COBB PKWY,,ACWORTH,GA,30101,US,34.03417587,-84.67736816,2022-11-26 19:44:51
Waffle House,461 CALHOUN DR,,ATHENS,GA,30601,US,33.9861412,-83.34521484,2022-11-26 19:44:51
Waffle House,1804 MCCORMICK DR,,TIFTON,GA,31793,US,31.44774437,-83.53660583,2022-11-26 19:44:49
Waffle House,1404 ROEBUCK DR,,MERIDIAN,MS,39301,US,32.34978485,-88.69148254,2022-11-26 19:44:51
Waffle House,1133 HWY 92,,ACWORTH,GA,30102,US,34.08190155,-84.65461731,2022-11-26 19:44:51
Waffle House,1114 NORTH PARK ST,,CARROLLTON,GA,30117,US,33.59844971,-85.07910156,2022-11-26 19:44:51
Waffle House,1415 NORTH MAIN ST,,SUMMERVILLE,SC,29483,US,33.03674316,-80.15251923,2022-11-26 19:44:49
Waffle House,130 SCENIC GULF DR,,MIRAMAR BEACH,FL,32550,US,30.37774849,-86.35138702,2022-11-26 19:44:49
Waffle House,1862 MARS HILLS RD,,ACWORTH,GA,30101,US,34.00037003,-84.7041626,2022-11-26 19:44:51
Waffle House,11 ROE ROAD,,TRAVELERS REST,SC,29690,US,34.95962143,-82.43588257,2022-11-26 19:44:51
Waffle House,6035 BAKERS FERRY,,ATLANTA,GA,30336,US,33.72956085,-84.5729599,2022-11-26 19:44:51
Waffle House,3521 BAKER ROAD,,ACWORTH,GA,30101,US,34.07606125,-84.65309143,2022-11-26 19:44:51
Waffle House,2922 WADE HAMPTON,,TAYLORS,SC,29687,US,34.90427017,-82.33161926,2022-11-26 19:44:51
Waffle House,5565 BUFORD HWY,,NORCROSS,GA,30071,US,33.94345093,-84.20562744,2022-11-26 19:44:51
Waffle House,127 MOTEL DR,,ST GEORGE,SC,29477,US,33.19458008,-80.6037674,2022-11-26 19:44:49
Waffle House,5350 ALLATOONA GTWY,,ACWORTH,GA,30101,US,34.07868195,-84.67527008,2022-11-26 19:44:51
Waffle House,10 HWY 515  BLDG B,,BLAIRSVILLE,GA,30512,US,34.88092422,-83.95214844,2022-11-26 19:44:51
Waffle House,2100 MEMORIAL DRIVE,,SPRINGFIELD,TN,37172,US,36.49445724,-86.87722015,2022-11-26 19:44:51
Waffle House,5685 BELLS FERRY RD,,ACWORTH,GA,30102,US,34.08774948,-84.57704163,2022-11-26 19:44:51
Waffle House,1966 EAGLE DRIVE,,WOODSTOCK,GA,30189,US,34.11309814,-84.57099915,2022-11-26 19:44:51
Waffle House,1350 BROAD ST,,SUMTER,SC,29150,US,33.95637894,-80.39000702,2022-11-26 19:44:49
Waffle House,5970 MEMORIAL DR,,STONE MOUNTAIN,GA,30083,US,33.80198669,-84.19457245,2022-11-26 19:44:51
Waffle House,2106 WALL STREET,,SPRING HILL,TN,37174,US,35.76747131,-86.91777039,2022-11-26 19:44:51
Waffle House,831 GULF BREEZE PKWY,,GULF BREEZE,FL,32561,US,30.35752106,-87.16395569,2022-11-26 19:44:49
Waffle House,7855 ADAIRSVILLE HWY,,ADAIRSVILLE,GA,30103,US,34.37745667,-84.9167099,2022-11-26 19:44:51
Waffle House,4370 JONESBORO ROAD,,UNION CITY,GA,30291,US,33.5669899,-84.53205109,2022-11-26 19:44:51
Waffle House,1041 BROAD ST,,SUMTER,SC,29150,US,33.94781113,-80.37449646,2022-11-26 19:44:49
Waffle House,1960 EAST MAIN ST,,SNELLVILLE,GA,30078,US,33.8559227,-83.99494934,2022-11-26 19:44:51
Waffle House,3815 OLD PORT ROYAL,,SPRING HILL,TN,37174,US,35.73972321,-86.89411163,2022-11-26 19:44:51
Waffle House,924 HYATT ST,,GAFFNEY,SC,29341,US,35.07939148,-81.70310211,2022-11-26 19:44:51
Waffle House,1004 W 4TH STREET,,ADEL,GA,31620,US,31.13425064,-83.43553925,2022-11-26 19:44:49
Waffle House,3800 FLAT SHOALS RD,,UNION CITY,GA,30291,US,33.58557892,-84.51508331,2022-11-26 19:44:51
Waffle House,10009 DORCHESTER RD,,SUMMERVILLE,SC,29485,US,32.95227051,-80.16390228,2022-11-26 19:44:49
Waffle House,239 INTERSTATE SOUTH,,JASPER,GA,30143,US,34.39799118,-84.41483307,2022-11-26 19:44:51
Waffle House,2230 CHESNEE HWY,,SPARTANBURG,SC,29303,US,35.02217865,-81.89537048,2022-11-26 19:44:51
Waffle House,1522 WEST FLOYD,,GAFFNEY,SC,29341,US,35.09065628,-81.66213989,2022-11-26 19:44:51
Waffle House,4223 APPALACHIAN HWY,,BLUE RIDGE,GA,30513,US,34.87400436,-84.3214798,2022-11-26 19:44:51
Waffle House,1302A ST. AUGUSTINE,,VALDOSTA,GA,31601,US,30.84267044,-83.32646942,2022-11-26 19:44:49
Waffle House,745 E WASHINGTON AVE,,ASHBURN,GA,31714,US,31.71081734,-83.64070129,2022-11-26 19:44:49
Waffle House,1834 E MAIN ST,,SPARTANBURG,SC,29307,US,34.96723175,-81.89360046,2022-11-26 19:44:51
Waffle House,1634 RED BANK ROAD,,GOOSE CREEK,SC,29445,US,32.96840286,-80.0038147,2022-11-26 19:44:49
Waffle House,3487 MADISON HWY,,VALDOSTA,GA,31601,US,30.75260544,-83.2723999,2022-11-26 19:44:49
Waffle House,805 WEST AVENUE,,CARTERSVILLE,GA,30120,US,34.15818787,-84.81539917,2022-11-26 19:44:51
Waffle House,8121 WARREN H,,SPARTANBURG,SC,29301,US,34.93511963,-82.0047226,2022-11-26 19:44:51
Waffle House,304 RED BANK ROAD,,GOOSE CREEK,SC,29445,US,32.97955704,-80.0300827,2022-11-26 19:44:49
Waffle House,10931 ALABAMA HY 168,,BOAZ,AL,35957,US,34.19940186,-86.15148926,2022-11-26 19:44:51
Waffle House,1819 W HILL AVE,,VALDOSTA,GA,31601,US,30.82029915,-83.31182861,2022-11-26 19:44:49
Waffle House,1935 GA HWY 211,,HOSCHTON,GA,30548,US,34.09367371,-83.80895996,2022-11-26 19:44:51
Waffle House,208 EXCHANGE VILLAGE,,SPARTANBURG,SC,29301,US,34.937603,-82.06573486,2022-11-26 19:44:51
Waffle House,120 S. GOOSE CREEK,,GOOSE CREEK,SC,29445,US,32.99094772,-80.03992462,2022-11-26 19:44:49
Waffle House,1921 BOILING SPRINGS,,BOILING SPRINGS,SC,29316,US,35.01731873,-81.96159363,2022-11-26 19:44:51
Waffle House,3010 RUSSELL PARKWAY,,WARNER ROBINS,GA,31088,US,32.58192062,-83.69589996,2022-11-26 19:44:51
Waffle House,669 HIGHWAY 138,,RIVERDALE,GA,30274,US,33.54846954,-84.41243744,2022-11-26 19:44:51
Waffle House,2193 SOUTHPORT RD,,SPARTANBURG,SC,29306,US,34.92104721,-81.88873291,2022-11-26 19:44:51
Waffle House,6105 WHITE HORSE RD,,GREENVILLE,SC,29611,US,34.85284042,-82.45335388,2022-11-26 19:44:51
Waffle House,592 HWY 61,,VILLA RICA,GA,30180,US,33.72001266,-84.9381485,2022-11-26 19:44:51
Waffle House,6122 HICKORY FLAT,,CANTON,GA,30115,US,34.17590714,-84.41959381,2022-11-26 19:44:51
Waffle House,1 MELVIN DR,,GREENVILLE,SC,29605,US,34.79099274,-82.37614441,2022-11-26 19:44:51
Waffle House,15 SON IN LAW RD,,BONIFAY,FL,32425,US,30.76561356,-85.68379211,2022-11-26 19:44:49
Waffle House,4152 BEMISS RD,,VALDOSTA,GA,31605,US,30.91404343,-83.25941467,2022-11-26 19:44:49
Waffle House,6390 FLAT ROCK RD,,COLUMBUS,GA,31904,US,32.5366478,-84.86961365,2022-11-26 19:44:51
Waffle House,8006 WHITE HORSE RD,,GREENVILLE,SC,29617,US,34.89287949,-82.4678421,2022-11-26 19:44:51
Waffle House,1207 BAYTREE ROAD,,VALDOSTA,GA,31602,US,30.84651947,-83.30567169,2022-11-26 19:44:49
Waffle House,101 SPRINGVILLE,,SPRINGVILLE,AL,35146,US,33.77759171,-86.43041229,2022-11-26 19:44:51
Waffle House,2581 PIEDMONT RD NE,,ATLANTA,GA,30324,US,33.82564163,-84.36594391,2022-11-26 19:44:51
Waffle House,936 JAKE ALEXANDER,,SALISBURY,NC,28147,US,35.64339828,-80.48219299,2022-11-26 19:44:51
Waffle House,11 EAST STONE AVE,,GREENVILLE,SC,29609,US,34.86209488,-82.39305878,2022-11-26 19:44:51
Waffle House,1420 REDBUD RD.,,CALHOUN,GA,30701,US,34.51230621,-84.91703796,2022-11-26 19:44:51
Waffle House,4600 N VALDOSTA RD,,VALDOSTA,GA,31602,US,30.89524269,-83.35398865,2022-11-26 19:44:49
Waffle House,20 HOSIERY MILL RD,,DALLAS,GA,30157,US,33.9565506,-84.78723907,2022-11-26 19:44:51
Waffle House,102 GARNER RD,,SPARTANBURG,SC,29303,US,34.96624374,-81.92985535,2022-11-26 19:44:51
Waffle House,1803 POINSETT HWY,,GREENVILLE,SC,29609,US,34.89165115,-82.40735626,2022-11-26 19:44:51
Waffle House,3120 N PATTERSON ST,,VALDOSTA,GA,31602,US,30.87443733,-83.2922821,2022-11-26 19:44:49
Waffle House,229 TEMPLE AVE,,NEWNAN,GA,30263,US,33.38507462,-84.81591797,2022-11-26 19:44:51
Waffle House,1819 JOHN B WHITE SR,,SPARTANBURG,SC,29301,US,34.9213028,-81.98693848,2022-11-26 19:44:51
Waffle House,455 S PLEASANTBURG,,GREENVILLE,SC,29607,US,34.83189774,-82.368927,2022-11-26 19:44:51
Waffle House,13091 BROWN BRIDGE,,COVINGTON,GA,30016,US,33.57819366,-83.96533203,2022-11-26 19:44:51
Waffle House,6780 POTTERY RD,,SPARTANBURG,SC,29303,US,34.99062729,-82.02279663,2022-11-26 19:44:51
Waffle House,1610 WHITE HORSE RD,,GREENVILLE,SC,29605,US,34.79273987,-82.41716003,2022-11-26 19:44:51
Waffle House,138 CONNERS RD,,VILLA RICA,GA,30180,US,33.73179245,-84.90122986,2022-11-26 19:44:51
Waffle House,543 CARROLLTON ST,,TEMPLE,GA,30179,US,33.72227859,-85.02835083,2022-11-26 19:44:51
Waffle House,10638 CHAPMAN HWY,,SEYMOUR,TN,37865,US,35.87983704,-83.77787781,2022-11-26 19:44:51
Waffle House,5007 PELHAM ROAD,,GREENVILLE,SC,29615,US,34.85831833,-82.25775146,2022-11-26 19:44:51
Waffle House,1727 HUDSON BRIDGE,,STOCKBRIDGE,GA,30281,US,33.50152206,-84.24268341,2022-11-26 19:44:51
Waffle House,1795 ASHEVILLE HWY.,,SPARTANBURG,SC,29303,US,34.98313904,-81.97088623,2022-11-26 19:44:51
Waffle House,2815 LAURENS ROAD,,GREENVILLE,SC,29607,US,34.81157684,-82.33408356,2022-11-26 19:44:51
Waffle House,115 ST STEPHENS CT,,TYRONE,GA,30290,US,33.48839569,-84.584198,2022-11-26 19:44:51
Waffle House,315 WOLVERINE TRL,,SMYRNA,TN,37167,US,35.98312759,-86.55613708,2022-11-26 19:44:51
Waffle House,18 ROPER MOUNTAIN RD,,GREENVILLE,SC,29607,US,34.83717728,-82.31568146,2022-11-26 19:44:51
Waffle House,326 S ILLINOIS ST,,OAK RIDGE,TN,37830,US,36.00653458,-84.25522614,2022-11-26 19:44:51
Waffle House,1100 NOR TEC DRIVE,,CONYERS,GA,30013,US,33.59318161,-84.01383209,2022-11-26 19:44:51
Waffle House,1285 EIGHTEEN MILE,,CENTRAL,SC,29630,US,34.70806122,-82.75939178,2022-11-26 19:44:51
Waffle House,447 HWY 72 BY PASS,,GREENWOOD,SC,29649,US,34.2091713,-82.18309784,2022-11-26 19:44:51
Waffle House,7415 SPOUT SPRINGS,,FLOWERY BRANCH,GA,30542,US,34.10768127,-83.87323761,2022-11-26 19:44:51
Waffle House,655 COLUMBIA AVE,,CHAPIN,SC,29036,US,34.17624283,-81.32546234,2022-11-26 19:44:51
Waffle House,1108 BY PASS 25 NE,,GREENWOOD,SC,29649,US,34.20817184,-82.14502716,2022-11-26 19:44:51
Waffle House,932 BUFORD DR,,LAWRENCEVILLE,GA,30043,US,33.98864365,-83.98473358,2022-11-26 19:44:51
Waffle House,3845 GRANDVIEW DR,,SIMPSONVILLE,SC,29680,US,34.71822357,-82.25643158,2022-11-26 19:44:51
Waffle House,2229 SAVANNAH HWY,,CHARLESTON,SC,29414,US,32.79141998,-80.0394516,2022-11-26 19:44:49
Waffle House,1509 HWY 101 SOUTH,,GREER,SC,29651,US,34.89585876,-82.16246033,2022-11-26 19:44:51
Waffle House,1593 BEAR CREEK ROAD,,COLUMBIA,TN,38401,US,35.6428566,-86.89472961,2022-11-26 19:44:51
Waffle House,1400 US HWY 78,,MONROE,GA,30655,US,33.81333542,-83.67993164,2022-11-26 19:44:51
Waffle House,8915 OLD  6 HWY,,SANTEE,SC,29142,US,33.48736954,-80.47512817,2022-11-26 19:44:49
Waffle House,325 SAVANNAH HWY,,CHARLESTON,SC,29407,US,32.78113937,-79.96623993,2022-11-26 19:44:49
Waffle House,1133 W. WADE HAMPTON,,GREER,SC,29650,US,34.94254303,-82.25657654,2022-11-26 19:44:51
Waffle House,643 S HWY 92,,DANDRIDGE,TN,37725,US,36.03666687,-83.43624878,2022-11-26 19:44:51
Waffle House,6079 GOSHEN SPNGS RD,,NORCROSS,GA,30071,US,33.9158287,-84.20795441,2022-11-26 19:44:51
Waffle House,1780 J.A. COCHRAN,,CHESTER,SC,29706,US,34.70487976,-81.1905365,2022-11-26 19:44:51
Waffle House,471 INDEPENDENCE,,HARDEEVILLE,SC,29927,US,32.31297302,-81.05630493,2022-11-26 19:44:49
Waffle House,644 NASHVILLE PIKE,,GALLATIN,TN,37066,US,36.38228989,-86.46064758,2022-11-26 19:44:51
Waffle House,1408 HWY 16 WEST,,GRIFFIN,GA,30223,US,33.24729919,-84.2893219,2022-11-26 19:44:51
Waffle House,730 NORTH MAIN ST,,SHELBYVILLE,TN,37160,US,35.49082947,-86.45854187,2022-11-26 19:44:51
Waffle House,1064 TIGER BLVD,,CLEMSON,SC,29631,US,34.69092941,-82.83686066,2022-11-26 19:44:51
Waffle House,90 N WHYTE HARDEE BD,,HARDEEVILLE,SC,29927,US,32.27070618,-81.08058167,2022-11-26 19:44:49
Waffle House,380 HWY 109 N,,LEBANON,TN,37090,US,36.18970108,-86.41029358,2022-11-26 19:44:51
Waffle House,9159 ROOSEVELT HWY,,PALMETTO,GA,30268,US,33.52812958,-84.66155243,2022-11-26 19:44:51
Waffle House,1105 EGLIN PKWY,,SHALIMAR,FL,32579,US,30.43998337,-86.58242798,2022-11-26 19:44:49
Waffle House,804 SOUTH BROAD ST,,CLINTON,SC,29325,US,34.46012878,-81.87898254,2022-11-26 19:44:51
Waffle House,9570 ASHEVILLE HWY,,INMAN,SC,29349,US,35.02592087,-82.03237152,2022-11-26 19:44:51
Waffle House,706 SULLIVAN RD,,STATESVILLE,NC,28677,US,35.80487823,-80.87614441,2022-11-26 19:44:51
Waffle House,465 GORDONSVILLE HWY,,GORDONSVILLE,TN,38563,US,36.18188858,-85.94780731,2022-11-26 19:44:51
Waffle House,4346 FULTON,,ATLANTA,GA,30336,US,33.76442337,-84.53107452,2022-11-26 19:44:51
Waffle House,501 EAST INNES ST.,,SALISBURY,NC,28144,US,35.66352081,-80.46586609,2022-11-26 19:44:51
Waffle House,12528 HWY 56 NORTH,,CLINTON,SC,29325,US,34.50485992,-81.85986328,2022-11-26 19:44:51
Waffle House,3565 SAVANNAH HWY,,JOHNS ISLAND,SC,29455,US,32.80230713,-80.10823822,2022-11-26 19:44:49
Waffle House,157 ASHEVILLE HWY,,SYLVA,NC,28779,US,35.37713623,-83.2129364,2022-11-26 19:44:51
Waffle House,4343 HIGHWAY 58,,CHATTANOOGA,TN,37416,US,35.08369064,-85.20413208,2022-11-26 19:44:51
Waffle House,265 JONESBORO RD,,MCDONOUGH,GA,30253,US,33.45269394,-84.16690826,2022-11-26 19:44:51
Waffle House,5013 CHARLOTTE HWY,,CLOVER,SC,29710,US,35.11711884,-81.07733917,2022-11-26 19:44:51
Waffle House,904 ORANGEBURG ROAD,,KNIGHTSVILLE,SC,29483,US,33.01110077,-80.23709869,2022-11-26 19:44:49
Waffle House,102 SIGNAL MTN RD,,CHATTANOOGA,TN,37405,US,35.08402634,-85.31797791,2022-11-26 19:44:51
Waffle House,20 AUBURN PARK DR,,AUBURN,GA,30011,US,34.01101303,-83.84201813,2022-11-26 19:44:51
Waffle House,778 ST. ANDREWS RD,,COLUMBIA,SC,29210,US,34.04388046,-81.12023163,2022-11-26 19:44:51
Waffle House,354 COLLEGE PARK RD,,LADSON,SC,29456,US,33.00091171,-80.09073639,2022-11-26 19:44:49
Waffle House,2024 E 23RD STREET,,CHATTANOOGA,TN,37405,US,35.01818848,-85.2806778,2022-11-26 19:44:51
Waffle House,1917 ATLANTA HWY,,STATHAM,GA,30666,US,33.96465683,-83.59766388,2022-11-26 19:44:51
Waffle House,7505 TWO NOTCH RD,,COLUMBIA,SC,29223,US,34.07527924,-80.94574738,2022-11-26 19:44:51
Waffle House,21360 HWY 221 N,,LAURENS,SC,29360,US,34.55516815,-82.0068512,2022-11-26 19:44:51
Waffle House,501 VERNON STREET,,LAGRANGE,GA,30240,US,33.03841019,-85.03840637,2022-11-26 19:44:51
Waffle House,1670 CAPITAL CIR NW,,TALLAHASSEE,FL,32303,US,30.47414017,-84.36318207,2022-11-26 19:44:49
Waffle House,1640 HIGHWAY 138,,LOGANVILLE,GA,30052,US,33.74176407,-83.85450745,2022-11-26 19:44:51
Waffle House,256 WINFIELD DUNN,,SEVIERVILLE,TN,37876,US,35.87189865,-83.56816864,2022-11-26 19:44:51
Waffle House,4229 HARD SCRABBLE,,COLUMBIA,SC,29223,US,34.13899231,-80.91479492,2022-11-26 19:44:51
Waffle House,5475 SUNSET BLVD,,LEXINGTON,SC,29072,US,33.99837875,-81.21836853,2022-11-26 19:44:51
Waffle House,627 TENNESSEE AVE,,ETOWAH,TN,37331,US,35.34423828,-84.34423828,2022-11-26 19:44:51
Waffle House,3210 N MONROE ST,,TALLAHASSEE,FL,32303,US,30.48612976,-84.31490326,2022-11-26 19:44:49
Waffle House,4903 BRAINARD ROAD,,CHATTANOOGA,TN,37411,US,35.0128479,-85.22763824,2022-11-26 19:44:51
Waffle House,5598 BUFORD HWY,,DORAVILLE,GA,30340,US,33.90441132,-84.27246094,2022-11-26 19:44:51
Waffle House,14005 HIGHWAY 43,,RUSSELLVILLE,AL,35653,US,34.49710083,-87.72280121,2022-11-26 19:44:51
Waffle House,2345 BROAD RIVER RD,,COLUMBIA,SC,29210,US,34.04130936,-81.09633636,2022-11-26 19:44:51
Waffle House,7047 AMIN DRIVE,,CHATTANOOGA,TN,37421,US,35.04262161,-85.15872192,2022-11-26 19:44:51
Waffle House,2045 HWY 155 NORTH,,MCDONOUGH,GA,30252,US,33.50595856,-84.14212036,2022-11-26 19:44:51
Waffle House,7428 GARNERS FERRY,,COLUMBIA,SC,29209,US,33.96568298,-80.94334412,2022-11-26 19:44:51
Waffle House,2010 WEST FRANKLIN,,GASTONIA,NC,28052,US,35.2594986,-81.21990204,2022-11-26 19:44:51
Waffle House,4320 HARTLEY BRIDGE,,MACON,GA,31216,US,32.74243927,-83.71360779,2022-11-26 19:44:51
Waffle House,791 BUSINESS PARK DR,,PRATTVILLE,AL,36066,US,32.48764801,-86.41085052,2022-11-26 19:44:51
Waffle House,1210 BLUFF RD,,COLUMBIA,SC,29201,US,33.97003937,-81.01633453,2022-11-26 19:44:51
Waffle House,3707 S NEW HOPE RD,,GASTONIA,NC,28056,US,35.22174454,-81.10198975,2022-11-26 19:44:51
Waffle House,11126 FRONT BEACH RD,,PANAMA CITY BEACH,FL,32407,US,30.18363762,-85.81703949,2022-11-26 19:44:49
Waffle House,2597 COBBS FORD RD,,PRATTVILLE,AL,36066,US,32.46130371,-86.38986206,2022-11-26 19:44:51
Waffle House,916 HARDEN STREET,,COLUMBIA,SC,29205,US,34.00242996,-81.01709747,2022-11-26 19:44:51
Waffle House,2223 UNION ROAD,,GASTONIA,NC,28054,US,35.23099899,-81.16899872,2022-11-26 19:44:51
Waffle House,1939 W TENNESSEE ST,,TALLAHASSEE,FL,32304,US,30.4485817,-84.31607056,2022-11-26 19:44:49
Waffle House,7329 N. DAVIS HWY.,,PENSACOLA,FL,32504,US,30.50217819,-87.22205353,2022-11-26 19:44:49
Waffle House,201 FAIRVIEW RD,,ELLENWOOD,GA,30294,US,33.61923981,-84.24211884,2022-11-26 19:44:51
Waffle House,4688 PINSON BLVD.,,PINSON,AL,35126,US,33.6950798,-86.68282318,2022-11-26 19:44:51
Waffle House,7271 GARNERS FERRY,,COLUMBIA,SC,29209,US,33.97151947,-80.95092773,2022-11-26 19:44:51
Waffle House,1845 REMOUNT RD,,GASTONIA,NC,28054,US,35.26918411,-81.14674377,2022-11-26 19:44:51
Waffle House,3470 THOMASVILLE RD,,TALLAHASSEE,FL,32309,US,30.50723648,-84.25011444,2022-11-26 19:44:49
Waffle House,5067 J TURNER BUTLER,,JACKSONVILLE,FL,32216,US,30.24532318,-81.59886169,2022-11-26 19:44:49
Waffle House,3898 HIGHWAY 80 WEST,,PHENIX CITY,AL,36867,US,32.4703064,-85.0900116,2022-11-26 19:44:51
Waffle House,491 PINEY GROVE RD,,COLUMBIA,SC,29210,US,34.06815338,-81.14047241,2022-11-26 19:44:51
Waffle House,1729 BESSEMER CITY,,GASTONIA,NC,28052,US,35.27919769,-81.23397827,2022-11-26 19:44:51
Waffle House,3090 WALDEN RD,,TALLAHASSEE,FL,32317,US,30.48345947,-84.16230774,2022-11-26 19:44:49
Waffle House,5005 HWY 155 NORTH,,STOCKBRIDGE,GA,30281,US,33.58309555,-84.14971161,2022-11-26 19:44:51
Waffle House,3509 RETAIL DRIVE,,PHENIX CITY,AL,36867,US,32.42462158,-85.03642273,2022-11-26 19:44:51
Waffle House,8208 TWO NOTCH RD,,COLUMBIA,SC,29223,US,34.08439636,-80.93777466,2022-11-26 19:44:51
Waffle House,5022 CAPITAL CIR SW,,TALLAHASSEE,FL,32305,US,30.37408829,-84.29293823,2022-11-26 19:44:49
Waffle House,10690 COVINGTON,,COVINGTON,GA,30014,US,33.57125854,-83.84928894,2022-11-26 19:44:51
Waffle House,205 STONERIDGE DR,,COLUMBIA,SC,29210,US,34.01523972,-81.07662964,2022-11-26 19:44:51
Waffle House,828 HWY 76,,WHITE HOUSE,TN,37188,US,36.46895218,-86.67759705,2022-11-26 19:44:51
Waffle House,3500 APALACHEE PKWY,,TALLAHASSEE,FL,32311,US,30.42830467,-84.21613312,2022-11-26 19:44:49
Waffle House,8010 LAVELLE WAY,,PENSACOLA,FL,32526,US,30.52009964,-87.31468201,2022-11-26 19:44:49
Waffle House,3310 HAMILTON MILL,,BUFORD,GA,30519,US,34.09448624,-83.93713379,2022-11-26 19:44:51
Waffle House,2965 PELHAM PKWY,,PELHAM,AL,35124,US,33.29887009,-86.80970764,2022-11-26 19:44:51
Waffle House,1001 CLEMSON FRONTAG,,COLUMBIA,SC,29229,US,34.09709167,-80.85559845,2022-11-26 19:44:51
Waffle House,17110 BACK BEACH RD,,PANAMA CITY BEACH,FL,32413,US,30.23046875,-85.88825989,2022-11-26 19:44:49
Waffle House,1245 NORTH BROAD ST,,MONROE,GA,30656,US,33.81869888,-83.73101044,2022-11-26 19:44:51
Waffle House,1203 MARTIN ST. N,,PELL CITY,AL,35125,US,33.60312653,-86.28289795,2022-11-26 19:44:51
Waffle House,8600 FARROW RD,,COLUMBIA,SC,29203,US,34.0959816,-80.96144104,2022-11-26 19:44:51
Waffle House,3707 SUMMERVILLE RD,,PHENIX CITY,AL,36867,US,32.49721146,-85.01596832,2022-11-26 19:44:51
Waffle House,4670 BILL GARDNER,,LOCUST GROVE,GA,30248,US,33.35169983,-84.12809753,2022-11-26 19:44:51
Waffle House,519 N DUNCAN BY PASS,,UNION,SC,29379,US,34.72870636,-81.6394043,2022-11-26 19:44:51
Waffle House,451 WAL MART COURT,,EASTANOLLEE,GA,30538,US,34.54531097,-83.28476715,2022-11-26 19:44:51
Waffle House,"3603 HWY 280/431,N",,PHENIX CITY,AL,36867,US,32.49546814,-85.04204559,2022-11-26 19:44:51
Waffle House,1005 VOLUNTEER PKWY,,BRISTOL,TN,37620,US,36.57403183,-82.1913147,2022-11-26 19:44:51
Waffle House,580 FOB JAMES PKWY,,VALLEY,AL,36854,US,32.81970215,-85.21096039,2022-11-26 19:44:51
Waffle House,5536 MCEVER RD,,FLOWERY BRANCH,GA,30542,US,34.19900513,-83.92485809,2022-11-26 19:44:51
Waffle House,3023 COLUMBIANA RD,,VESTAVIA HILLS,AL,35216,US,33.41467285,-86.80541229,2022-11-26 19:44:51
Waffle House,3036 ANVIL BLOCK RD,,ELLENWOOD,GA,30294,US,33.63434601,-84.28987122,2022-11-26 19:44:51
Waffle House,3949 PLATT SPRINGS,,WEST COLUMBIA,SC,29170,US,33.94031906,-81.14598846,2022-11-26 19:44:51
Waffle House,4575 STATE ROUTE 20,,NICEVILLE,FL,32578,US,30.48280907,-86.41551971,2022-11-26 19:44:49
Waffle House,66 5TH STREET,,ATLANTA,GA,30308,US,33.77678299,-84.38945007,2022-11-26 19:44:51
Waffle House,1646 BELLS HIGHWAY,,WALTERBORO,SC,29488,US,32.92894363,-80.68797302,2022-11-26 19:44:49
Waffle House,10327 FRONT BEACH RD,,PANAMA CITY BEACH,FL,32407,US,30.17773247,-85.80603027,2022-11-26 19:44:49
Waffle House,3201 HWY 36 WEST,,JACKSON,GA,30233,US,33.20346069,-84.06289673,2022-11-26 19:44:51
Waffle House,1326 SNIDERS HWY,,WALTERBORO,SC,29488,US,32.87990189,-80.71195984,2022-11-26 19:44:49
Waffle House,6635 HWY 129,,LIVE OAK,FL,32060,US,30.32972145,-82.9638443,2022-11-26 19:44:49
Waffle House,100 PIEDMONT AVE SE,,ATLANTA,GA,30303,US,33.75089264,-84.38562012,2022-11-26 19:44:51
Waffle House,3939 SUNSET BLVD.,,WEST COLUMBIA,SC,29169,US,34.0075531,-81.14311218,2022-11-26 19:44:51
Waffle House,4865 RIDGE RD,,DOUGLASVILLE,GA,30134,US,33.81833649,-84.81166077,2022-11-26 19:44:51
Waffle House,2506 AUGUSTA RD,,WEST COLUMBIA,SC,29169,US,33.98192215,-81.10330963,2022-11-26 19:44:51
Waffle House,2203 US HWY 41 NORTH,,TIFTON,GA,31794,US,31.47579956,-83.51895142,2022-11-26 19:44:49
Waffle House,606 COULTER DRIVE,,NEW ALBANY,MS,38652,US,34.49674225,-89.02974701,2022-11-26 19:44:51
Waffle House,2846 CHARLESTON HWY,,WEST COLUMBIA,SC,29169,US,33.93458557,-81.07720947,2022-11-26 19:44:51
Waffle House,101 MARS HILL CHURCH,,DALLAS,GA,30157,US,33.90732956,-84.82441711,2022-11-26 19:44:51
Waffle House,2510 SUNSET BLVD,,WEST COLUMBIA,SC,29169,US,34.00366592,-81.10796356,2022-11-26 19:44:51
Waffle House,3340 GULF BREEZE,,GULF BREEZE,FL,32563,US,30.38763809,-87.0843277,2022-11-26 19:44:49
Waffle House,2914 MEMORIAL DR,,ATLANTA,GA,30317,US,33.74733353,-84.29172516,2022-11-26 19:44:51
Waffle House,103 LOGAN COURT,,ALBANY,GA,31707,US,31.58557892,-84.21852112,2022-11-26 19:44:49
Waffle House,7 E NINE MILE RD,,PENSACOLA,FL,32534,US,30.53304482,-87.27225494,2022-11-26 19:44:49
Waffle House,4881 ATLANTA HWY,,ATHENS,GA,30606,US,33.94097137,-83.49826813,2022-11-26 19:44:51
Waffle House,710 SIXTH AVENUE NE,,DECATUR,AL,35601,US,34.60772324,-86.97886658,2022-11-26 19:44:51
Waffle House,2715 LEDO ROAD,,ALBANY,GA,31707,US,31.62290001,-84.20619965,2022-11-26 19:44:49
Waffle House,173 HWY 411 EAST,,ROME,GA,30161,US,34.2229805,-85.14846039,2022-11-26 19:44:51
Waffle House,3305 POINT MALLARD,,DECATUR,AL,35603,US,34.53619003,-86.90948486,2022-11-26 19:44:51
Waffle House,12370 A ARNOLD MILL,,ALPHARETTA,GA,30004,US,34.08317947,-84.3579483,2022-11-26 19:44:51
Waffle House,1300 HWY 9 BY PASS,,LANCASTER,SC,29720,US,34.73338318,-80.8013916,2022-11-26 19:44:51
Waffle House,"6184 HWY 21, SOUTH",,RINCON,GA,31326,US,32.25195694,-81.21247864,2022-11-26 19:44:49
Waffle House,2849 ROSS CLARK CIR,,DOTHAN,AL,36301,US,31.21582031,-85.43070221,2022-11-26 19:44:49
Waffle House,968 WEST US HWY 64,,MURPHY,NC,28906,US,35.07817078,-84.04125214,2022-11-26 19:44:51
Waffle House,3319 OLD MILTON PKWY,,ALPHARETTA,GA,30005,US,34.0687294,-84.2677536,2022-11-26 19:44:51
Waffle House,705 N. MAIN ST.,,GREER,SC,29651,US,34.94892883,-82.22486877,2022-11-26 19:44:51
Waffle House,4115 BUFORD DR,,BUFORD,GA,30518,US,34.09254837,-84.00054169,2022-11-26 19:44:51
Waffle House,2325 REEVES ST,,DOTHAN,AL,36303,US,31.2562027,-85.38851166,2022-11-26 19:44:49
Waffle House,609 LONG POINT RD,,MOUNT PLEASANT,SC,29464,US,32.84129715,-79.85906982,2022-11-26 19:44:49
Waffle House,2940 MANSELL RD,,ALPHARETTA,GA,30022,US,34.03730011,-84.29547119,2022-11-26 19:44:51
Waffle House,910 S. PENDLETON ST.,,EASLEY,SC,29642,US,34.81745148,-82.60141754,2022-11-26 19:44:51
Waffle House,3006 NORTHSIDE PKWY,,CANTON,GA,30115,US,34.23786163,-84.46305847,2022-11-26 19:44:51
Waffle House,4091 WEST MAIN ST,,DOTHAN,AL,36305,US,31.23393059,-85.45339966,2022-11-26 19:44:49
Waffle House,8555 KESHAV TAYLOR,,MILTON,FL,32583,US,30.62104034,-86.96473694,2022-11-26 19:44:49
Waffle House,2850 HOLCOMB BRIDGE,,ALPHARETTA,GA,30022,US,33.9912529,-84.27861023,2022-11-26 19:44:51
Waffle House,1049 S ANDERSON,,ROCK HILL,SC,29730,US,34.91466904,-80.98560333,2022-11-26 19:44:51
Waffle House,2054 HIGHWAY 40 EAST,,KINGSLAND,GA,31548,US,30.78029823,-81.62408447,2022-11-26 19:44:49
Waffle House,1925 E MAIN STREET,,DOTHAN,AL,36301,US,31.21715927,-85.36197662,2022-11-26 19:44:49
Waffle House,2662 AVALON BLVD,,MILTON,FL,32583,US,30.53158951,-87.08715057,2022-11-26 19:44:49
Waffle House,536 HAYWOOD RD,,GREENVILLE,SC,29607,US,34.84676743,-82.33992004,2022-11-26 19:44:51
Waffle House,5480 RIVERDALE ROAD,,COLLEGE PARK,GA,30349,US,33.60575485,-84.43514252,2022-11-26 19:44:51
Waffle House,3591 ROSS CLARK CIR,,DOTHAN,AL,36303,US,31.24827385,-85.42627716,2022-11-26 19:44:49
Waffle House,6558 CAROLINE STREET,,MILTON,FL,32570,US,30.61956978,-87.04969788,2022-11-26 19:44:49
Waffle House,150 COOK STREET,,ABINGDON,VA,24210,US,36.70244217,-81.97409058,2022-11-26 19:44:51
Waffle House,1627 WOODRUFF RD,,GREENVILLE,SC,29607,US,34.81954956,-82.27488708,2022-11-26 19:44:51
Waffle House,1326 VETERANS,,COLUMBUS,GA,31901,US,32.47179031,-84.98709869,2022-11-26 19:44:51
Waffle House,637 BOLL WEEVIL CIR,,ENTERPRISE,AL,36330,US,31.32157326,-85.83145142,2022-11-26 19:44:49
Waffle House,2380 E BRICKYARD RD,,MIDWAY,FL,32343,US,30.48505974,-84.42330933,2022-11-26 19:44:49
Waffle House,112 CHEROKEE,,WHITTIER,NC,28789,US,35.46217346,-83.31636047,2022-11-26 19:44:51
Waffle House,1035 HWY 123 BYPASS,,SENECA,SC,29678,US,34.69311142,-82.97757721,2022-11-26 19:44:51
Waffle House,140 WEST CLAYTON,,ATHENS,GA,30601,US,33.95815277,-83.37743378,2022-11-26 19:44:51
Waffle House,1551 S. EUFALA AVE,,EUFAULA,AL,36027,US,31.87304878,-85.15352631,2022-11-26 19:44:49
Waffle House,7813 BROAD RIVER RD,,IRMO,SC,29063,US,34.09981537,-81.17881775,2022-11-26 19:44:51
Waffle House,8624 DALLAS ACWORTH,,DALLAS,GA,30132,US,34.00886154,-84.75572205,2022-11-26 19:44:51
Waffle House,636 BESSEMER SUPER,,FAIRFIELD,AL,35064,US,33.46457672,-86.91066742,2022-11-26 19:44:51
Waffle House,32 BARBER BLVD,,WAYNESVILLE,NC,28786,US,35.50329971,-82.98979187,2022-11-26 19:44:51
Waffle House,1530 EAST MAIN ST,,DUNCAN,SC,29334,US,34.9100914,-82.1032486,2022-11-26 19:44:51
Waffle House,2020 FLAT SHOALS RD,,CONYERS,GA,30013,US,33.63080978,-83.97577667,2022-11-26 19:44:51
Waffle House,1100 DALLAS,,DALLAS,NC,28034,US,35.31560516,-81.19315338,2022-11-26 19:44:51
Waffle House,371 LONG SHOALS RD,,ARDEN,NC,28704,US,35.48124313,-82.55184174,2022-11-26 19:44:51
Waffle House,10245 GA HIGHWAY 142,,COVINGTON,GA,30014,US,33.60743332,-83.82872772,2022-11-26 19:44:52
Waffle House,1520 SOUTH MAIN,,DARLINGTON,SC,29532,US,34.28085327,-79.85614014,2022-11-26 19:44:49
Waffle House,5087 HIGHWAY 31,,CALERA,AL,35040,US,33.1479187,-86.74877167,2022-11-26 19:44:51
Waffle House,9464 HIGHWAY 5,,DOUGLASVILLE,GA,30135,US,33.72570419,-84.76176453,2022-11-26 19:44:51
Waffle House,2060 WEST HWY 98,,MARY ESTHER,FL,32569,US,30.41216087,-86.74263,2022-11-26 19:44:49
Waffle House,2208 CENTER POINT,,CENTER POINT,AL,35215,US,33.64261246,-86.68405914,2022-11-26 19:44:51
Waffle House,103 TALBOT DRIVE,,HEPHZIBAH,GA,30815,US,33.37770081,-82.07452393,2022-11-26 19:44:52
Waffle House,4201 LAFAYETTE ST,,MARIANNA,FL,32446,US,30.78211594,-85.24623871,2022-11-26 19:44:49
Waffle House,172 WEAVER BLVD,,WEAVERVILLE,NC,28787,US,35.7037735,-82.57080078,2022-11-26 19:44:51
Waffle House,3164 DEANS BRIDGE RD,,AUGUSTA,GA,30906,US,33.4220314,-82.06221771,2022-11-26 19:44:52
Waffle House,2070 WEST MAIN ST,,CENTRE,AL,35960,US,34.16175079,-85.71588135,2022-11-26 19:44:51
Waffle House,706 WEST 7TH STREET,,TIFTON,GA,31794,US,31.45063019,-83.52336121,2022-11-26 19:44:49
Waffle House,17837 ST HWY 285 S,,DEFUNIAK SPRINGS,FL,32435,US,30.73521805,-86.34959412,2022-11-26 19:44:49
Waffle House,2215 HWY 71,,MARIANNA,FL,32448,US,30.72582626,-85.18585205,2022-11-26 19:44:49
Waffle House,3408 MIKE PADGETT HY,,AUGUSTA,GA,30906,US,33.39907837,-82.00537872,2022-11-26 19:44:52
Waffle House,10002 ABERCORN ST,,SAVANNAH,GA,31406,US,31.99212265,-81.1292038,2022-11-26 19:44:49
Waffle House,586 HUGH ADAMS RD.,,DEFUNIAK SPRINGS,FL,32435,US,30.69584465,-86.12164307,2022-11-26 19:44:49
Waffle House,145  SE BANDIT ST,,MADISON,FL,32340,US,30.39862251,-83.35790253,2022-11-26 19:44:49
Waffle House,1202 GEORGE C WILSON,,AUGUSTA,GA,30909,US,33.48239136,-82.08798981,2022-11-26 19:44:52
Waffle House,2230 7TH STREET S,,CLANTON,AL,35046,US,32.80108643,-86.57733154,2022-11-26 19:44:51
Waffle House,772 DACULA RD,,DACULA,GA,30019,US,34.00547791,-83.91338348,2022-11-26 19:44:51
Waffle House,1495 S 6TH ST,,MACCLENNY,FL,32063,US,30.26260376,-82.12266541,2022-11-26 19:44:49
Waffle House,3134 PEACH ORCHRD RD,,AUGUSTA,GA,30906,US,33.40940857,-82.02681732,2022-11-26 19:44:52
Waffle House,1707 COUNTY RD 437,,GOOD HOPE,AL,35055,US,34.11483002,-86.86405182,2022-11-26 19:44:51
Waffle House,13727 INDEPENDENCE,,INDIAN TRAIL,NC,28079,US,35.08507919,-80.66134644,2022-11-26 19:44:52
Waffle House,135 ANDREW YOUNG,,ATLANTA,GA,30303,US,33.75995255,-84.39183807,2022-11-26 19:44:51
Waffle House,675 WILSON STREET,,WETUMPKA,AL,36092,US,32.52894974,-86.20459747,2022-11-26 19:44:52
Waffle House,2951 WASHINGTON ROAD,,AUGUSTA,GA,30909,US,33.51166916,-82.04006195,2022-11-26 19:44:52
Waffle House,394 VIRGINIA AVE,,DALEVILLE,AL,36322,US,31.3005085,-85.72637177,2022-11-26 19:44:49
Waffle House,5310 CAMPBELLTON,,FAIRBURN,GA,30213,US,33.61351013,-84.61225128,2022-11-26 19:44:51
Waffle House,154 REGIONS WAY,,DESTIN,FL,32541,US,30.38926125,-86.41938782,2022-11-26 19:44:49
Waffle House,1055 GEORGIA HWY 96,,WARNER ROBINS,GA,31088,US,32.55289841,-83.68920135,2022-11-26 19:44:52
Waffle House,1194 COLUMBIA DRIVE,,DECATUR,GA,30032,US,33.75436783,-84.26678467,2022-11-26 19:44:51
Waffle House,4631 WEST MOBILE,,PENSACOLA,FL,32506,US,30.43749046,-87.27960968,2022-11-26 19:44:49
Waffle House,1067 EAST HIGHWAY 98,,DESTIN,FL,32541,US,30.3864994,-86.46868896,2022-11-26 19:44:49
Waffle House,1287 S HOUSTON LAKE,,WARNER ROBINS,GA,31088,US,32.55720139,-83.66226196,2022-11-26 19:44:52
Waffle House,2916 BUFORD DRIVE,,BUFORD,GA,30519,US,34.05302811,-83.99481964,2022-11-26 19:44:51
Waffle House,3399 MICHIGAN AVE,,PENSACOLA,FL,32526,US,30.46029091,-87.30010986,2022-11-26 19:44:49
Waffle House,209 EAST HWY 98,,DESTIN,FL,32541,US,30.39466095,-86.5069809,2022-11-26 19:44:49
Waffle House,100 SUGARLOAF RD,,HENDERSONVILLE,NC,28792,US,35.34416962,-82.43570709,2022-11-26 19:44:51
Waffle House,4065 FORSYTH ROAD,,MACON,GA,31210,US,32.86486053,-83.69159698,2022-11-26 19:44:52
Waffle House,"9539 HWY 92,STE 100",,WOODSTOCK,GA,30188,US,34.08638763,-84.53025055,2022-11-26 19:44:51
Waffle House,8220 PINEVILLE,,CHARLOTTE,NC,28134,US,35.08810043,-80.85832977,2022-11-26 19:44:52
Waffle House,1330 GRAY HIGHWAY,,MACON,GA,31211,US,32.86126328,-83.61442566,2022-11-26 19:44:52
Waffle House,6207 HIGHWAY 221,,ROEBUCK,SC,29376,US,34.83910751,-81.96929169,2022-11-26 19:44:51
Waffle House,6011 ASHEVILLE HWY,,HENDERSONVILLE,NC,28791,US,35.40151978,-82.50947571,2022-11-26 19:44:51
Waffle House,4301 VICTORY DRIVE,,COLUMBUS,GA,31903,US,32.40626144,-84.93659973,2022-11-26 19:44:52
Waffle House,496 SOUTH HERLONG DR,,ROCK HILL,SC,29732,US,34.95257187,-81.06150055,2022-11-26 19:44:52
Waffle House,1245 HIGHWAY 321 NW,,HICKORY,NC,28601,US,35.74923706,-81.36872864,2022-11-26 19:44:51
Waffle House,2015 BELTLINE RD SW,,DECATUR,AL,35601,US,34.57759857,-87.01899719,2022-11-26 19:44:51
Waffle House,1122 MAPLE STREET,,CARROLLTON,GA,30117,US,33.57196045,-85.09098816,2022-11-26 19:44:51
Waffle House,2553 CHERRY ROAD,,ROCK HILL,SC,29730,US,34.97132874,-80.98996735,2022-11-26 19:44:52
Waffle House,1227 13TH AVE DR SE,,HICKORY,NC,28602,US,35.71113586,-81.31334686,2022-11-26 19:44:51
Waffle House,197 TOWNLAKE PKWY,,WOODSTOCK,GA,30188,US,34.10259247,-84.52762604,2022-11-26 19:44:51
Waffle House,680 CHAMPION DR,,CANTON,NC,28716,US,35.55228043,-82.85079193,2022-11-26 19:44:51
Waffle House,6445 ROSWELL ROAD,,SANDY SPRINGS,GA,30328,US,33.93090057,-84.37956238,2022-11-26 19:44:51
Waffle House,34 CONTRACTOR'S WAY,,RIDGEWAY,SC,29130,US,34.30773163,-81.00305939,2022-11-26 19:44:52
Waffle House,19 WEST MAY STREET,,WINDER,GA,30680,US,33.99155045,-83.72428894,2022-11-26 19:44:51
Waffle House,1629 NC HWY 67,,JONESVILLE,NC,28642,US,36.23953629,-80.81925201,2022-11-26 19:44:51
Waffle House,4510 ALTAMA AVENUE,,BRUNSWICK,GA,31520,US,31.19376755,-81.48564911,2022-11-26 19:44:49
Waffle House,8185 EAST MAIN ST,,RIDGELAND,SC,29936,US,32.47870636,-80.97438812,2022-11-26 19:44:49
Waffle House,1501 WATSON BLVD,,WARNER ROBINS,GA,31093,US,32.61824036,-83.62579346,2022-11-26 19:44:52
Waffle House,1940 E PRESIDENT ST.,,SAVANNAH,GA,31404,US,32.07030869,-81.05632782,2022-11-26 19:44:49
Waffle House,3916 FLAT SHOALS PKY,,DECATUR,GA,30034,US,33.69444656,-84.26130676,2022-11-26 19:44:51
Waffle House,381 US HWY 31 N,,ATHENS,AL,35611,US,34.80812454,-86.94968414,2022-11-26 19:44:51
Waffle House,310 RUSSELL PKWY,,WARNER ROBINS,GA,31088,US,32.5941124,-83.62804413,2022-11-26 19:44:52
Waffle House,8635 HANKINS RD,,CHARLOTTE,NC,28217,US,35.34108734,-80.83540344,2022-11-26 19:44:52
Waffle House,260 WEST BELMONT DR.,,CALHOUN,GA,30701,US,34.47993088,-84.94078064,2022-11-26 19:44:51
Waffle House,112 RAILROAD AVE,,RUTHERFORDTON,NC,28139,US,35.36395264,-81.94165039,2022-11-26 19:44:51
Waffle House,6637 E. INDEPENDENCE,,CHARLOTTE,NC,28212,US,35.17044449,-80.74420166,2022-11-26 19:44:52
Waffle House,"490 VETERANS PKWY, N",,MOULTRIE,GA,31788,US,31.19036484,-83.76176453,2022-11-26 19:44:49
Waffle House,213 EXCHANGE BLVD,,BETHLEHEM,GA,30620,US,33.94760132,-83.75229645,2022-11-26 19:44:51
Waffle House,2125 WEST ARROWOOD,,CHARLOTTE,NC,28217,US,35.14563751,-80.92429352,2022-11-26 19:44:52
Waffle House,908 THORNTON RD,,LITHIA SPRINGS,GA,30122,US,33.7796402,-84.60697937,2022-11-26 19:44:51
Waffle House,3048 MALLORY LANE,,FRANKLIN,TN,37067,US,35.94511414,-86.81946564,2022-11-26 19:44:51
Waffle House,14106 STATESVILLE RD,,HUNTERSVILLE,NC,28078,US,35.40831375,-80.85442352,2022-11-26 19:44:52
Waffle House,8512 STEELE CREEK RD,,CHARLOTTE,NC,28273,US,35.17160797,-80.96124268,2022-11-26 19:44:52
Waffle House,1450 VETERANS MEML.,,MABLETON,GA,30126,US,33.79880142,-84.51274872,2022-11-26 19:44:51
Waffle House,474 US HWY 1 SOUTH,,ROCKINGHAM,NC,28379,US,34.91251373,-79.79074097,2022-11-26 19:44:52
Waffle House,1312 MURFREESBORO RD,,FRANKLIN,TN,37064,US,35.91461182,-86.82686615,2022-11-26 19:44:51
Waffle House,2451 S STERLING ST,,MORGANTON,NC,28655,US,35.72008514,-81.65157318,2022-11-26 19:44:51
Waffle House,1240 E GARNER BAGNAL,,STATESVILLE,NC,28677,US,35.77145767,-80.85968781,2022-11-26 19:44:51
Waffle House,4740 FLAT SHOALS,,DECATUR,GA,30034,US,33.68310165,-84.23290253,2022-11-26 19:44:51
Waffle House,11292 HWY 41,,RINGGOLD,GA,30736,US,34.89049911,-85.07428741,2022-11-26 19:44:51
Waffle House,941 CONFERENCE DR,,GOODLETTSVILLE,TN,37072,US,36.32456589,-86.70114136,2022-11-26 19:44:51
Waffle House,5028 NEW JESUP HWY,,BRUNSWICK,GA,31520,US,31.21809959,-81.5192337,2022-11-26 19:44:49
Waffle House,111 DAYS INN DR,,MOORESVILLE,NC,28117,US,35.59420013,-80.85723877,2022-11-26 19:44:51
Waffle House,101 SRP DRIVE,,EVANS,GA,30809,US,33.52313232,-82.14172363,2022-11-26 19:44:52
Waffle House,241 EAST MAIN ST.,,HENDERSONVILLE,TN,37075,US,36.30920029,-86.60209656,2022-11-26 19:44:51
Waffle House,1229 W ROOSEVELT,,MONROE,NC,28110,US,34.99390411,-80.54080963,2022-11-26 19:44:52
Waffle House,1000 W. GEORGIA ROAD,,SIMPSONVILLE,SC,29680,US,34.73472595,-82.28237915,2022-11-26 19:44:51
Waffle House,1674 W WASHINGTON RD,,EAST POINT,GA,30344,US,33.67552948,-84.44358826,2022-11-26 19:44:51
Waffle House,4797 CANTON ROAD,,MARIETTA,GA,30066,US,34.06792831,-84.52191925,2022-11-26 19:44:51
Waffle House,1090 WEST MAIN ST,,HENDERSONVILLE,TN,37075,US,36.30735016,-86.65572357,2022-11-26 19:44:51
Waffle House,309 NORTH HWY 52,,MONCKS CORNER,SC,29461,US,33.19878006,-79.99249268,2022-11-26 19:44:49
Waffle House,1227 VIRGINIA AVENUE,,EAST POINT,GA,30344,US,33.65901184,-84.42958832,2022-11-26 19:44:51
Waffle House,442 ELMA G. MILES,,HINESVILLE,GA,31313,US,31.84092522,-81.60080719,2022-11-26 19:44:49
Waffle House,4120 LEBANON PIKE,,HERMITAGE,TN,37076,US,36.20000076,-86.61949921,2022-11-26 19:44:51
Waffle House,2697 US- 52,,MONCKS CORNER,SC,29461,US,33.0965004,-80.03119659,2022-11-26 19:44:49
Waffle House,4788 MEMORIAL DRIVE,,DECATUR,GA,30032,US,33.78578949,-84.23468018,2022-11-26 19:44:51
Waffle House,1825 BARNETT SHOALS,,ATHENS,GA,30605,US,33.92631531,-83.33987427,2022-11-26 19:44:52
Waffle House,5771 OLD HICKORY,,HERMITAGE,TN,37076,US,36.17257309,-86.60189819,2022-11-26 19:44:51
Waffle House,1289 YADKINVILLE RD.,,MOCKSVILLE,NC,27028,US,35.91669846,-80.58329773,2022-11-26 19:44:51
Waffle House,1425 E VIRGINA AVE,,COLLEGE PARK,GA,30337,US,33.65924072,-84.43578339,2022-11-26 19:44:51
Waffle House,1808 EAST DIXON BLVD,,SHELBY,NC,28152,US,35.27148056,-81.4960022,2022-11-26 19:44:51
Waffle House,2025 BOLTON ROAD NW,,ATLANTA,GA,30318,US,33.81077957,-84.47580719,2022-11-26 19:44:51
Waffle House,7949 VILLA RICA HWY.,,DALLAS,GA,30157,US,33.81019974,-84.88819885,2022-11-26 19:44:51
Waffle House,326 WEST BUTLER RD,,MAULDIN,SC,29662,US,34.77584076,-82.31800079,2022-11-26 19:44:51
Waffle House,5335 ROSWELL ROAD NE,,ATLANTA,GA,30342,US,33.90103912,-84.37980652,2022-11-26 19:44:51
Waffle House,96 OLD TROLLEY RD,,SUMMERVILLE,SC,29485,US,32.99648285,-80.18223572,2022-11-26 19:44:49
Waffle House,5193 JONESBORO ROAD,,LAKE CITY,GA,30260,US,33.61429977,-84.34909821,2022-11-26 19:44:51
Waffle House,695 CARL ELLER RD,,MARS HILL,NC,28754,US,35.82024002,-82.53887177,2022-11-26 19:44:51
Waffle House,1908 N. MAIN ST.,,SUMMERVILLE,SC,29486,US,33.04411316,-80.1211319,2022-11-26 19:44:49
Waffle House,2555 LIMESTONE PKWY.,,GAINESVILLE,GA,30501,US,34.33190155,-83.80919647,2022-11-26 19:44:51
Waffle House,8912 LEE HWY,,OOLTEWAH,TN,37363,US,35.08395767,-85.07572174,2022-11-26 19:44:51
Waffle House,3249 HWY 226 SOUTH,,MARION,NC,28752,US,35.65967178,-81.9643631,2022-11-26 19:44:51
Waffle House,1601 SHORTER AVE,,ROME,GA,30161,US,34.26867294,-85.21323395,2022-11-26 19:44:51
Waffle House,644 VETERANS PKWY.,,BARNESVILLE,GA,30204,US,33.0444603,-84.16960144,2022-11-26 19:44:52
Waffle House,3949 PARKWAY,,PIGEON FORGE,TN,37863,US,35.7779007,-83.54530334,2022-11-26 19:44:51
Waffle House,537 EAST BROADWAY,,JEFFERSON CITY,TN,37760,US,36.12548828,-83.46942902,2022-11-26 19:44:51
Waffle House,2560 SUGAR HILL ROAD,,MARION,NC,28752,US,35.65224838,-82.03187561,2022-11-26 19:44:51
Waffle House,2548 WESLY CHAPEL RD,,DECATUR,GA,30035,US,33.71366501,-84.21550751,2022-11-26 19:44:51
Waffle House,5245 STONE MOUNTAIN,,STONE MOUNTAIN,GA,30087,US,33.8238945,-84.11153412,2022-11-26 19:44:51
Waffle House,6576 HWY 11 EAST,,PINEY FLATS,TN,37686,US,36.42605972,-82.31730652,2022-11-26 19:44:51
Waffle House,2600 NORTH ROAN ST,,JOHNSON CITY,TN,37601,US,36.3512001,-82.38009644,2022-11-26 19:44:51
Waffle House,3021 PAXVILLE HWY,,MANNING,SC,29102,US,33.70340347,-80.24315643,2022-11-26 19:44:49
Waffle House,840 RIVERSIDE DRIVE,,MACON,GA,31201,US,32.84275055,-83.62940216,2022-11-26 19:44:52
Waffle House,599 ATLANTA ROAD,,CUMMING,GA,30040,US,34.18889999,-84.13990021,2022-11-26 19:44:51
Waffle House,309 E. EMORY RD,,POWELL,TN,37849,US,36.04728699,-84.00313568,2022-11-26 19:44:51
Waffle House,7102 MAYNARDSVILLE,,KNOXVILLE,TN,37918,US,36.07878876,-83.92688751,2022-11-26 19:44:51
Waffle House,6797 COMMONWEALTH,,JACKSONVILLE,FL,32254,US,30.33608437,-81.7591629,2022-11-26 19:44:49
Waffle House,515 N MCDONOUGH ST.,,DECATUR,GA,30030,US,33.77389908,-84.29579926,2022-11-26 19:44:51
Waffle House,1016 COSBY HWY.,,NEWPORT,TN,37821,US,35.94635391,-83.20496368,2022-11-26 19:44:51
Waffle House,7205 CHAPMAN HIGHWAY,,KNOXVILLE,TN,37920,US,35.90959549,-83.85227203,2022-11-26 19:44:51
Waffle House,10401 ATLANTIC BLVD,,JACKSONVILLE,FL,32225,US,30.32369232,-81.53007507,2022-11-26 19:44:49
Waffle House,321 GEORGIA AVE,,NORTH AUGUSTA,SC,29841,US,33.49173737,-81.97154999,2022-11-26 19:44:52
Waffle House,112 COURTLAND STREET,,ATLANTA,GA,30303,US,33.7580986,-84.38420105,2022-11-26 19:44:51
Waffle House,4021 NOLENSVILLE,,NASHVILLE,TN,37211,US,36.08362961,-86.72782898,2022-11-26 19:44:51
Waffle House,103 STEKOIA LANE,,KNOXVILLE,TN,37912,US,36.00590134,-84.01940155,2022-11-26 19:44:51
Waffle House,7894 103RD STREET,,JACKSONVILLE,FL,32210,US,30.24786758,-81.77802277,2022-11-26 19:44:49
Waffle House,300 DIXIE AVENUE,,CARTERSVILLE,GA,30120,US,34.17660141,-84.78643036,2022-11-26 19:44:51
Waffle House,2720 SANDY PLAINS RD,,MARIETTA,GA,30066,US,34.01654053,-84.49207306,2022-11-26 19:44:51
Waffle House,2625 LEBANON PIKE,,NASHVILLE,TN,37214,US,36.16939163,-86.67339325,2022-11-26 19:44:51
Waffle House,"6230 PAPERMILL RD ,",,KNOXVILLE,TN,37919,US,35.93790436,-84.00823975,2022-11-26 19:44:51
Waffle House,7652 MERRILL ROAD,,JACKSONVILLE,FL,32277,US,30.35196114,-81.56951141,2022-11-26 19:44:49
Waffle House,4271 ROOSEVELT BLVD,,JACKSONVILLE,FL,32210,US,30.28578186,-81.72015381,2022-11-26 19:44:49
Waffle House,6542 HWY 42,,REX,GA,30273,US,33.57860184,-84.27549744,2022-11-26 19:44:52
Waffle House,3103 CLARKSVILLE,,NASHVILLE,TN,37218,US,36.19227982,-86.82976532,2022-11-26 19:44:51
Waffle House,507 LOVELL RD,,KNOXVILLE,TN,37922,US,35.9075737,-84.14735413,2022-11-26 19:44:51
Waffle House,11844 LEM TURNER RD.,,JACKSONVILLE,FL,32218,US,30.44860077,-81.70436096,2022-11-26 19:44:49
Waffle House,1099 NORTHSIDE DR NW,,ATLANTA,GA,30318,US,33.78440094,-84.40709686,2022-11-26 19:44:51
Waffle House,6930 CHARLOTTE PIKE,,NASHVILLE,TN,37209,US,36.12992477,-86.90143585,2022-11-26 19:44:51
Waffle House,5416 ASHEVILLE HWY,,KNOXVILLE,TN,37914,US,36.00946426,-83.84391022,2022-11-26 19:44:51
Waffle House,7180 NORMANDY BLVD.,,JACKSONVILLE,FL,32205,US,30.29999924,-81.76499939,2022-11-26 19:44:49
Waffle House,4005 BUENA VISTA RD,,COLUMBUS,GA,31907,US,32.46321869,-84.92617798,2022-11-26 19:44:52
Waffle House,477 WEST THIRD ST.,,JACKSON,GA,30233,US,33.29380035,-83.97049713,2022-11-26 19:44:52
Waffle House,4301 SIDCO DR,,NASHVILLE,TN,37204,US,36.0848999,-86.76180267,2022-11-26 19:44:51
Waffle House,119A CEDAR LANE,,KNOXVILLE,TN,37912,US,36.01321793,-83.96889496,2022-11-26 19:44:51
Waffle House,2727 MANCHESTER EXPY,,COLUMBUS,GA,31904,US,32.50695801,-84.95258331,2022-11-26 19:44:52
Waffle House,1205 HWY 45 NORTH,,COLUMBUS,MS,39705,US,33.50750351,-88.43328094,2022-11-26 19:44:51
Waffle House,1176 ROSWELL ROAD,,MARIETTA,GA,30062,US,33.95059967,-84.51750183,2022-11-26 19:44:51
Waffle House,238 WEST TRINITY LN,,NASHVILLE,TN,37207,US,36.20667648,-86.77915955,2022-11-26 19:44:51
Waffle House,411 CEDAR BLUFF ROAD,,KNOXVILLE,TN,37923,US,35.92306137,-84.09343719,2022-11-26 19:44:51
Waffle House,1141 HWY 280 BY PASS,,PHENIX CITY,AL,36867,US,32.46986008,-85.02925873,2022-11-26 19:44:52
Waffle House,2103 US 72 WEST,,CORINTH,MS,38834,US,34.93083954,-88.5442276,2022-11-26 19:44:51
Waffle House,1935 BRASELTON HWY.,,BUFORD,GA,30519,US,34.03569794,-83.95314026,2022-11-26 19:44:51
Waffle House,408 WHITE BRIDGE PL,,NASHVILLE,TN,37209,US,36.15102386,-86.85717773,2022-11-26 19:44:51
Waffle House,108 ENTERPRISE BLVD,,LA VERGNE,TN,37086,US,35.99865341,-86.59764862,2022-11-26 19:44:51
Waffle House,165 MAIN STREET,,KIMBALL,TN,37347,US,35.04334641,-85.68598175,2022-11-26 19:44:51
Waffle House,2644 RIVERSIDE DRIVE,,MACON,GA,31204,US,32.87427139,-83.66343689,2022-11-26 19:44:52
Waffle House,7676 HWY 70 S,,NASHVILLE,TN,37221,US,36.08065414,-86.9546051,2022-11-26 19:44:51
Waffle House,3421 MCFARLAND BLVD,,TUSCALOOSA,AL,35405,US,33.17774582,-87.52462006,2022-11-26 19:44:51
Waffle House,1914 N. JACKSON ST.,,TULLAHOMA,TN,37388,US,35.38494873,-86.23175049,2022-11-26 19:44:51
Waffle House,2816 CHAMBLE TCKR RD,,ATLANTA,GA,30341,US,33.88019943,-84.27400208,2022-11-26 19:44:51
Waffle House,2340 ELM HILL PIKE,,NASHVILLE,TN,37214,US,36.15358353,-86.68611145,2022-11-26 19:44:51
Waffle House,819 SOUTH CUMBERLAND,,LEBANON,TN,37087,US,36.18473053,-86.2979126,2022-11-26 19:44:51
Waffle House,802 CLEVELAND AVE,,ATTALLA,AL,35954,US,34.01868057,-86.07268524,2022-11-26 19:44:51
Waffle House,2427 OLD FORT PKWY,,MURFREESBORO,TN,37128,US,35.84590912,-86.44147491,2022-11-26 19:44:51
Waffle House,2250 PEACHTREE,,DULUTH,GA,30097,US,34.02102661,-84.12254333,2022-11-26 19:44:51
Waffle House,3304 DICKERSON RD,,NASHVILLE,TN,37207,US,36.23575974,-86.75835419,2022-11-26 19:44:51
Waffle House,1116 HWY 321 NORTH,,LENOIR CITY,TN,37771,US,35.82709503,-84.27857971,2022-11-26 19:44:51
Waffle House,1901 HAMILTON ROAD,,LAGRANGE,GA,30241,US,33.00439835,-85.01609802,2022-11-26 19:44:52
Waffle House,707 STEWARTS FERRY,,NASHVILLE,TN,37214,US,36.15400696,-86.62556458,2022-11-26 19:44:51
Waffle House,4625 HIGHWAY 411,,MADISONVILLE,TN,37354,US,35.51147461,-84.36433411,2022-11-26 19:44:51
Waffle House,1072 AIRPORT RD.,,JACKSONVILLE,FL,32218,US,30.48168373,-81.64647675,2022-11-26 19:44:49
Waffle House,2800 20TH AVE,,VALLEY,AL,36854,US,32.84725189,-85.1842804,2022-11-26 19:44:52
Waffle House,3682 W. ANDREW,,MORRISTOWN,TN,37814,US,36.19674301,-83.34712219,2022-11-26 19:44:51
Waffle House,108 TRAVEL CENTER,,DUBLIN,GA,31021,US,32.48778915,-82.93951416,2022-11-26 19:44:49
Waffle House,2727 MCGAVOCK PIKE,,NASHVILLE,TN,37214,US,36.21577454,-86.6889801,2022-11-26 19:44:51
Waffle House,69 EXPRESSWAY DR,,MANCHESTER,TN,37355,US,35.45953369,-86.05501556,2022-11-26 19:44:51
Waffle House,948 FORT DALE RD,,GREENVILLE,AL,36037,US,31.84932709,-86.64015198,2022-11-26 19:44:52
Waffle House,1121 S. JEFFERSON AV,,COOKEVILLE,TN,38506,US,36.13302994,-85.50379944,2022-11-26 19:44:51
Waffle House,2316 SOUTH COBB DR.,,SMYRNA,GA,30080,US,33.8965416,-84.53984833,2022-11-26 19:44:51
Waffle House,556 DONELSON PIKE,,NASHVILLE,TN,37214,US,36.14447021,-86.6669693,2022-11-26 19:44:51
Waffle House,629 WOODBURY HWY,,MANCHESTER,TN,37355,US,35.49754715,-86.0872879,2022-11-26 19:44:51
Waffle House,9041 NEW KINGS ROAD,,JACKSONVILLE,FL,32219,US,30.41500092,-81.74700165,2022-11-26 19:44:49
Waffle House,5996 LAWRENCEVILLE,,TUCKER,GA,30084,US,33.87400055,-84.17269897,2022-11-26 19:44:51
Waffle House,14991 OLD HICKORY,,NASHVILLE,TN,37211,US,36.04541779,-86.71137238,2022-11-26 19:44:51
Waffle House,"2118 US HWY 411, S",,MARYVILLE,TN,37801,US,35.72119904,-84.00610352,2022-11-26 19:44:51
Waffle House,2502 HWY 77 SOUTH,,LYNN HAVEN,FL,32444,US,30.22045708,-85.64967346,2022-11-26 19:44:49
Waffle House,246 DAVIS ROAD,,AUGUSTA,GA,30907,US,33.50061798,-82.08190155,2022-11-26 19:44:52
Waffle House,816 MURFREESBORO RD,,NASHVILLE,TN,37217,US,36.13525772,-86.72421265,2022-11-26 19:44:51
Waffle House,860 GLENWOOD AVENUE,,ATLANTA,GA,30316,US,33.7405014,-84.36090088,2022-11-26 19:44:51
Waffle House,2195 SC HWY 773,,PROSPERITY,SC,29127,US,34.23987961,-81.45944977,2022-11-26 19:44:52
Waffle House,429 EAST TAYLOR ST.,,GRIFFIN,GA,30223,US,33.24739838,-84.25749969,2022-11-26 19:44:52
Waffle House,7425 AUGUSTA RD,,PIEDMONT,SC,29673,US,34.73014832,-82.38890076,2022-11-26 19:44:51
Waffle House,629 NEW FRANKLIN RD,,LAGRANGE,GA,30240,US,33.05517197,-85.02892303,2022-11-26 19:44:52
Waffle House,103 ASSEMBLY RD,,PIEDMONT,SC,29673,US,34.77486801,-82.46120453,2022-11-26 19:44:51
Waffle House,525 HWY 601 S.,,LUGOFF,SC,29078,US,34.1924057,-80.68817139,2022-11-26 19:44:52
Waffle House,1925 MCFARLAND BLVD,,NORTHPORT,AL,35476,US,33.23915482,-87.57801819,2022-11-26 19:44:51
Waffle House,300 MARIETTA STREET,,ATLANTA,GA,30313,US,33.76174164,-84.3964386,2022-11-26 19:44:51
Waffle House,7505 HIGHWAY 76,,PENDLETON,SC,29670,US,34.6341362,-82.78409576,2022-11-26 19:44:51
Waffle House,705 WEST MAIN ST,,MONTEAGLE,TN,37356,US,35.2400856,-85.84877014,2022-11-26 19:44:51
Waffle House,7035 DAYTON PIKE,,HIXSON,TN,37343,US,35.18553543,-85.24658966,2022-11-26 19:44:51
Waffle House,300 AG VILLAGE BLVD,,PERRY,GA,31069,US,32.4333992,-83.75811768,2022-11-26 19:44:49
Waffle House,326 S MT. JULIET RD,,MOUNT JULIET,TN,37122,US,36.16849518,-86.5149231,2022-11-26 19:44:51
Waffle House,318 HARDING PLACE,,NASHVILLE,TN,37211,US,36.08726883,-86.69312286,2022-11-26 19:44:51
Waffle House,455 BETHESDA SCH RD,,LAWRENCEVILLE,GA,30044,US,33.92287064,-84.08460236,2022-11-26 19:44:51
Waffle House,3211 FIVE CHOP RD,,ORANGEBURG,SC,29115,US,33.45758057,-80.73467255,2022-11-26 19:44:49
Waffle House,2210 ARMORY DR,,MURFREESBORO,TN,37129,US,35.84820175,-86.43136597,2022-11-26 19:44:51
Waffle House,1444 E MAIN ST,,LINCOLNTON,NC,28092,US,35.47705841,-81.23395538,2022-11-26 19:44:51
Waffle House,7414 STRAWBERRY,,KNOXVILLE,TN,37924,US,36.00574112,-83.77258301,2022-11-26 19:44:51
Waffle House,3585 BRASELTON HWY,,DACULA,GA,30019,US,34.06880188,-83.90720367,2022-11-26 19:44:51
Waffle House,3695 ST. MATTHEWS RD,,ORANGEBURG,SC,29118,US,33.55543137,-80.82608795,2022-11-26 19:44:49
Waffle House,1622 JOE B JACKSON,,MURFREESBORO,TN,37127,US,35.78587723,-86.36640167,2022-11-26 19:44:51
Waffle House,1833 CRESTWOOD BLVD,,IRONDALE,AL,35210,US,33.53323364,-86.70243073,2022-11-26 19:44:51
Waffle House,510 NORTH STATE OF,,JOHNSON CITY,TN,37604,US,36.31315994,-82.38820648,2022-11-26 19:44:51
Waffle House,3042 WASHINGTON RD,,AUGUSTA,GA,30907,US,33.51278305,-82.04910278,2022-11-26 19:44:52
Waffle House,2107 LASCASSAS PIKE,,MURFREESBORO,TN,37130,US,35.87509537,-86.35268402,2022-11-26 19:44:51
Waffle House,1720 COTTON GROVE RD,,LEXINGTON,NC,27292,US,35.77628326,-80.25958252,2022-11-26 19:44:52
Waffle House,1119 SMITHVILLE HWY,,MC MINNVILLE,TN,37110,US,35.69998169,-85.78075409,2022-11-26 19:44:51
Waffle House,1480 JONESBORO ROAD,,MCDONOUGH,GA,30253,US,33.46217346,-84.20600128,2022-11-26 19:44:52
Waffle House,8505 DORCHESTER RD,,NORTH CHARLESTON,SC,29420,US,32.91758347,-80.11484528,2022-11-26 19:44:49
Waffle House,1928 SOUTH CHURCH ST,,MURFREESBORO,TN,37130,US,35.81917953,-86.39618683,2022-11-26 19:44:51
Waffle House,5538 PLATT SPRINGS,,LEXINGTON,SC,29073,US,33.90805435,-81.22672272,2022-11-26 19:44:52
Waffle House,5466 HWY 153,,HIXSON,TN,37343,US,35.13976669,-85.2478714,2022-11-26 19:44:51
Waffle House,15717  COVINGTON,,PORTERDALE,GA,30014,US,33.56531143,-83.90190125,2022-11-26 19:44:52
Waffle House,2357 AVIATION AVE,,NORTH CHARLESTON,SC,29406,US,32.901371,-80.02683258,2022-11-26 19:44:49
Waffle House,3009 S. RUTHERFORD,,MURFREESBORO,TN,37130,US,35.83539963,-86.3513031,2022-11-26 19:44:51
Waffle House,289 CHARTER OAK ROAD,,LEXINGTON,SC,29072,US,33.99240112,-81.30460358,2022-11-26 19:44:52
Waffle House,2330 E MORRIS BLVD,,MORRISTOWN,TN,37813,US,36.22097778,-83.26457977,2022-11-26 19:44:51
Waffle House,6025 WATSON BLVD,,BYRON,GA,31008,US,32.61409378,-83.71486664,2022-11-26 19:44:52
Waffle House,6907 DORCHESTER RD.,,NORTH CHARLESTON,SC,29418,US,32.88716507,-80.06826782,2022-11-26 19:44:49
Waffle House,1036 SOUTH LAKE DR,,LEXINGTON,SC,29073,US,33.95548248,-81.23278046,2022-11-26 19:44:52
Waffle House,2202 6TH AVE. S.E.,,DECATUR,AL,35601,US,34.56890869,-86.97323608,2022-11-26 19:44:51
Waffle House,8604 ROSWELL ROAD,,SANDY SPRINGS,GA,30350,US,33.98988724,-84.35203552,2022-11-26 19:44:51
Waffle House,25 THOMAS GRIFFIN RD,,NEWBERRY,SC,29108,US,34.31002045,-81.57653809,2022-11-26 19:44:52
Waffle House,5045 AUGUSTA RD,,LEXINGTON,SC,29072,US,33.97866058,-81.19924164,2022-11-26 19:44:52
Waffle House,3995 UNIVERSITY DR,,HUNTSVILLE,AL,35816,US,34.73467255,-86.62576294,2022-11-26 19:44:51
Waffle House,2477 S CHURCH ST,,MURFREESBORO,TN,37127,US,35.80740356,-86.3971405,2022-11-26 19:44:51
Waffle House,195 EAGLES LANDING,,STOCKBRIDGE,GA,30281,US,33.51794815,-84.19263458,2022-11-26 19:44:52
Waffle House,1171 W MARTINTOWN RD,,NORTH AUGUSTA,SC,29841,US,33.53646851,-81.98827362,2022-11-26 19:44:52
Waffle House,220 BLOWING ROCK RD,,LENOIR,NC,28645,US,35.91727066,-81.52417755,2022-11-26 19:44:51
Waffle House,794 NISSAN DR,,SMYRNA,TN,37167,US,35.97414017,-86.49276733,2022-11-26 19:44:51
Waffle House,1627 WALTON WAY,,AUGUSTA,GA,30904,US,33.47581482,-81.99397278,2022-11-26 19:44:52
Waffle House,2993 MAIN ST,,NEWBERRY,SC,29108,US,34.28316116,-81.58732605,2022-11-26 19:44:52
Waffle House,6513 RINGGOLD ROAD,,EAST RIDGE,TN,37412,US,34.98939896,-85.20845032,2022-11-26 19:44:51
Waffle House,13625 JONES STREET,,LAVONIA,GA,30553,US,34.444664,-83.1174469,2022-11-26 19:44:51
Waffle House,5010 HIGHWAY 34 E,,SHARPSBURG,GA,30277,US,33.39982986,-84.6259079,2022-11-26 19:44:52
Waffle House,158 LAUREL LAKE DR.,,NORTH AUGUSTA,SC,29860,US,33.56676865,-81.93574524,2022-11-26 19:44:52
Waffle House,6133 FAIRBURN RD,,DOUGLASVILLE,GA,30134,US,33.75094986,-84.73269653,2022-11-26 19:44:51
Waffle House,30 EDDIE RUSHING DR,,STATESBORO,GA,30458,US,32.40662766,-81.77474976,2022-11-26 19:44:49
Waffle House,7391 NORTHWOODS BLVD,,NORTH CHARLESTON,SC,29406,US,32.93624115,-80.04532623,2022-11-26 19:44:49
Waffle House,1100 S. CANNON BLVD.,,KANNAPOLIS,NC,28083,US,35.48009872,-80.61219788,2022-11-26 19:44:52
Waffle House,4737 REDAN ROAD,,STONE MOUNTAIN,GA,30088,US,33.76186371,-84.19823456,2022-11-26 19:44:51
Waffle House,2571 ASHLEY,,NORTH CHARLESTON,SC,29418,US,32.93368912,-80.0521698,2022-11-26 19:44:49
Waffle House,2868 LANE ST,,KANNAPOLIS,NC,28083,US,35.49747086,-80.56112671,2022-11-26 19:44:52
Waffle House,1848 DECHERD BLVD,,DECHERD,TN,37324,US,35.20508957,-86.09373474,2022-11-26 19:44:51
Waffle House,4077 JIMMIE DYESS PY,,AUGUSTA,GA,30909,US,33.47872925,-82.12995148,2022-11-26 19:44:52
Waffle House,1400 LEE ROAD,,LITHIA SPRINGS,GA,30122,US,33.76720047,-84.65090179,2022-11-26 19:44:51
Waffle House,4755 SAUL WHITE BLVD,,NORTH CHARLESTON,SC,29418,US,32.86922455,-80.01174927,2022-11-26 19:44:49
Waffle House,2693 BOONES CREEK RD,,JOHNSON CITY,TN,37615,US,36.37439346,-82.42790985,2022-11-26 19:44:51
Waffle House,3907 ARKWRIGHT ROAD,,MACON,GA,31210,US,32.90578842,-83.68692017,2022-11-26 19:44:52
Waffle House,1478 NEWNAN CXING,,NEWNAN,GA,30265,US,33.3770752,-84.75483704,2022-11-26 19:44:52
Waffle House,5491 NORTH RHETT RD,,NORTH CHARLESTON,SC,29406,US,32.8984108,-79.98582458,2022-11-26 19:44:49
Waffle House,832 LIBERTY HILL DR,,EVERGREEN,AL,36401,US,31.45435143,-86.96182251,2022-11-26 19:44:52
Waffle House,1668 E STONE DRIVE,,KINGSPORT,TN,37660,US,36.54725647,-82.51704407,2022-11-26 19:44:51
Waffle House,4731 CHAMBERS RD,,MACON,GA,31206,US,32.8085289,-83.72383118,2022-11-26 19:44:52
Waffle House,5440 BOWMAN ROAD,,MACON,GA,31210,US,32.92601395,-83.73364258,2022-11-26 19:44:52
Waffle House,5681 MCFARLAND BLVD.,,NORTHPORT,AL,35476,US,33.23519897,-87.61190033,2022-11-26 19:44:51
Waffle House,125 PALISADE DR,,BRUNSWICK,GA,31523,US,31.13911819,-81.5806427,2022-11-26 19:44:49
Waffle House,1510 THOMPSON BR RD,,GAINESVILLE,GA,30501,US,34.3227005,-83.83329773,2022-11-26 19:44:51
Waffle House,970 HWY 231 SOUTH,,OZARK,AL,36360,US,31.43904495,-85.64157104,2022-11-26 19:44:49
Waffle House,183 HIGHWAY 43 SOUTH,,TUSCUMBIA,AL,35674,US,34.71259308,-87.66716766,2022-11-26 19:44:51
Waffle House,1470 HOLCOMB BR. RD.,,ROSWELL,GA,30076,US,34.02025986,-84.31799316,2022-11-26 19:44:51
Waffle House,1949 GLYNN AVENUE,,BRUNSWICK,GA,31520,US,31.1600647,-81.47789764,2022-11-26 19:44:49
Waffle House,65 JIMMY HINTON DR,,OXFORD,AL,36203,US,33.61352158,-85.78794861,2022-11-26 19:44:51
Waffle House,5037 OSCAR BAXTER DR,,TUSCALOOSA,AL,35405,US,33.16479874,-87.55132294,2022-11-26 19:44:51
Waffle House,4532 CHAMBLEE DUNWDY,,ATLANTA,GA,30338,US,33.92360687,-84.31461334,2022-11-26 19:44:51
Waffle House,168 VINCE MEROLLA DR,,CANTON,GA,30114,US,34.17182159,-84.54839325,2022-11-26 19:44:51
Waffle House,1201 AL HWY 21 SOUTH,,OXFORD,AL,36203,US,33.60238266,-85.83276367,2022-11-26 19:44:51
Waffle House,348 SW BAYA DRIVE,,LAKE CITY,FL,32025,US,30.18349266,-82.63933563,2022-11-26 19:44:49
Waffle House,5001 SKYLAND BLVD E,,TUSCALOOSA,AL,35405,US,33.17658615,-87.46997833,2022-11-26 19:44:51
Waffle House,4852 OLD NATIONAL HY,,COLLEGE PARK,GA,30337,US,33.62319565,-84.47412109,2022-11-26 19:44:51
Waffle House,1209 S HWY 74,,PEACHTREE CITY,GA,30269,US,33.34116745,-84.53474426,2022-11-26 19:44:52
Waffle House,545 QUINTARD DRIVE,,OXFORD,AL,36203,US,33.61525345,-85.82738495,2022-11-26 19:44:51
Waffle House,2963 WEST US HWY 90,,LAKE CITY,FL,32055,US,30.18037224,-82.68096161,2022-11-26 19:44:49
Waffle House,1307B UNIVERSITY,,TUSCALOOSA,AL,35401,US,33.21068573,-87.55492401,2022-11-26 19:44:51
Waffle House,909 BATTLEFIELD PKY,,FT. OGLETHORPE,GA,30742,US,34.95375824,-85.24959564,2022-11-26 19:44:51
Waffle House,5630 HWY 20 SE,,CARTERSVILLE,GA,30121,US,34.20479202,-84.76405334,2022-11-26 19:44:51
Waffle House,3639 WEST US HWY 90,,LAKE CITY,FL,32055,US,30.17966652,-82.69189453,2022-11-26 19:44:49
Waffle House,2842 PANOLA RD,,LITHONIA,GA,30058,US,33.70470428,-84.16984558,2022-11-26 19:44:51
Waffle House,"8711 HIGHWAY 69,",,TUSCALOOSA,AL,35405,US,33.12727356,-87.54859161,2022-11-26 19:44:51
Waffle House,484 INDIAN TRAIL RD,,LILBURN,GA,30047,US,33.89652634,-84.14008331,2022-11-26 19:44:51
Waffle House,7800 SENOIA RD,,FAIRBURN,GA,30213,US,33.54417038,-84.57659149,2022-11-26 19:44:51
Waffle House,2064 INTERSTATE DR,,OPELIKA,AL,36801,US,32.61698914,-85.40540314,2022-11-26 19:44:52
Waffle House,2840 E. COLLEGE AVE.,,DECATUR,GA,30030,US,33.77521515,-84.27374268,2022-11-26 19:44:51
Waffle House,1128 N CHALKVILLE RD,,TRUSSVILLE,AL,35173,US,33.63922882,-86.61624146,2022-11-26 19:44:51
Waffle House,611 HWY 138,,STOCKBRIDGE,GA,30281,US,33.54864502,-84.27615356,2022-11-26 19:44:52
Waffle House,907 FOX RUN PKY,,OPELIKA,AL,36801,US,32.64440536,-85.35469055,2022-11-26 19:44:52
Waffle House,1208 A HWY 231 SOUTH,,TROY,AL,36081,US,31.78260231,-85.95236969,2022-11-26 19:44:52
Waffle House,3016 PIEDMONT RD.,,ATLANTA,GA,30305,US,33.83713913,-84.3681488,2022-11-26 19:44:51
Waffle House,2812 BUFORD HWY N.E.,,ATLANTA,GA,30329,US,33.83074951,-84.34351349,2022-11-26 19:44:51
Waffle House,105 US HWY 231 N,,TROY,AL,36081,US,31.79425621,-85.97856903,2022-11-26 19:44:52
Waffle House,13505 GA HIGHWAY 251,,DARIEN,GA,31305,US,31.39385414,-81.44643402,2022-11-26 19:44:49
Waffle House,6544 HWY 85,,RIVERDALE,GA,30274,US,33.57632065,-84.4121933,2022-11-26 19:44:51
Waffle House,1625 BALL GROUND HWY,,CANTON,GA,30114,US,34.25880051,-84.46382141,2022-11-26 19:44:51
Waffle House,1900 COMMERCE ST,,CULLMAN,AL,35055,US,34.20599747,-86.87540436,2022-11-26 19:44:51
Waffle House,6220 ZEBULON RD,,MACON,GA,31210,US,32.87922668,-83.76589203,2022-11-26 19:44:52
Waffle House,4300 COVINGTON HWY,,DECATUR,GA,30035,US,33.7502594,-84.22770691,2022-11-26 19:44:51
Waffle House,650 WHITLOCK AVE,,MARIETTA,GA,30064,US,33.95186996,-84.57125092,2022-11-26 19:44:51
Waffle House,15228 US 19 SOUTH,,THOMASVILLE,GA,31757,US,30.85741806,-83.94647217,2022-11-26 19:44:49
Waffle House,10792 JONES BRIDGE,,JOHNS CREEK,GA,30022,US,34.04574203,-84.22447205,2022-11-26 19:44:51
Waffle House,2050 EATONTON HWY,,MADISON,GA,30650,US,33.55181885,-83.47341156,2022-11-26 19:44:52
Waffle House,726 YORK RD,,KINGS MOUNTAIN,NC,28086,US,35.22720337,-81.33390808,2022-11-26 19:44:52
Waffle House,2208 D AIRPORT BLVD,,WEST COLUMBIA,SC,29170,US,33.95263672,-81.09742737,2022-11-26 19:44:52
Waffle House,62 N 400 CENTER LANE,,DAWSONVILLE,GA,30534,US,34.36468506,-84.03632355,2022-11-26 19:44:51
Waffle House,56 SOMMERS BLVD,,RICHMOND HILL,GA,31324,US,31.92491341,-81.33380127,2022-11-26 19:44:49
Waffle House,2501 FLORENCE BLVD,,FLORENCE,AL,35630,US,34.82863998,-87.6368866,2022-11-26 19:44:51
Waffle House,3994 N GLOSTER ST,,TUPELO,MS,38804,US,34.31475067,-88.70631409,2022-11-26 19:44:51
Waffle House,1030 HWY 34 EAST,,NEWNAN,GA,30265,US,33.39688873,-84.74449921,2022-11-26 19:44:52
Waffle House,2642 WINDY HILL ROAD,,MARIETTA,GA,30067,US,33.90095901,-84.47686005,2022-11-26 19:44:51
Waffle House,7100 CONCOURSE PKWY,,DOUGLASVILLE,GA,30134,US,33.73008347,-84.76100922,2022-11-26 19:44:51
Waffle House,3735 ROSWELL RD,,ATLANTA,GA,30342,US,33.8570137,-84.38202667,2022-11-26 19:44:51
Waffle House,722 SOUTH GLOSTER,,TUPELO,MS,38801,US,34.24517822,-88.71692657,2022-11-26 19:44:51
Waffle House,2816 WATSON BLVD,,CENTERVILLE,GA,31028,US,32.61860275,-83.68219757,2022-11-26 19:44:52
Waffle House,3417 WRIGHTSBORO RD,,AUGUSTA,GA,30909,US,33.46802902,-82.07695007,2022-11-26 19:44:52
Waffle House,1825 PLEASANT HILL,,DULUTH,GA,30096,US,33.94968796,-84.12876129,2022-11-26 19:44:51
Waffle House,8994 UNIVERSITY BLVD,,NORTH CHARLESTON,SC,29406,US,32.97655487,-80.06626892,2022-11-26 19:44:49
Waffle House,1201 GRETA LANE,,STARKVILLE,MS,39759,US,33.44226074,-88.85044861,2022-11-26 19:44:51
Waffle House,1000 HWY 155 SOUTH,,MCDONOUGH,GA,30253,US,33.40907288,-84.16513824,2022-11-26 19:44:52
Waffle House,700 NORTH GLYNN ST,,FAYETTEVILLE,GA,30214,US,33.4614296,-84.4514389,2022-11-26 19:44:52
Waffle House,1003 LAKE OCONEE,,EATONTON,GA,31024,US,33.42234421,-83.26811218,2022-11-26 19:44:52
Waffle House,1410 GLENN BLVD SW,,FORT PAYNE,AL,35968,US,34.43703461,-85.75157166,2022-11-26 19:44:51
Waffle House,7301 ABERCORN ST.,,SAVANNAH,GA,31406,US,32.00931168,-81.11480713,2022-11-26 19:44:49
Waffle House,301 HIGHWAY 49,,BYRON,GA,31008,US,32.66027069,-83.7431488,2022-11-26 19:44:52
Waffle House,2264 CHSHR BRG RD NE,,ATLANTA,GA,30324,US,33.81713104,-84.3520813,2022-11-26 19:44:51
Waffle House,1240 CANDLER RD,,GAINESVILLE,GA,30501,US,34.26353836,-83.81684113,2022-11-26 19:44:51
Waffle House,1334 WALKER CHAPEL,,FULTONDALE,AL,35068,US,33.60840988,-86.80454254,2022-11-26 19:44:51
Waffle House,2641 CUMBERLAND,,CORBIN,KY,40701,US,36.91728592,-84.13301849,2022-11-26 19:44:51
Waffle House,1886 HWY 20 SOUTH,,CONYERS,GA,30094,US,33.63771439,-84.01381683,2022-11-26 19:44:52
Waffle House,2963 LAWRENCEVLE HWY,,TUCKER,GA,30084,US,33.82877731,-84.24933624,2022-11-26 19:44:51
Waffle House,1615 BASS CROSS RD,,HOGANSVILLE,GA,30230,US,33.16019058,-84.87216187,2022-11-26 19:44:52
Waffle House,1000 RAINBOW DR,,GADSDEN,AL,35901,US,33.9976387,-86.00437164,2022-11-26 19:44:51
Waffle House,2761 E. ANDREW,,GREENEVILLE,TN,37745,US,36.18035126,-82.77552032,2022-11-26 19:44:51
Waffle House,3833 NASHVILLE RD,,FRANKLIN,KY,42134,US,36.66978455,-86.55844116,2022-11-26 19:44:51
Waffle House,3335 SOUTH COBB DR,,SMYRNA,GA,30080,US,33.87234116,-84.52938843,2022-11-26 19:44:51
Waffle House,3340 FREY ROAD NW,,KENNESAW,GA,30144,US,34.03384018,-84.58033752,2022-11-26 19:44:51
Waffle House,75 MEIGHAN BLVD,,GADSDEN,AL,35903,US,34.01119232,-85.99259186,2022-11-26 19:44:51
Waffle House,74 HIRAM ACWORTH HWY,,HIRAM,GA,30141,US,33.89247513,-84.75408173,2022-11-26 19:44:51
Waffle House,4458 ATLANTA ROAD,,SMYRNA,GA,30080,US,33.84516525,-84.49059296,2022-11-26 19:44:51
Waffle House,500 FIELDSTOWN ROAD,,GARDENDALE,AL,35071,US,33.65232468,-86.81951904,2022-11-26 19:44:51
Waffle House,1064 BEAR CREEK BLVD,,HAMPTON,GA,30228,US,33.3819313,-84.30140686,2022-11-26 19:44:52
Waffle House,6375 JONESBORO RD,,MORROW,GA,30260,US,33.58116913,-84.33999634,2022-11-26 19:44:52
Waffle House,645 S VETERANS PKWY,,MOULTRIE,GA,31788,US,31.17016029,-83.76069641,2022-11-26 19:44:49
Waffle House,2837 KEITH BRIDGE RD,,CUMMING,GA,30041,US,34.25352859,-84.08776093,2022-11-26 19:44:51
Waffle House,1531 WEST WALNUT AVE,,DALTON,GA,30720,US,34.76050186,-85.00012207,2022-11-26 19:44:51
Waffle House,2812 CHAPEL HILL RD,,DOUGLASVILLE,GA,30135,US,33.72906113,-84.73712921,2022-11-26 19:44:51
Waffle House,438 BELAIR RD SOUTH,,AUGUSTA,GA,30907,US,33.48427582,-82.13207245,2022-11-26 19:44:52
Waffle House,2053 GUNTER AVE,,GUNTERSVILLE,AL,35976,US,34.33670807,-86.3136673,2022-11-26 19:44:51
Waffle House,1868 RUSSELLVILLE RD,,BOWLING GREEN,KY,42101,US,36.9798851,-86.46733093,2022-11-26 19:44:51
Waffle House,2505 EAST WALNUT AVE,,DALTON,GA,30720,US,34.76406479,-84.9306488,2022-11-26 19:44:51
Waffle House,1970 WASHINGTON RD.,,THOMSON,GA,30824,US,33.50992966,-82.5022049,2022-11-26 19:44:52
Waffle House,1907 E NINE MILE RD,,PENSACOLA,FL,32514,US,30.5313549,-87.21965027,2022-11-26 19:44:49
Waffle House,11152 TARA BLVD,,HAMPTON,GA,30228,US,33.45024109,-84.3250885,2022-11-26 19:44:52
Waffle House,241 HWY 49,,BYRON,GA,31008,US,32.65805817,-83.74729919,2022-11-26 19:44:52
Waffle House,6305 N 9TH AVE,,PENSACOLA,FL,32504,US,30.48853874,-87.19718933,2022-11-26 19:44:49
Waffle House,3441 ERNEST W,,MARIETTA,GA,30064,US,33.94715118,-84.62387085,2022-11-26 19:44:51
Waffle House,550 N GREENBRIAR PKY,,MARIETTA,GA,30062,US,33.96343994,-84.49449921,2022-11-26 19:44:51
Waffle House,150 THREE SPRINGS RD,,BOWLING GREEN,KY,42101,US,36.93901062,-86.42108917,2022-11-26 19:44:51
Waffle House,4135 SUGARLOAF PKWY,,LAWRENCEVILLE,GA,30044,US,33.93894958,-84.03437042,2022-11-26 19:44:51
Waffle House,2886 CLAIRMONT RD NE,,ATLANTA,GA,30329,US,33.84131622,-84.31401062,2022-11-26 19:44:51
Waffle House,3300 WEST PARK PLACE,,PENSACOLA,FL,32505,US,30.44555855,-87.23292542,2022-11-26 19:44:49
Waffle House,1979 MEL BROWNING ST,,BOWLING GREEN,KY,42104,US,36.93196487,-86.41641235,2022-11-26 19:44:51
Waffle House,3309 CENTERVILLE HWY,,SNELLVILLE,GA,30039,US,33.81112671,-84.04290771,2022-11-26 19:44:51
Waffle House,920 COBB PKWY,,MARIETTA,GA,30060,US,33.92969894,-84.50921631,2022-11-26 19:44:51
Waffle House,839 VIRGINIA AVE,,HAPEVILLE,GA,30354,US,33.65879059,-84.41673279,2022-11-26 19:44:51
Waffle House,53 BRENT LANE,,PENSACOLA,FL,32503,US,30.46670151,-87.24235535,2022-11-26 19:44:49
Waffle House,76 AUSTIN LN,,LONDON,KY,40741,US,37.14918518,-84.11676025,2022-11-26 19:44:51
Waffle House,9650 MEDLOCK BRIDGE,,JOHNS CREEK,GA,30097,US,34.01662064,-84.19104004,2022-11-26 19:44:51
Waffle House,6 S NEW WARRINGTN RD,,PENSACOLA,FL,32507,US,30.40585518,-87.27662659,2022-11-26 19:44:49
Waffle House,1856 MOUNTAIN IND,,TUCKER,GA,30084,US,33.83776093,-84.20085144,2022-11-26 19:44:51
Waffle House,5365 PTREE IND BLVD,,NORCROSS,GA,30092,US,33.96104431,-84.20889282,2022-11-26 19:44:51
Waffle House,263 MIRACLE STRIP,,FT WALTON BEACH,FL,32548,US,30.40332603,-86.60263824,2022-11-26 19:44:49
Waffle House,4739 S BLVD,,CHARLOTTE,NC,28210,US,35.17474365,-80.87576294,2022-11-26 19:44:52
Waffle House,1066 US HWY 301 S,,BALDWIN,FL,32234,US,30.28315353,-81.98357391,2022-11-26 19:44:49
Waffle House,1700 HOWELL MILL RD,,ATLANTA,GA,30318,US,33.80062866,-84.41589355,2022-11-26 19:44:51
Waffle House,250 NORTHRIDGE RD,,SANDY SPRINGS,GA,30350,US,33.98154831,-84.34932709,2022-11-26 19:44:51
Waffle House,6913 PENSACOLA BLVD,,PENSACOLA,FL,32505,US,30.49299812,-87.26171875,2022-11-26 19:44:49
Waffle House,965 W LANIER AVE,,FAYETTEVILLE,GA,30214,US,33.44887161,-84.4848175,2022-11-26 19:44:52
Waffle House,4995 OLD NATIONAL HY,,COLLEGE PARK,GA,30349,US,33.61924744,-84.47362518,2022-11-26 19:44:51
Waffle House,401 EAST GREGORY ST.,,PENSACOLA,FL,32501,US,30.41702271,-87.20570374,2022-11-26 19:44:49
Waffle House,460 RACETRACK RD NW,,FT WALTON BEACH,FL,32547,US,30.4498024,-86.63777161,2022-11-26 19:44:49
Waffle House,121 JOHN MCGHEE BLVD,,CARYVILLE,TN,37714,US,36.29800034,-84.21356201,2022-11-26 19:44:51
Waffle House,1710 EPPS BRIDGE RD,,ATHENS,GA,30606,US,33.91394043,-83.44783783,2022-11-26 19:44:52
Waffle House,5411 ALABAMA HWY,,RINGGOLD,GA,30736,US,34.91260147,-85.12477875,2022-11-26 19:44:51
Waffle House,7000 THOMAS DR,,PANAMA CITY BEACH,FL,32408,US,30.15687943,-85.77269745,2022-11-26 19:44:49
Waffle House,2057 GORDON HWY,,AUGUSTA,GA,30909,US,33.4515419,-82.06314087,2022-11-26 19:44:52
Waffle House,4833 BILL GARDNER PY,,LOCUST GROVE,GA,30248,US,33.35370636,-84.12294006,2022-11-26 19:44:52
Waffle House,22913 PANAMA CITY,,PANAMA CITY BEACH,FL,32413,US,30.26431274,-85.97286987,2022-11-26 19:44:49
Waffle House,16290 US HIGHWAY 331,,FREEPORT,FL,32439,US,30.49116898,-86.12128448,2022-11-26 19:44:49
Waffle House,1205 LAKES PKWY,,LAWRENCEVILLE,GA,30043,US,33.96383286,-84.03759003,2022-11-26 19:44:51
Waffle House,10106 ALCOVY RD,,COVINGTON,GA,30014,US,33.61707687,-83.84256744,2022-11-26 19:44:52
Waffle House,11140 PANAMA CITY,,PANAMA CITY BEACH,FL,32407,US,30.19570541,-85.80911255,2022-11-26 19:44:49
Waffle House,2880 NORTH WILLISTON,,FLORENCE,SC,29506,US,34.26198196,-79.70049286,2022-11-26 19:44:49
Waffle House,3871 STONE MTN HWY,,SNELLVILLE,GA,30039,US,33.84012604,-84.06480408,2022-11-26 19:44:51
Waffle House,2918 WOODROW DR,,LITHONIA,GA,30038,US,33.69910049,-84.11810303,2022-11-26 19:44:52
Waffle House,2217 THOMAS DRIVE,,PANAMA CITY,FL,32408,US,30.16270065,-85.75458527,2022-11-26 19:44:49
Waffle House,551 PAMPLICO HIGHWAY,,FLORENCE,SC,29505,US,34.16287231,-79.7580719,2022-11-26 19:44:49
Waffle House,735 E OGLETHORPE HWY,,HINESVILLE,GA,31313,US,31.85181618,-81.58154297,2022-11-26 19:44:49
Waffle House,170 ERNEST BARRETT,,MARIETTA,GA,30066,US,34.01438141,-84.55680084,2022-11-26 19:44:51
Waffle House,631 15TH STREET,,PANAMA CITY,FL,32401,US,30.1751709,-85.66726685,2022-11-26 19:44:49
Waffle House,1817 LUCAS ST,,FLORENCE,SC,29501,US,34.2272644,-79.79592133,2022-11-26 19:44:49
Waffle House,4395 CORNELIA HWY,,LULA,GA,30554,US,34.39517212,-83.6920929,2022-11-26 19:44:51
Waffle House,1811 WILLIAMS DR,,MARIETTA,GA,30066,US,33.99829483,-84.52947235,2022-11-26 19:44:51
Waffle House,1901 NORTH COVE BLVD,,PANAMA CITY,FL,32405,US,30.18294907,-85.65006256,2022-11-26 19:44:49
Waffle House,3550 W. PALMETTO ST.,,FLORENCE,SC,29501,US,34.15742874,-79.86659241,2022-11-26 19:44:49
Waffle House,1021 GA HWY 100 SO,,TALLAPOOSA,GA,30176,US,33.68688965,-85.26171875,2022-11-26 19:44:51
Waffle House,2164 COBB PKWY NW,,KENNESAW,GA,30152,US,34.00507355,-84.60320282,2022-11-26 19:44:51
Waffle House,2900 WEST RADIO ROAD,,FLORENCE,SC,29501,US,34.18830872,-79.83637238,2022-11-26 19:44:49
Waffle House,545 PEACHTREE,,SUWANEE,GA,30024,US,34.06180954,-84.07623291,2022-11-26 19:44:51
Waffle House,"6137 HWY 278 , I 20",,COVINGTON,GA,30014,US,33.60539246,-83.87319946,2022-11-26 19:44:52
Waffle House,4219 WOODBINE RD,,PACE,FL,32571,US,30.59211922,-87.17617798,2022-11-26 19:44:49
Waffle House,1014 REGENT PARKWAY,,FORT MILL,SC,29715,US,35.07686615,-80.93478394,2022-11-26 19:44:52
Waffle House,130 WEST CHURCH ST,,BATESBURG,SC,29006,US,33.91299057,-81.5317688,2022-11-26 19:44:52
Waffle House,1410 DURA DR,,MARIETTA,GA,30008,US,33.91883087,-84.5818634,2022-11-26 19:44:51
Waffle House,621 JOHNSON FERRY RD,,MARIETTA,GA,30068,US,33.96421051,-84.41177368,2022-11-26 19:44:51
Waffle House,113 JAMES ASHBURY DR,,CLEVELAND,TN,37312,US,35.21238327,-84.86895752,2022-11-26 19:44:51
Waffle House,801 FAIRVIEW ST,,FOUNTAIN INN,SC,29644,US,34.68958664,-82.21670532,2022-11-26 19:44:51
Waffle House,3955 AL HWY 14,,MILLBROOK,AL,36054,US,32.51691437,-86.37548828,2022-11-26 19:44:52
Waffle House,1820 GA HWY 138 N,,CONYERS,GA,30013,US,33.67017746,-83.98564911,2022-11-26 19:44:52
Waffle House,5597 GREEN ST,,BRASELTON,GA,30517,US,34.11566925,-83.76287079,2022-11-26 19:44:51
Waffle House,2225 N CHARLES G,,CLINTON,TN,37716,US,36.16479111,-84.08612061,2022-11-26 19:44:51
Waffle House,2344 BOUNDARY ST,,BEAUFORT,SC,29902,US,32.44105148,-80.70227814,2022-11-26 19:44:49
Waffle House,599 HISTORIC 441 HWY,,CORNELIA,GA,30531,US,34.54455948,-83.545578,2022-11-26 19:44:51
Waffle House,1540 LAFAYETTE PKY,,LAGRANGE,GA,30241,US,33.04172516,-84.97362518,2022-11-26 19:44:52
Waffle House,811 S JAMES CAMPBELL,,COLUMBIA,TN,38401,US,35.59646225,-87.05758667,2022-11-26 19:44:51
Waffle House,1849 MARIETTA HWY,,CANTON,GA,30114,US,34.22187042,-84.50395203,2022-11-26 19:44:51
Waffle House,1104 NASHVILLE HWY,,COLUMBIA,TN,38401,US,35.63681793,-87.01657104,2022-11-26 19:44:51
Waffle House,116 HIGH TIDE DRIVE,,BEAUFORT,SC,29906,US,32.37982559,-80.72766113,2022-11-26 19:44:49
Waffle House,2101 WASHINGTON RD,,THOMSON,GA,30824,US,33.51402664,-82.5025177,2022-11-26 19:44:52
Waffle House,1470 GEORGE BUSBEE,,KENNESAW,GA,30144,US,34.05623245,-84.59226227,2022-11-26 19:44:51
Waffle House,1079 S. WILLOW AVE.,,COOKEVILLE,TN,38501,US,36.13903809,-85.52783203,2022-11-26 19:44:51
Waffle House,11 SAMS'S POINT ROAD,,BEAUFORT,SC,29907,US,32.41479492,-80.64956665,2022-11-26 19:44:49
Waffle House,1710 ZEBULON RD,,GRIFFIN,GA,30224,US,33.19462967,-84.28417969,2022-11-26 19:44:52
Waffle House,2585 WHITESVILLE RD,,LAGRANGE,GA,30240,US,32.98641968,-85.02922058,2022-11-26 19:44:52
Waffle House,43 EXECUTIVE DR,,CROSSVILLE,TN,38555,US,35.99830627,-85.04464722,2022-11-26 19:44:51
Waffle House,4390 JEFFERSON DAVIS,,BEECH ISLAND,SC,29842,US,33.5042572,-81.89961243,2022-11-26 19:44:52
Waffle House,2045 W SPRING ST,,MONROE,GA,30655,US,33.79596329,-83.74443817,2022-11-26 19:44:52
Waffle House,219 GRAYSON HIGHWAY,,LAWRENCEVILLE,GA,30046,US,33.94634628,-83.98583984,2022-11-26 19:44:51
Waffle House,150 ABLE DRIVE,,DAYTON,TN,37321,US,35.47525406,-85.02908325,2022-11-26 19:44:51
Waffle House,1113 SUMTER HWY,,BISHOPVILLE,SC,29010,US,34.19628143,-80.27722931,2022-11-26 19:44:49
Waffle House,1007 ARC WAY AVE,,CORDELE,GA,31015,US,31.95896149,-83.75031281,2022-11-26 19:44:49
Waffle House,"SR 376 , I 75",,LAKE PARK,GA,31636,US,30.68121529,-83.22022247,2022-11-26 19:44:49
Waffle House,2321 HWY 46 S,,DICKSON,TN,37055,US,36.0232048,-87.33994293,2022-11-26 19:44:51
Waffle House,1980 ALABAMA AVE,,BREMEN,GA,30110,US,33.68834305,-85.15103912,2022-11-26 19:44:51
Waffle House,300 HENSLEE DRIVE,,DICKSON,TN,37055,US,36.07759857,-87.37615204,2022-11-26 19:44:51
Waffle House,747 UPWARD RD,,FLAT ROCK,NC,28731,US,35.29794693,-82.40460968,2022-11-26 19:44:51
Waffle House,1515 CLEVELAND HWY,,DALTON,GA,30721,US,34.80127716,-84.96196747,2022-11-26 19:44:51
Waffle House,2805 DELK ROAD,,MARIETTA,GA,30067,US,33.92406845,-84.46987915,2022-11-26 19:44:51
Waffle House,1498 WEST ELK AVE,,ELIZABETHTON,TN,37643,US,36.3453064,-82.24648285,2022-11-26 19:44:51
Waffle House,2270 U.S. 74 ALT./,,FOREST CITY,NC,28043,US,35.33373642,-81.89144897,2022-11-26 19:44:51
Waffle House,216 BLYTHEWOOD ROAD,,BLYTHEWOOD,SC,29016,US,34.21470261,-80.9790802,2022-11-26 19:44:52
Waffle House,2320 SATELLITE BLVD,,DULUTH,GA,30096,US,33.97698975,-84.09282684,2022-11-26 19:44:51
Waffle House,1702 N. EXPRESSWAY,,GRIFFIN,GA,30223,US,33.28087997,-84.29134369,2022-11-26 19:44:52
Waffle House,10910 WOODLAND,,CHARLOTTE,NC,28215,US,35.22387695,-80.6309967,2022-11-26 19:44:52
Waffle House,1008 BATEMAN DR,,SOCIAL CIRCLE,GA,30025,US,33.67615128,-83.70851135,2022-11-26 19:44:52
Waffle House,8682 ASHEVILLE HWY,,BOILING SPRINGS,SC,29316,US,35.0017128,-82.00588226,2022-11-26 19:44:51
Waffle House,1201 EAST KING AVE,,KINGSLAND,GA,31548,US,30.79271317,-81.66348267,2022-11-26 19:44:49
Waffle House,103 STETSON DRIVE,,CHARLOTTE,NC,28262,US,35.28762436,-80.76026917,2022-11-26 19:44:52
Waffle House,425 SUMTER HWY,,CAMDEN,SC,29020,US,34.21994019,-80.59546661,2022-11-26 19:44:52
Waffle House,67 LONG BRANCH RD,,DAHLONEGA,GA,30533,US,34.4693718,-83.96768951,2022-11-26 19:44:51
Waffle House,30789 HWY 441 S.,,COMMERCE,GA,30529,US,34.25182343,-83.46134186,2022-11-26 19:44:51
Waffle House,3309 QUEEN CITY DR,,CHARLOTTE,NC,28208,US,35.24012375,-80.92003632,2022-11-26 19:44:52
Waffle House,1837 AIRPORT BLVD,,CAYCE,SC,29033,US,33.9604454,-81.08825684,2022-11-26 19:44:52
Waffle House,12880 FT CAMPBELL,,OAK GROVE,KY,42262,US,36.69338226,-87.45301819,2022-11-26 19:44:51
Waffle House,760 GLENN ST S,,FAYETTEVILLE,GA,30214,US,33.43434143,-84.45626068,2022-11-26 19:44:52
Waffle House,1012 US HWY 80 EAST,,POOLER,GA,31322,US,32.11050034,-81.23275757,2022-11-26 19:44:49
Waffle House,501 WESTINGHOUSE,,CHARLOTTE,NC,28210,US,35.11291885,-80.92236328,2022-11-26 19:44:52
Waffle House,4291 WASHINGTON RD,,EVANS,GA,30809,US,33.53499222,-82.12570953,2022-11-26 19:44:52
Waffle House,6308 BANNER ELK DR,,CHARLOTTE,NC,28216,US,35.30594254,-80.85116577,2022-11-26 19:44:52
Waffle House,798 BREVARD RD.,,ASHEVILLE,NC,28801,US,35.53071594,-82.60520935,2022-11-26 19:44:51
Waffle House,286 NORTH LEE STREET,,FORSYTH,GA,31029,US,33.04167938,-83.93830109,2022-11-26 19:44:52
Waffle House,105 COUNTRY CLUB DR,,STOCKBRIDGE,GA,30281,US,33.50617599,-84.22740936,2022-11-26 19:44:52
Waffle House,1355 JOE FRANK,,CARTERSVILLE,GA,30120,US,34.20649338,-84.81855011,2022-11-26 19:44:51
Waffle House,1115 S. LEWIS ST.,,METTER,GA,30439,US,32.3779068,-82.06208038,2022-11-26 19:44:49
Waffle House,6203 RAMADA DRIVE,,CLEMMONS,NC,27012,US,36.03369141,-80.38305664,2022-11-26 19:44:51
Waffle House,9651 VAUGHN ROAD,,TOWN OF PIKE ROAD,AL,36064,US,32.3471756,-86.0887146,2022-11-26 19:44:52
Waffle House,210 SMOKEY PARK HWY,,ASHEVILLE,NC,28806,US,35.56099701,-82.63224792,2022-11-26 19:44:51
Waffle House,4410 HWY 154,,NEWNAN,GA,30265,US,33.44657135,-84.69628906,2022-11-26 19:44:52
Waffle House,3531 PEACHTREE,,DULUTH,GA,30096,US,34.0030365,-84.17029572,2022-11-26 19:44:51
Waffle House,363 WEST MILLS ST,,COLUMBUS,NC,28722,US,35.24739075,-82.20422363,2022-11-26 19:44:51
Waffle House,171 TUNNEL RD,,ASHEVILLE,NC,28805,US,35.58798599,-82.52962494,2022-11-26 19:44:51
Waffle House,4082 CHARLES HARDY,,DALLAS,GA,30157,US,33.93383026,-84.72421265,2022-11-26 19:44:51
Waffle House,1900 FIRST AVE SE,,MOULTRIE,GA,31768,US,31.17672348,-83.76300812,2022-11-26 19:44:49
Waffle House,278 CONCORD PKWY S,,CONCORD,NC,28025,US,35.3962326,-80.61174011,2022-11-26 19:44:52
Waffle House,1683 N COLUMBIA ST,,MILLEDGEVILLE,GA,31061,US,33.09970093,-83.24622345,2022-11-26 19:44:52
Waffle House,4274 LAVISTA RD,,TUCKER,GA,30084,US,33.84767532,-84.24449921,2022-11-26 19:44:51
Waffle House,9800 WEDDINGTON RD,,CONCORD,NC,28027,US,35.36839676,-80.70944214,2022-11-26 19:44:52
Waffle House,2122 VETERANS BLVD,,DUBLIN,GA,31021,US,32.54185867,-82.95670319,2022-11-26 19:44:49
Waffle House,1310 OCONEE STREET,,ATHENS,GA,30605,US,33.94800568,-83.3584137,2022-11-26 19:44:52
Waffle House,"1010 VINEHAVEN DR,NE",,CONCORD,NC,28025,US,35.4610405,-80.58512115,2022-11-26 19:44:52
Waffle House,6636 HWY 53 EAST,,DAWSONVILLE,GA,30534,US,34.3610611,-84.03457642,2022-11-26 19:44:51
Waffle House,3855 CONCORD PKWY S,,CONCORD,NC,28027,US,35.36676788,-80.66690826,2022-11-26 19:44:52
Waffle House,537 HWY 441 SOUTH,,CLAYTON,GA,30525,US,34.87107849,-83.4001236,2022-11-26 19:44:51
Waffle House,4752 HWY 78,,LOGANVILLE,GA,30052,US,33.83348083,-83.88404846,2022-11-26 19:44:51
Waffle House,3416 US HIGHWAY 601S,,CONCORD,NC,28025,US,35.3707695,-80.55062866,2022-11-26 19:44:52
Waffle House,1002 KING GEORGE,,SAVANNAH,GA,31419,US,31.98573875,-81.21865082,2022-11-26 19:44:49
Waffle House,102 LECT DRIVE,,PERRY,GA,31069,US,32.44757843,-83.75241852,2022-11-26 19:44:49
Waffle House,"817 CONOVER BLVD.,W",,CONOVER,NC,28613,US,35.69517517,-81.23526764,2022-11-26 19:44:51
Waffle House,150 HOWELL BR RD EXT,,BALL GROUND,GA,30107,US,34.32631683,-84.3886795,2022-11-26 19:44:51
Waffle House,790 BELL ROAD,,ANTIOCH,TN,37013,US,36.05170059,-86.645401,2022-11-26 19:44:51
Waffle House,2290 ASHEVILLE HWY,,BREVARD,NC,28712,US,35.27107239,-82.70708466,2022-11-26 19:44:51
Waffle House,6751 VETERANS PKWY,,COLUMBUS,GA,31909,US,32.54251099,-84.95417023,2022-11-26 19:44:52
Waffle House,6941 HIGHWAY 21,,PORT WENTWORTH,GA,31407,US,32.18766022,-81.19393158,2022-11-26 19:44:49
Waffle House,3350 14TH AVE SE,,CONOVER,NC,28613,US,35.70468521,-81.26351929,2022-11-26 19:44:51
Waffle House,1610 NE HIGHWAY 20,,CONYERS,GA,30012,US,33.68479156,-83.99973297,2022-11-26 19:44:52
Waffle House,3571 MURFREESBORO PK,,ANTIOCH,TN,37013,US,36.05187225,-86.61569214,2022-11-26 19:44:51
Waffle House,1444 TUNNEL RD,,ASHEVILLE,NC,28805,US,35.58430862,-82.46224976,2022-11-26 19:44:51
Waffle House,881 BLOWING ROCK RD.,,BOONE,NC,28607,US,36.20652008,-81.67057037,2022-11-26 19:44:51
Waffle House,104 EAST CHURCH ST,,SANDERSVILLE,GA,31082,US,32.98149109,-82.81089783,2022-11-26 19:44:52
Waffle House,2034 S. MILLEDGE AVE,,ATHENS,GA,30605,US,33.92305374,-83.37950134,2022-11-26 19:44:52
Waffle House,790 OLD HICKORY BLVD,,BRENTWOOD,TN,37027,US,36.04096985,-86.77944946,2022-11-26 19:44:51
Waffle House,1718 US HWY 52 NORTH,,ALBEMARLE,NC,28001,US,35.38490295,-80.19267273,2022-11-26 19:44:52
Waffle House,491 LEWISTON RD,,GROVETOWN,GA,30813,US,33.48600769,-82.19998169,2022-11-26 19:44:52
Waffle House,3455 MACON ROAD,,COLUMBUS,GA,31907,US,32.48410797,-84.9383316,2022-11-26 19:44:52
Waffle House,734 N RIVERSIDE DR,,CLARKSVILLE,TN,37040,US,36.54121399,-87.36779785,2022-11-26 19:44:51
Waffle House,1640 MT ZION RD,,MORROW,GA,30260,US,33.57152557,-84.33644104,2022-11-26 19:44:52
Waffle House,1941 HWY 441,,MADISON,GA,30650,US,33.55966187,-83.47712708,2022-11-26 19:44:52
Waffle House,3069 WILMA RUDOLPH,,CLARKSVILLE,TN,37040,US,36.59492874,-87.28781128,2022-11-26 19:44:51
Waffle House,8 STEPHEN GREEN DR,,SAVANNAH,GA,31408,US,32.13925552,-81.23529053,2022-11-26 19:44:49
Waffle House,143 HWY 74 S.,,PEACHTREE CITY,GA,30269,US,33.39546585,-84.58892059,2022-11-26 19:44:52
Waffle House,7801 E. BRAINERD RD,,CHATTANOOGA,TN,37421,US,35.0088768,-85.15292358,2022-11-26 19:44:51
Waffle House,1683 A FORT CAMPBELL,,CLARKSVILLE,TN,37042,US,36.58012772,-87.40957642,2022-11-26 19:44:51
Waffle House,603 PARK STREET,,BELMONT,NC,28012,US,35.25268936,-81.02839661,2022-11-26 19:44:52
Waffle House,6026 BETHELVIEW RD,,CUMMING,GA,30040,US,34.16313934,-84.17608643,2022-11-26 19:44:51
Waffle House,1398 AUSTELL RD,,MARIETTA,GA,30008,US,33.91883087,-84.54907227,2022-11-26 19:44:51
Waffle House,3323 FT CAMPBELL,,CLARKSVILLE,TN,37042,US,36.63799286,-87.43579102,2022-11-26 19:44:51
Waffle House,3059 N COLUMBIA ST,,MILLEDGEVILLE,GA,31061,US,33.18429947,-83.29009247,2022-11-26 19:44:52
Waffle House,5071 PEACHTREE IND,,CHAMBLEE,GA,30341,US,33.88828278,-84.31365967,2022-11-26 19:44:51
Waffle House,4601 ROSE BLVD,,NORTHPORT,AL,35475,US,33.30464554,-87.60393524,2022-11-26 19:44:51
Waffle House,1931 MADISON STREET,,CLARKSVILLE,TN,37043,US,36.51477051,-87.29812622,2022-11-26 19:44:51
Waffle House,3635 AUSTELL RD.,,MARIETTA,GA,30008,US,33.86502838,-84.59444427,2022-11-26 19:44:51
Waffle House,1114 STATE ROAD 76,,CLARKSVILLE,TN,37043,US,36.52482605,-87.2252121,2022-11-26 19:44:51
Waffle House,1586 INDIAN TRAIL RD,,NORCROSS,GA,30093,US,33.92207718,-84.17093658,2022-11-26 19:44:51
Waffle House,4900 US HWY 90,,PACE,FL,32571,US,30.60346985,-87.12026215,2022-11-26 19:44:49
Waffle House,80 ALABAMA HWY 75 N,,ALBERTVILLE,AL,35951,US,34.27690887,-86.20348358,2022-11-26 19:44:51
Waffle House,2725 LOGANVILLE HWY,,LOGANVILLE,GA,30052,US,33.88095093,-83.93804169,2022-11-26 19:44:51
Waffle House,2250 S. MAIN ST.,,GREENSBORO,GA,30642,US,33.54905701,-83.20197296,2022-11-26 19:44:52
Waffle House,7004 CITY CENTER WAY,,FAIRVIEW,TN,37062,US,35.97242355,-87.12902069,2022-11-26 19:44:51
Waffle House,110 TIMBERWOLF DR,,LAGRANGE,GA,30240,US,32.99739838,-85.02909851,2022-11-26 19:44:52
Waffle House,119 BIG VALLEY DR,,ALEXANDRIA,AL,36250,US,33.78185654,-85.89831543,2022-11-26 19:44:51
Waffle House,1009 W 2ND ST,,TIFTON,GA,31794,US,31.45796967,-83.52806854,2022-11-26 19:44:49
Waffle House,3711 OGEECHEE ROAD,,SAVANNAH,GA,31405,US,32.05250931,-81.14648438,2022-11-26 19:44:49
Waffle House,1530 QUINTARD AVE,,ANNISTON,AL,36201,US,33.66466522,-85.82723999,2022-11-26 19:44:51
Waffle House,3255 FLORENCE RD,,POWDER SPRINGS,GA,30127,US,33.87523651,-84.70282745,2022-11-26 19:44:51
Waffle House,444 TIFT COLLEGE DR,,FORSYTH,GA,31029,US,33.03485107,-83.92359161,2022-11-26 19:44:52
Waffle House,4034 WINDER HWY,,FLOWERY BRANCH,GA,30542,US,34.1948967,-83.85949707,2022-11-26 19:44:51
Waffle House,110 WEST GLENN AVE,,AUBURN,AL,36830,US,32.60918808,-85.48249817,2022-11-26 19:44:52
Waffle House,1100 OLD PEACHTREE,,DULUTH,GA,30097,US,34.00154877,-84.07691956,2022-11-26 19:44:51
Waffle House,3180 NORCROSS TKR RD,,TUCKER,GA,30084,US,33.88244247,-84.21982574,2022-11-26 19:44:51
Waffle House,2346 BENT CREEK RD,,AUBURN,AL,36830,US,32.60739899,-85.43092346,2022-11-26 19:44:52
Waffle House,5565 NORTHSIDE DR,,ATLANTA,GA,30327,US,33.90578461,-84.43145752,2022-11-26 19:44:51
Waffle House,2130 MT. ZION PKWY,,MORROW,GA,30260,US,33.56232834,-84.32074738,2022-11-26 19:44:52
Waffle House,1738 OPELIKA RD,,AUBURN,AL,36830,US,32.6256485,-85.44458008,2022-11-26 19:44:52
Waffle House,296 WEST CLINTON ST,,GRAY,GA,31032,US,33.00384903,-83.54898834,2022-11-26 19:44:52
Waffle House,903 BUFORD HWY,,CUMMING,GA,30041,US,34.17932129,-84.13318634,2022-11-26 19:44:51
Waffle House,2167 S. COLLEGE ST.,,AUBURN,AL,36830,US,32.56336212,-85.50340271,2022-11-26 19:44:52
Waffle House,1063 HWY 19 NORTH,,THOMASTON,GA,30286,US,32.92525482,-84.33409119,2022-11-26 19:44:52
Waffle House,3335 STEVE REYNOLDS,,DULUTH,GA,30096,US,33.95378876,-84.14138794,2022-11-26 19:44:51
Waffle House,1515 N. BRINDLEE,,ARAB,AL,35016,US,34.33863831,-86.50321198,2022-11-26 19:44:51
Waffle House,1426 SAM NUNN BLVD,,PERRY,GA,31069,US,32.47049713,-83.7423172,2022-11-26 19:44:52
Waffle House,5602 MABLETON PKWY,,MABLETON,GA,30126,US,33.81779099,-84.57597351,2022-11-26 19:44:51
Waffle House,1507 HWY 72 E,,ATHENS,AL,35611,US,34.7831955,-86.93833923,2022-11-26 19:44:51
Waffle House,105 MCMEANS AVE,,BAY MINETTE,AL,36507,US,30.87885284,-87.78427124,2022-11-26 19:44:49
Waffle House,2758 COBB PARKWAY SE,,ATLANTA,GA,30339,US,33.88526535,-84.47142029,2022-11-26 19:44:51
Waffle House,5146 MERCER UNIV. DR,,MACON,GA,31210,US,32.83240128,-83.73105621,2022-11-26 19:44:52
Waffle House,78 WIND RIVER RD N,,ATMORE,AL,36502,US,31.1072216,-87.4773407,2022-11-26 19:44:49
Waffle House,509 DAWSONVILLE HWY,,GAINESVILLE,GA,30501,US,34.29481888,-83.85166931,2022-11-26 19:44:51
Waffle House,310 BRANNON RD,,CUMMING,GA,30041,US,34.15552902,-84.17321777,2022-11-26 19:44:51
Waffle House,704 BLANDING BLVD.,,ORANGE PARK,FL,32065,US,30.14790344,-81.75792694,2022-11-26 19:44:49
Waffle House,2140 MOODY PKWY.,,MOODY,AL,35004,US,33.57090378,-86.51954651,2022-11-26 19:44:51
Waffle House,961 GILBERT FERRY,,ATTALLA,AL,35954,US,33.99687958,-86.09546661,2022-11-26 19:44:51
Waffle House,275 PINNACLE PKWY,,BRISTOL,TN,37620,US,36.59019852,-82.26499939,2022-11-26 19:44:51
Waffle House,5010 ACADEMY LN,,BESSEMER,AL,35022,US,33.36658859,-87.00398254,2022-11-26 19:44:51
Waffle House,1608 US HWY 19,,LEESBURG,GA,31763,US,31.62926865,-84.17736053,2022-11-26 19:44:49
Waffle House,2 A GATEWAY W. BLVD.,,SAVANNAH,GA,31419,US,32.00584793,-81.28527069,2022-11-26 19:44:49
Waffle House,165 PARK AVE,,ORANGE PARK,FL,32073,US,30.18802261,-81.70179749,2022-11-26 19:44:49
Waffle House,2635 CONG. W. L.,,MONTGOMERY,AL,36109,US,32.42027664,-86.23019409,2022-11-26 19:44:52
Waffle House,1710 RICHLAND AVE W,,AIKEN,SC,29801,US,33.56521988,-81.74377441,2022-11-26 19:44:52
Waffle House,4770 FRIENDSHIP RD,,BUFORD,GA,30518,US,34.14117813,-83.95258331,2022-11-26 19:44:51
Waffle House,2507 PENTEE DRIVE,,GAINESVILLE,GA,30507,US,34.28239822,-83.79985046,2022-11-26 19:44:51
Waffle House,90 FOLMAR PKWY,,MONTGOMERY,AL,36105,US,32.26871872,-86.35731506,2022-11-26 19:44:52
Waffle House,1832 HOLIDAY DRIVE,,ATHENS,TN,37303,US,35.46502304,-84.64615631,2022-11-26 19:44:51
Waffle House,931 9TH AVENUE NORTH,,BESSEMER,AL,35020,US,33.3963356,-86.96865082,2022-11-26 19:44:51
Waffle House,1099 N FIRST ST,,JESUP,GA,31545,US,31.61699867,-81.87502289,2022-11-26 19:44:49
Waffle House,5701 MILGEN ROAD,,COLUMBUS,GA,31907,US,32.52260971,-84.88871765,2022-11-26 19:44:52
Waffle House,9225 BOYD COOPER,,MONTGOMERY,AL,36117,US,32.36657715,-86.13941956,2022-11-26 19:44:52
Waffle House,1010 HIGHWAY 28,,ANDERSON,SC,29624,US,34.4997139,-82.68190002,2022-11-26 19:44:51
Waffle House,3009 ALCOA HWY,,ALCOA,TN,37701,US,35.82481003,-83.97738647,2022-11-26 19:44:51
Waffle House,316 VALLEY AVENUE,,BIRMINGHAM,AL,35209,US,33.47180176,-86.82360077,2022-11-26 19:44:51
Waffle House,1395 HIGHLANDS RIDGE,,SMYRNA,GA,30082,US,33.8397789,-84.51864624,2022-11-26 19:44:51
Waffle House,1363 HIGHWAY 29 S,,NEWNAN,GA,30265,US,33.32542038,-84.77871704,2022-11-26 19:44:52
Waffle House,5532 ATLANTA HWY,,MONTGOMERY,AL,36117,US,32.38156128,-86.20754242,2022-11-26 19:44:52
Waffle House,2412 SC-14,,GREER,SC,29650,US,34.87695312,-82.22770691,2022-11-26 19:44:51
Waffle House,4540 NORTH HWY. 81,,ANDERSON,SC,29621,US,34.63047028,-82.60015106,2022-11-26 19:44:51
Waffle House,926 PLEASANT HILL RD,,LAWRENCEVILLE,GA,30044,US,33.92560196,-84.11392212,2022-11-26 19:44:51
Waffle House,4310 AUGUSTA ROAD,,GARDEN CITY,GA,31408,US,32.10443115,-81.15077972,2022-11-26 19:44:49
Waffle House,8075 VAUGHN ROAD,,MONTGOMERY,AL,36116,US,32.33886337,-86.17480469,2022-11-26 19:44:52
Waffle House,4620 CLEMSON BLVD,,ANDERSON,SC,29621,US,34.57624817,-82.71244812,2022-11-26 19:44:51
Waffle House,1985 HWY 31 S,,BIRMINGHAM,AL,35244,US,33.3484726,-86.79495239,2022-11-26 19:44:51
Waffle House,15 GLENDA TRACE,,NEWNAN,GA,30265,US,33.40905762,-84.6854248,2022-11-26 19:44:52
Waffle House,4375 TILLY MILL ROAD,,DORAVILLE,GA,30360,US,33.92266083,-84.28120422,2022-11-26 19:44:51
Waffle House,301 MADISON AVENUE,,MONTGOMERY,AL,36104,US,32.38027191,-86.30487823,2022-11-26 19:44:52
Waffle House,1139 YORK STREET,,AIKEN,SC,29801,US,33.57780075,-81.70310211,2022-11-26 19:44:52
Waffle House,5419 HWY 280 SOUTH,,BIRMINGHAM,AL,35244,US,33.41532135,-86.66564178,2022-11-26 19:44:51
Waffle House,2442 SOUTH OATES ST,,DOTHAN,AL,36301,US,31.19159889,-85.40150452,2022-11-26 19:44:49
Waffle House,1646 A BRADLEY PARK,,COLUMBUS,GA,31904,US,32.5322876,-84.96604156,2022-11-26 19:44:52
Waffle House,2260 SIGMAN ROAD,,CONYERS,GA,30012,US,33.68260574,-84.0619812,2022-11-26 19:44:52
Waffle House,2615 ZELDA RD,,MONTGOMERY,AL,36107,US,32.36404419,-86.27083588,2022-11-26 19:44:52
Waffle House,10 BRAEBURN DRIVE,,ANDERSON,SC,29621,US,34.53135681,-82.63398743,2022-11-26 19:44:51
Waffle House,1440 GADSDEN HWY,,BIRMINGHAM,AL,35235,US,33.59718323,-86.64473724,2022-11-26 19:44:51
Waffle House,E 10401 US 84 HWY,,THOMASVILLE,GA,31757,US,30.83550453,-83.93916321,2022-11-26 19:44:49
Waffle House,3915 LAWRENCEVILLE,,LILBURN,GA,30047,US,33.90629959,-84.11177826,2022-11-26 19:44:51
Waffle House,628 N JOHN SIMS PKWY,,NICEVILLE,FL,32578,US,30.52154922,-86.50183105,2022-11-26 19:44:49
Waffle House,5180 CARMICHAEL RD,,MONTGOMERY,AL,36106,US,32.35960388,-86.21669769,2022-11-26 19:44:52
Waffle House,105 FRONTAGE ROAD,,AIKEN,SC,29801,US,33.6383667,-81.73917389,2022-11-26 19:44:52
Waffle House,3998 METHODIST CIR,,BESSEMER,AL,35022,US,33.33686066,-86.91722107,2022-11-26 19:44:51
Waffle House,5252 N HENRY BLVD,,STOCKBRIDGE,GA,30281,US,33.54746246,-84.25118256,2022-11-26 19:44:52
Waffle House,446 S. MAIN ST.,,STATESBORO,GA,30458,US,32.43517303,-81.78465271,2022-11-26 19:44:49
Waffle House,985 W. SOUTH BLVD,,MONTGOMERY,AL,36105,US,32.32667923,-86.33319092,2022-11-26 19:44:52
Waffle House,2 JUSTICE LANE,,ANDERSON,SC,29621,US,34.57659531,-82.69026184,2022-11-26 19:44:51
Waffle House,1801 4TH AVENUE,,BIRMINGHAM,AL,35233,US,33.50759888,-86.8045578,2022-11-26 19:44:51
Waffle House,1850 ASHVILLE RD,,LEEDS,AL,35094,US,33.56414032,-86.52231598,2022-11-26 19:44:51
Waffle House,1305 HWY 20 WEST,,MCDONOUGH,GA,30253,US,33.42303085,-84.18536377,2022-11-26 19:44:52
Waffle House,6350 TARA BLVD,,JONESBORO,GA,30236,US,33.58098984,-84.37580872,2022-11-26 19:44:52
Waffle House,8582 NAVARRE PKWY,,NAVARRE,FL,32566,US,30.40220642,-86.86405182,2022-11-26 19:44:49
Waffle House,462 EAST PINE LOG RD,,AIKEN,SC,29803,US,33.52761841,-81.70883942,2022-11-26 19:44:52
Waffle House,2255 PANOLA RD,,LITHONIA,GA,30058,US,33.72375107,-84.16719818,2022-11-26 19:44:51
Waffle House,766 DEKALB IND. WAY,,DECATUR,GA,30033,US,33.79909897,-84.28018188,2022-11-26 19:44:51
Waffle House,3025 A NORTH MAIN ST,,ANDERSON,SC,29621,US,34.53643036,-82.66693878,2022-11-26 19:44:51
Waffle House,8018 CUMMING HWY,,CANTON,GA,30115,US,34.25375366,-84.35957336,2022-11-26 19:44:51
Waffle House,4065 PEACHTREE ROAD/,,ATLANTA,GA,30319,US,33.8611908,-84.33921051,2022-11-26 19:44:51
Waffle House,2676 COLUMBIA HWY N,,AIKEN,SC,29805,US,33.66470718,-81.67392731,2022-11-26 19:44:52
Waffle House,531 CANTON HWY,,CUMMING,GA,30040,US,34.22180939,-84.15409088,2022-11-26 19:44:51
Waffle House,837 TAYLOR RD,,MONTGOMERY,AL,36117,US,32.37060547,-86.17102051,2022-11-26 19:44:52
Waffle House,2519 WHISKEY RD,,AIKEN,SC,29803,US,33.50710678,-81.71076965,2022-11-26 19:44:52
Waffle House,4875 ALABAMA RD NE,,ROSWELL,GA,30075,US,34.06760025,-84.42530823,2022-11-26 19:44:51
Waffle House,476 NORTHSIDE DRIVE,,STATESBORO,GA,30458,US,32.43903732,-81.76300049,2022-11-26 19:44:49
Waffle House,121 W. OGLETHORPE,,ALBANY,GA,31701,US,31.57559967,-84.15010071,2022-11-26 19:44:49
Waffle House,1629 GORDON HWY,,AUGUSTA,GA,30906,US,33.43950272,-82.01576233,2022-11-26 19:44:52
Waffle House,56 TRAVELERS REST RD,,JASPER,GA,30143,US,34.46603012,-84.46015167,2022-11-26 19:44:51
Waffle House,1207 S MARTIN LUTHER,,AMERICUS,GA,31719,US,32.06702042,-84.25228882,2022-11-26 19:44:49
Waffle House,306 N TYNDALL PKWY,,CALLAWAY,FL,32404,US,30.1539402,-85.59088135,2022-11-26 19:44:49
Waffle House,2310 US HWY 411,,CARTERSVILLE,GA,30120,US,34.24097061,-84.77509308,2022-11-26 19:44:51
Waffle House,228 NORTH MAIN ST,,CEDARTOWN,GA,30125,US,34.0169754,-85.25391388,2022-11-26 19:44:51
Waffle House,1515 MCFARLAND PKWY,,ALPHARETTA,GA,30005,US,34.11072159,-84.22000885,2022-11-26 19:44:51
Waffle House,1700 SOUTH HWY 29,,CANTONMENT,FL,32533,US,30.57652092,-87.29338074,2022-11-26 19:44:49
Waffle House,1170 WEST AVE,,CONYERS,GA,30012,US,33.66638184,-84.02613831,2022-11-26 19:44:52
Waffle House,2915 LAWRENCEVILLE/,,SUWANEE,GA,30024,US,34.02767563,-84.04561615,2022-11-26 19:44:51
Waffle House,571 S MAIN ST,,ALPHARETTA,GA,30009,US,34.06638336,-84.31002808,2022-11-26 19:44:51
Waffle House,1096 CLAUSSEN ROAD,,AUGUSTA,GA,30907,US,33.52195358,-82.03295135,2022-11-26 19:44:52
Waffle House,410 FIRST AVE,,E. ELLIJAY,GA,30539,US,34.67673874,-84.4773407,2022-11-26 19:44:51
Waffle House,1702 EAST OGLETHORPE,,ALBANY,GA,31705,US,31.57076073,-84.1071167,2022-11-26 19:44:49
Waffle House,613 THORNTON RD,,LITHIA SPRINGS,GA,30122,US,33.78853989,-84.62145233,2022-11-26 19:44:51
Waffle House,1912 CHATTANOOGA RD,,DALTON,GA,30720,US,34.79525757,-84.99680328,2022-11-26 19:44:51
Waffle House,722 N WESTOVER BLVD,,ALBANY,GA,31707,US,31.61673927,-84.22279358,2022-11-26 19:44:49
Waffle House,7044 JIMMY CARTER,,NORCROSS,GA,30092,US,33.94591522,-84.24095917,2022-11-26 19:44:51
Waffle House,3467 MUNDY MILL ROAD,,GAINESVILLE,GA,30507,US,34.22325134,-83.86443329,2022-11-26 19:44:51
Waffle House,11879 HIGHWAY 231/,,MERIDIANVILLE,AL,35759,US,34.85550308,-86.57176971,2022-11-26 19:44:51
Waffle House,109 FOREST PARKWAY,,FOREST PARK,GA,30297,US,33.61841583,-84.38683319,2022-11-26 19:44:51
Waffle House,1635 HUGHES ROAD,,MADISON,AL,35758,US,34.75182724,-86.74087524,2022-11-26 19:44:51
Waffle House,3804 S FERDON BLVD,,CRESTVIEW,FL,32536,US,30.72237015,-86.56918335,2022-11-26 19:44:49
Waffle House,821 SOUTH PARK ST,,CARROLLTON,GA,30117,US,33.56627655,-85.07707977,2022-11-26 19:44:51
Waffle House,8950 MADISON BLVD,,MADISON,AL,35758,US,34.67641068,-86.75320435,2022-11-26 19:44:51
Waffle House,1130 N.FERDON BLVD,,CRESTVIEW,FL,32536,US,30.78384018,-86.56030273,2022-11-26 19:44:49
Waffle House,1401 PIEDMONT AVE,,ROCKMART,GA,30153,US,34.00979996,-85.04302979,2022-11-26 19:44:51
Waffle House,4285 PIO NONO,,MACON,GA,31206,US,32.78613663,-83.66760254,2022-11-26 19:44:52
Waffle House,2401 HELENA ROAD,,HELENA,AL,35080,US,33.28326035,-86.85437012,2022-11-26 19:44:51
Waffle House,1680 MAIN ST,,CHIPLEY,FL,32428,US,30.75231934,-85.55065155,2022-11-26 19:44:49
Waffle House,4097 MARIETTA ST,,POWDER SPRINGS,GA,30127,US,33.85876846,-84.67402649,2022-11-26 19:44:51
Waffle House,2661 POWDER SPRINGS,,MARIETTA,GA,30064,US,33.86756897,-84.631073,2022-11-26 19:44:51
Waffle House,5421 VILLAGE MARKET,,WESLEY CHAPEL,FL,33544,US,28.23581886,-82.35096741,2022-11-26 19:44:49
Waffle House,10384 AIRLINE HWY,,ST ROSE,LA,70087,US,29.97628021,-90.29291534,2022-11-26 19:44:49
Waffle House,4406 W HARDY ST,,HATTIESBURG,MS,39402,US,31.3239193,-89.35543823,2022-11-26 19:44:51
Waffle House,102 PEARCES ROAD,,ZEBULON,NC,27597,US,35.83869934,-78.32489777,2022-11-26 19:44:51
Waffle House,1510 EAST 10TH ST.,,JEFFERSONVILLE,IN,47130,US,38.29090118,-85.72769928,2022-11-26 19:44:51
Waffle House,2510 SUNSET POINT RD,,CLEARWATER,FL,33765,US,27.99099922,-82.73300171,2022-11-26 19:44:49
Waffle House,313 BERT KOUNS,,SHREVEPORT,LA,71106,US,32.39787674,-93.75908661,2022-11-26 19:44:51
Waffle House,28055 HWY 28,,HAZLEHURST,MS,39083,US,31.87434578,-90.40689087,2022-11-26 19:44:51
Waffle House,3901 GOLDSBORO RD,,WADE,NC,28395,US,35.12366486,-78.75012207,2022-11-26 19:44:49
Waffle House,4031 E SOUTHPORT RD,,INDIANAPOLIS,IN,46237,US,39.66540146,-86.09686279,2022-11-26 19:44:51
Waffle House,1718 S. MISSOURI AVE,,CLEARWATER,FL,33756,US,27.93400002,-82.78700256,2022-11-26 19:44:49
Waffle House,7025 DUNBARTON DRIVE,,HORN LAKE,MS,38637,US,34.96300125,-90.05460358,2022-11-26 19:44:51
Waffle House,1706 NORTH 18TH ST,,MONROE,LA,71201,US,32.52613449,-92.1147995,2022-11-26 19:44:51
Waffle House,865 W GOODMAN ROAD,,HORN LAKE,MS,38637,US,34.96250534,-90.00493622,2022-11-26 19:44:51
Waffle House,1165 US HWY 1,,YOUNGSVILLE,NC,27596,US,36.04117966,-78.49821472,2022-11-26 19:44:51
Waffle House,2621 S LYNHURST DR,,INDIANAPOLIS,IN,46241,US,39.72755814,-86.2502594,2022-11-26 19:44:51
Waffle House,720 CAGAN VIEW RD,,CLERMONT,FL,34714,US,28.35798454,-81.67751312,2022-11-26 19:44:49
Waffle House,2118 W. GAUSE BLVD.,,SLIDELL,LA,70460,US,30.30257034,-89.82079315,2022-11-26 19:44:49
Waffle House,584 BEASLEY ROAD,,JACKSON,MS,39206,US,32.38589859,-90.14969635,2022-11-26 19:44:51
Waffle House,715 THOMAS LANGSTON,,WINTERVILLE,NC,28590,US,35.56099319,-77.40615845,2022-11-26 19:44:49
Waffle House,2480 EAST HWY 50,,CLERMONT,FL,34711,US,28.54733276,-81.70922089,2022-11-26 19:44:49
Waffle House,106 LARSON STREET,,JACKSON,MS,39202,US,32.30370331,-90.16840363,2022-11-26 19:44:51
Waffle House,55OO MAIN ST,,ZACHARY,LA,70791,US,30.64720345,-91.14762878,2022-11-26 19:44:51
Waffle House,2311 WEST MLK BLVD,,FAYETTEVILLE,AR,72701,US,36.05420303,-94.19210815,2022-11-26 19:44:51
Waffle House,3665 N ATLANTIC AVE,,COCOA BEACH,FL,32931,US,28.35253906,-80.60876465,2022-11-26 19:44:49
Waffle House,3101 DAVID DRIVE,,METAIRIE,LA,70003,US,30.0039196,-90.2201767,2022-11-26 19:44:49
Waffle House,4800 HIGHWAY 18,,JACKSON,MS,39209,US,32.28971863,-90.26980591,2022-11-26 19:44:51
Waffle House,2340 N WASHINGTON ST,,FORREST CITY,AR,72335,US,35.03152466,-90.78942871,2022-11-26 19:44:51
Waffle House,44215 HWY 27,,DAVENPORT,FL,33897,US,28.23682213,-81.65213013,2022-11-26 19:44:49
Waffle House,4615 I 55 NORTH,,JACKSON,MS,39206,US,32.35657883,-90.15287781,2022-11-26 19:44:51
Waffle House,10221 PAGE AVENUE,,SAINT LOUIS,MO,63132,US,38.6914711,-90.38609314,2022-11-26 19:44:51
Waffle House,2631 GENERAL,,NEW ORLEANS,LA,70114,US,29.9286499,-90.03193665,2022-11-26 19:44:49
Waffle House,650 SCHILLINGER RD N,,MOBILE,AL,36608,US,30.70386505,-88.22509766,2022-11-26 19:44:49
Waffle House,4931 KNIGHTS WAY,,INDIANAPOLIS,IN,46217,US,39.69342422,-86.1878891,2022-11-26 19:44:51
Waffle House,3200 S ATLANTIC AVE,,DAYTONA BCH SHORES,FL,32118,US,29.15123558,-80.96908569,2022-11-26 19:44:49
Waffle House,9001 AIRLINE DRIVE,,METAIRIE,LA,70003,US,29.97955894,-90.23570251,2022-11-26 19:44:49
Waffle House,1602 JEFFERSON ST,,LAUREL,MS,39440,US,31.68575287,-89.14739227,2022-11-26 19:44:51
Waffle House,8354 I 10 SERVICE RD,,IRVINGTON,AL,36544,US,30.54134941,-88.24256897,2022-11-26 19:44:49
Waffle House,937 WEST CENTER ST,,GREENWOOD,AR,72936,US,35.21744156,-94.27259064,2022-11-26 19:44:51
Waffle House,317 HIGHWAY 82 EAST,,WINONA,MS,38967,US,33.48706055,-89.75687408,2022-11-26 19:44:51
Waffle House,1585 SIMPSON HWY 49,,MAGEE,MS,39111,US,31.8700676,-89.74760437,2022-11-26 19:44:51
Waffle House,916 WEST FRONTAGE RD,,WIGGINS,MS,39577,US,30.8491745,-89.15478516,2022-11-26 19:44:49
Waffle House,11185 GULF BLVD,,TREASURE ISLAND,FL,33706,US,27.7719574,-82.77165222,2022-11-26 19:44:49
Waffle House,1635 CRESWELL LN EXT,,OPELOUSAS,LA,70570,US,30.51872826,-92.06477356,2022-11-26 19:44:49
Waffle House,3565 CHENEY HWY,,TITUSVILLE,FL,32780,US,28.5525322,-80.8483963,2022-11-26 19:44:49
Waffle House,10319 STAGECOACH RD,,LITTLE ROCK,AR,72210,US,34.65730667,-92.42572784,2022-11-26 19:44:51
Waffle House,452 US HWY 90,,WAVELAND,MS,39576,US,30.30462074,-89.38269806,2022-11-26 19:44:49
Waffle House,2147 W PINHOOK ROAD,,LAFAYETTE,LA,70508,US,30.18540001,-92.00969696,2022-11-26 19:44:49
Waffle House,2455 N FRONTAGE RD,,VICKSBURG,MS,39180,US,32.32843781,-90.86372375,2022-11-26 19:44:51
Waffle House,4459 W HILLSBOROUGH,,TAMPA,FL,33614,US,27.99600029,-82.51899719,2022-11-26 19:44:49
Waffle House,4554 HWY 1,,RACELAND,LA,70394,US,29.70479965,-90.56739807,2022-11-26 19:44:49
Waffle House,13101 E. FLOWERWOOD,,LOXLEY,AL,36551,US,30.64783287,-87.76000977,2022-11-26 19:44:49
Waffle House,4100 PEMBERTON SQ,,VICKSBURG,MS,39180,US,32.3033905,-90.88895416,2022-11-26 19:44:51
Waffle House,3009 W COLUMBUS DR,,TAMPA,FL,33607,US,27.96699905,-82.49199677,2022-11-26 19:44:49
Waffle House,18744 US HIGHWAY 441,,MOUNT DORA,FL,32757,US,28.82375145,-81.64588165,2022-11-26 19:44:49
Waffle House,4045 CLAY ST,,VICKSBURG,MS,39183,US,32.34405518,-90.83718109,2022-11-26 19:44:51
Waffle House,2439 WILLIAMS BLVD.,,KENNER,LA,70062,US,30.00869942,-90.2411499,2022-11-26 19:44:49
Waffle House,6701 HWY 63,,MOSS POINT,MS,39563,US,30.43786049,-88.52718353,2022-11-26 19:44:49
Waffle House,70 WARRENTON RD,,VICKSBURG,MS,39180,US,32.30979538,-90.90072632,2022-11-26 19:44:51
Waffle House,1803 THORN ROAD,,LAKE CHARLES,LA,70605,US,30.18693352,-93.24972534,2022-11-26 19:44:49
Waffle House,2525 54TH AVE NORTH,,ST PETERSBURG,FL,33714,US,27.82119942,-82.66701508,2022-11-26 19:44:49
Waffle House,2226 NEEDMORE RD,,DAYTON,OH,45414,US,39.81944275,-84.19258118,2022-11-26 19:44:51
Waffle House,7611 W NEWBERRY RD,,GAINESVILLE,FL,32606,US,29.65954208,-82.42388916,2022-11-26 19:44:49
Waffle House,2751 FLORIDA STREET,,MANDEVILLE,LA,70448,US,30.37018967,-90.07311249,2022-11-26 19:44:49
Waffle House,7800 BRANDT PIKE,,DAYTON,OH,45424,US,39.8657608,-84.10128021,2022-11-26 19:44:51
Waffle House,5130 NW 13TH STREET,,GAINESVILLE,FL,32609,US,29.70176506,-82.34246826,2022-11-26 19:44:49
Waffle House,2516 NIMMO PARKWAY,,VIRGINIA BEACH,VA,23456,US,36.75621414,-76.06116486,2022-11-26 19:44:49
Waffle House,608 HIGHWAY 17 NORTH,,SURFSIDE BEACH,SC,29575,US,33.6183548,-78.97582245,2022-11-26 19:44:49
Waffle House,9295 N. MAIN STREET,,DAYTON,OH,45415,US,39.85670853,-84.27970123,2022-11-26 19:44:51
Waffle House,3919 S.W. 40TH BLVD,,GAINESVILLE,FL,32608,US,29.61813354,-82.38299561,2022-11-26 19:44:49
Waffle House,3885 GERSTNER MEM BL,,LAKE CHARLES,LA,70607,US,30.18710327,-93.17971802,2022-11-26 19:44:49
Waffle House,1107 E DAYTON YELLOW,,FAIRBORN,OH,45324,US,39.78362274,-83.99878693,2022-11-26 19:44:51
Waffle House,6407 JOHNSTON STREET,,LAFAYETTE,LA,70503,US,30.15591049,-92.08831787,2022-11-26 19:44:49
Waffle House,5141 DIXIE HWY,,FAIRFIELD,OH,45014,US,39.33963394,-84.53423309,2022-11-26 19:44:51
Waffle House,1103 TRENTON AVE,,FINDLAY,OH,45840,US,41.05856323,-83.67167664,2022-11-26 19:44:51
Waffle House,559 BEHRMAN HIGHWAY,,TERRYTOWN,LA,70056,US,29.90351677,-90.01837158,2022-11-26 19:44:49
Waffle House,1922 W AIRLINE HWY,,LAPLACE,LA,70068,US,30.07422066,-90.50521851,2022-11-26 19:44:49
Waffle House,6840 FRANKLIN,,FRANKLIN,OH,45005,US,39.54206848,-84.29180908,2022-11-26 19:44:51
Waffle House,1500 NW WOODS CHAPEL,,BLUE SPRINGS,MO,64015,US,39.03222275,-94.30512238,2022-11-26 19:44:51
Waffle House,844 NORTH CANAL BLVD,,THIBODAUX,LA,70301,US,29.81607437,-90.81437683,2022-11-26 19:44:49
Waffle House,612 JEFFERSON HWY,,JEFFERSON,LA,70121,US,29.96499252,-90.13722229,2022-11-26 19:44:49
Waffle House,2725 SALT SPRINGS RD,,GIRARD,OH,44420,US,41.14308167,-80.72186279,2022-11-26 19:44:51
Waffle House,2621 RUTH ST,,SULPHUR,LA,70665,US,30.21363831,-93.37627411,2022-11-26 19:44:49
Waffle House,2928 LONDON,,GROVE CITY,OH,43123,US,39.84019089,-83.08319092,2022-11-26 19:44:51
Waffle House,2488 S CITIES SVC,,SULPHUR,LA,70665,US,30.21191978,-93.32593536,2022-11-26 19:44:49
Waffle House,5103 MONKHOUSE DR,,SHREVEPORT,LA,71109,US,32.45972061,-93.82744598,2022-11-26 19:44:51
Waffle House,4140 MARLANE DR,,GROVE CITY,OH,43123,US,39.87821579,-83.05329132,2022-11-26 19:44:51
Waffle House,28100 QUAILS NEST LN,,BONITA SPRINGS,FL,34135,US,26.33081627,-81.75235748,2022-11-26 19:44:49
Waffle House,10295 HWY 165 NORTH,,STERLINGTON,LA,71280,US,32.68149185,-92.04727173,2022-11-26 19:44:51
Waffle House,219 SANDY CREEK PKWY,,SAINT AUGUSTINE,FL,32095,US,30.06507874,-81.49601746,2022-11-26 19:44:49
Waffle House,4569 HOMER OHIO LANE,,GROVEPORT,OH,43125,US,39.87509537,-82.88388062,2022-11-26 19:44:51
Waffle House,5415 HWY 62,,JEFFERSONVILLE,IN,47130,US,38.35652924,-85.70128632,2022-11-26 19:44:51
Waffle House,915 E. UNIVERSITY AV,,GAINESVILLE,FL,32601,US,29.64999962,-82.31500244,2022-11-26 19:44:49
Waffle House,167 MAXWELL RD,,RAYVILLE,LA,71269,US,32.4561882,-91.75858307,2022-11-26 19:44:51
Waffle House,2729 STATE ROAD 16,,SAINT AUGUSTINE,FL,32092,US,29.92099953,-81.41799927,2022-11-26 19:44:49
Waffle House,829 HIGH ST,,HAMILTON,OH,45011,US,39.39673233,-84.55242157,2022-11-26 19:44:51
Waffle House,1548 EAST WOOSTER AV,,BOWLING GREEN,OH,43402,US,41.37439346,-83.62519073,2022-11-26 19:44:51
Waffle House,1800 N. UNIVERSITY,,LAFAYETTE,LA,70507,US,30.25424767,-92.03783417,2022-11-26 19:44:49
Waffle House,10930 NEW HAVEN RD,,HARRISON,OH,45030,US,39.25907898,-84.80157471,2022-11-26 19:44:51
Waffle House,3401 SCHILLINGER RD,,SEMMES,AL,36575,US,30.76191711,-88.2260437,2022-11-26 19:44:49
Waffle House,1635 ELTON RD,,JENNINGS,LA,70546,US,30.24100494,-92.66320801,2022-11-26 19:44:49
Waffle House,7050 ORCHARD CENTRE,,HOLLAND,OH,43528,US,41.60955429,-83.71029663,2022-11-26 19:44:51
Waffle House,1105 WEST OAK ST,,AMITE,LA,70422,US,30.72619438,-90.52597809,2022-11-26 19:44:51
Waffle House,1407 NORTH HERVEY ST,,HOPE,AR,71801,US,33.67982864,-93.60430908,2022-11-26 19:44:51
Waffle House,6097 HWY 43 NORTH,,SATSUMA,AL,36572,US,30.87006378,-88.04721832,2022-11-26 19:44:49
Waffle House,5600 EXECUTIVE BLVD,,HUBER HEIGHTS,OH,45424,US,39.87281418,-84.13569641,2022-11-26 19:44:51
Waffle House,2284 GALA AVE,,HUBBARD,OH,44425,US,41.18182755,-80.56961823,2022-11-26 19:44:51
Waffle House,2017 CENTRAL AVE,,HOT SPRINGS,AR,71901,US,34.49237061,-93.0577774,2022-11-26 19:44:51
Waffle House,11546 ALLEN RD,,JEFFERSONVILLE,OH,43128,US,39.61736679,-83.60623169,2022-11-26 19:44:51
Waffle House,3071 HWY 90 WEST,,AVONDALE,LA,70094,US,29.90976524,-90.20678711,2022-11-26 19:44:49
Waffle House,4761 CENTRAL AVE,,HOT SPRINGS,AR,71913,US,34.4446373,-93.08979034,2022-11-26 19:44:51
Waffle House,811 US HWY 43 SOUTH,,SARALAND,AL,36571,US,30.80365753,-88.0721283,2022-11-26 19:44:49
Waffle House,16401 SQUARE DR,,MARYSVILLE,OH,43040,US,40.24048996,-83.34244537,2022-11-26 19:44:51
Waffle House,1385 ELECTION HOUSE,,LANCASTER,OH,43130,US,39.74607468,-82.64833069,2022-11-26 19:44:51
Waffle House,14618 PLANK ROAD,,BAKER,LA,70714,US,30.58058167,-91.12779236,2022-11-26 19:44:49
Waffle House,516 LEXINGTON RD,,VERSAILLES,KY,40383,US,38.05057526,-84.71381378,2022-11-26 19:44:51
Waffle House,1204 INDUSTRIAL PKWY,,SARALAND,AL,36571,US,30.80240059,-88.10032654,2022-11-26 19:44:49
Waffle House,3998 COL GLENN HWY,,FAIRBORN,OH,45324,US,39.7749176,-84.07935333,2022-11-26 19:44:51
Waffle House,4351 HAMILTON,,LIBERTY TOWNSHIP,OH,45011,US,39.41759872,-84.47070312,2022-11-26 19:44:51
Waffle House,18159 HIGHLAND RD,,BATON ROUGE,LA,70810,US,30.34854126,-91.02755737,2022-11-26 19:44:49
Waffle House,4 CAROL ROAD,,WINCHESTER,KY,40391,US,38.00722885,-84.20968628,2022-11-26 19:44:51
Waffle House,116 MARSHALL RD,,JACKSONVILLE,AR,72076,US,34.86870575,-92.12841034,2022-11-26 19:44:51
Waffle House,3085 BROADWAY,,GROVE CITY,OH,43123,US,39.90092087,-83.07849884,2022-11-26 19:44:51
Waffle House,1220 NEUBRECHT ROAD,,LIMA,OH,45801,US,40.75616455,-84.07997131,2022-11-26 19:44:51
Waffle House,3616 AIRLINE DRIVE,,METAIRIE,LA,70001,US,29.97487831,-90.16223907,2022-11-26 19:44:49
Waffle House,251 AA HWY,,WILDER,KY,41076,US,39.0105629,-84.47022247,2022-11-26 19:44:51
Waffle House,5329 N STATE LINE AV,,TEXARKANA,TX,75503,US,33.47360229,-94.04349518,2022-11-26 19:44:51
Waffle House,1815 OUTLET CENTER,,SELMA,NC,27576,US,35.52043152,-78.29363251,2022-11-26 19:44:49
Waffle House,185 MARY GRUBBS HWY,,WALTON,KY,41094,US,38.85865402,-84.62154388,2022-11-26 19:44:51
Waffle House,5117 SUMMERHILL RD,,TEXARKANA,TX,75503,US,33.46875763,-94.06828308,2022-11-26 19:44:51
Waffle House,11244 E MLK BLVD,,SEFFNER,FL,33584,US,27.98194313,-82.30888367,2022-11-26 19:44:49
Waffle House,63900 HIGHWAY 1090,,PEARL RIVER,LA,70452,US,30.35687828,-89.74565125,2022-11-26 19:44:49
Waffle House,11213 FRONTAGE ROAD,,WALTON,KY,41094,US,38.91740799,-84.63153076,2022-11-26 19:44:51
Waffle House,719 EAST PARKER RD,,JONESBORO,AR,72404,US,35.80659866,-90.70185089,2022-11-26 19:44:51
Waffle House,8135 VARNAVAS RD,,CORDOVA,TN,38016,US,35.1882515,-89.7922821,2022-11-26 19:44:51
Waffle House,1228 TAMIAMI TRAIL,,PUNTA GORDA,FL,33950,US,26.92700005,-82.04705048,2022-11-26 19:44:49
Waffle House,112 LOBDELL HWY,,PORT ALLEN,LA,70767,US,30.4500885,-91.24530029,2022-11-26 19:44:49
Waffle House,14384 VERA MCGOWAN,,WALKER,LA,70785,US,30.47333336,-90.86289978,2022-11-26 19:44:49
Waffle House,2905 PHILLIPS DR,,JONESBORO,AR,72401,US,35.80938339,-90.66976166,2022-11-26 19:44:51
Waffle House,1612 HWY 34 SOUTH,,TERRELL,TX,75160,US,32.70448685,-96.27689362,2022-11-26 19:44:51
Waffle House,740 SAM HOUSTON,,LAKE CHARLES,LA,70611,US,30.30088615,-93.20877075,2022-11-26 19:44:49
Waffle House,2500 CANAL STREET,,NEW ORLEANS,LA,70119,US,29.96369934,-90.08399963,2022-11-26 19:44:49
Waffle House,308 THOMAS ROAD,,WEST MONROE,LA,71291,US,32.5090065,-92.15773773,2022-11-26 19:44:51
Waffle House,8107 GEYER SPRNGS RD,,LITTLE ROCK,AR,72209,US,34.67624664,-92.34371185,2022-11-26 19:44:51
Waffle House,1220 BLUE MOUND RD,,SAGINAW,TX,76131,US,32.8445282,-97.34336853,2022-11-26 19:44:51
Waffle House,336 W LAKE MARY BLVD,,SANFORD,FL,32773,US,28.75799942,-81.28900146,2022-11-26 19:44:49
Waffle House,4601 OLD GENTILLY RD,,NEW ORLEANS,LA,70126,US,30.00513649,-90.03598785,2022-11-26 19:44:49
Waffle House,148 WELL RD,,WEST MONROE,LA,71291,US,32.51434326,-92.19202423,2022-11-26 19:44:51
Waffle House,1220 REBSAMEN PK RD,,LITTLE ROCK,AR,72202,US,34.76213074,-92.31030273,2022-11-26 19:44:51
Waffle House,4420 LOUETTA ROAD,,SPRING,TX,77388,US,30.04441071,-95.48187256,2022-11-26 19:44:49
Waffle House,11951 I 10 SERVICE,,NEW ORLEANS,LA,70128,US,30.04695511,-89.96263885,2022-11-26 19:44:49
Waffle House,101 BASIC DRIVE,,WEST MONROE,LA,71291,US,32.50333405,-92.15665436,2022-11-26 19:44:51
Waffle House,4200 S. UNIVERSITY,,LITTLE ROCK,AR,72204,US,34.7159996,-92.34300232,2022-11-26 19:44:51
Waffle House,11208 W AIRPORT RD,,STAFFORD,TX,77477,US,29.64213562,-95.57323456,2022-11-26 19:44:49
Waffle House,140 BROWNSWITCH RD,,SLIDELL,LA,70458,US,30.31114006,-89.76795197,2022-11-26 19:44:49
Waffle House,125  EAST FREEWAY,,VIDOR,TX,77662,US,30.13261986,-94.01564789,2022-11-26 19:44:49
Waffle House,201 N SHACKLEFORD RD,,LITTLE ROCK,AR,72211,US,34.75462723,-92.39348602,2022-11-26 19:44:51
Waffle House,1506 FARMERVILLE HWY,,RUSTON,LA,71270,US,32.53790283,-92.6185379,2022-11-26 19:44:51
Waffle House,243 SPUR 5,,WINNIE,TX,77665,US,29.83071327,-94.38435364,2022-11-26 19:44:49
Waffle House,3202 BANKHEAD DRIVE,,LITTLE ROCK,AR,72206,US,34.71461487,-92.22412872,2022-11-26 19:44:51
Waffle House,2621 S HORNER BLVD,,SANFORD,NC,27332,US,35.45769882,-79.14259338,2022-11-26 19:44:51
Waffle House,221 WEST ESPLANADE,,KENNER,LA,70065,US,30.02300262,-90.27136993,2022-11-26 19:44:49
Waffle House,500 E BOWMAN RD,,LITTLE ROCK,AR,72211,US,34.75016785,-92.40715027,2022-11-26 19:44:51
Waffle House,120 WESTERN BLVD,,TARBORO,NC,27886,US,35.88947678,-77.54842377,2022-11-26 19:44:49
Waffle House,5737 CLARK ROAD,,SARASOTA,FL,34233,US,27.26926041,-82.45550537,2022-11-26 19:44:49
Waffle House,1010 EAST THOMAS ST,,HAMMOND,LA,70401,US,30.50675964,-90.44988251,2022-11-26 19:44:49
Waffle House,959 NASA RD 1,,WEBSTER,TX,77598,US,29.53119087,-95.12675476,2022-11-26 19:44:49
Waffle House,100 FANNIE LANE,,LONOKE,AR,72086,US,34.80640793,-91.89025879,2022-11-26 19:44:51
Waffle House,1032 RANDOLPH ST,,THOMASVILLE,NC,27360,US,35.86486816,-80.0723877,2022-11-26 19:44:51
Waffle House,7670 STARKEY ROAD,,SEMINOLE,FL,33777,US,27.84177208,-82.76272583,2022-11-26 19:44:49
Waffle House,2128 HWY 30 WEST,,GONZALES,LA,70737,US,30.2106514,-90.94410706,2022-11-26 19:44:49
Waffle House,2521 S MAIN ST,,WEATHERFORD,TX,76087,US,32.7282753,-97.7885437,2022-11-26 19:44:51
Waffle House,1921 MLK BLVD,,MALVERN,AR,72104,US,34.39329147,-92.82859039,2022-11-26 19:44:51
Waffle House,1701 MARTENS DR.,,HAMMOND,LA,70401,US,30.5172596,-90.47932434,2022-11-26 19:44:49
Waffle House,1020 HWY 287 BYPASS,,WAXAHACHIE,TX,75165,US,32.42065048,-96.84098053,2022-11-26 19:44:51
Waffle House,20514 HWY 365 N,,MAUMELLE,AR,72113,US,34.88482666,-92.38241577,2022-11-26 19:44:51
Waffle House,5607 HWY 42 W,,GARNER,NC,27529,US,35.60339737,-78.57003021,2022-11-26 19:44:51
Waffle House,100 EGAN ROAD,,CROWLEY,LA,70526,US,30.23643494,-92.38708496,2022-11-26 19:44:49
Waffle House,380 E NATIONAL RD,,VANDALIA,OH,45377,US,39.89129257,-84.19276428,2022-11-26 19:44:51
Waffle House,1281 S. 48TH STREET,,SPRINGDALE,AR,72762,US,36.1744957,-94.18357086,2022-11-26 19:44:51
Waffle House,8310 WILSKY BLVD,,TAMPA,FL,33615,US,28.02635384,-82.56676483,2022-11-26 19:44:49
Waffle House,21852 HIGHWAY 59,,ROBERTSDALE,AL,36567,US,30.54339027,-87.70798492,2022-11-26 19:44:49
Waffle House,36333 VINE ST,,WILLOUGHBY,OH,44094,US,41.64254379,-81.42930603,2022-11-26 19:44:51
Waffle House,219 S THOMPSON ST.,,SPRINGDALE,AR,72764,US,36.18299866,-94.13800049,2022-11-26 19:44:51
Waffle House,6502 N US HWY 301,,TAMPA,FL,33610,US,28.00535202,-82.35610962,2022-11-26 19:44:49
Waffle House,503 APOLLO DRIVE,,WAPAKONETA,OH,45895,US,40.56372452,-84.17353058,2022-11-26 19:44:51
Waffle House,"2723 US HWY 412,",,SILOAM SPRINGS,AR,72761,US,36.181427,-94.51405334,2022-11-26 19:44:51
Waffle House,922 E. FOWLER AVE.,,TAMPA,FL,33612,US,28.05454826,-82.4497757,2022-11-26 19:44:49
Waffle House,8239 CINCINNATI,,WEST CHESTER,OH,45069,US,39.34644699,-84.39559174,2022-11-26 19:44:51
Waffle House,6501 WARDEN ROAD,,SHERWOOD,AR,72120,US,34.81476974,-92.20342255,2022-11-26 19:44:51
Waffle House,1494 NILES CORTLAND,,WARREN,OH,44484,US,41.22230911,-80.74137115,2022-11-26 19:44:51
Waffle House,1410 N HWY 9B,,MORRILTON,AR,72110,US,35.17066956,-92.71730804,2022-11-26 19:44:51
Waffle House,7733 COX ROAD,,WEST CHESTER,OH,45069,US,39.3517189,-84.36537933,2022-11-26 19:44:51
Waffle House,4517 CAMP ROBINSON,,NORTH LITTLE ROCK,AR,72118,US,34.7960434,-92.27114105,2022-11-26 19:44:51
Waffle House,2000 WAYNE MEMORIAL,,GOLDSBORO,NC,27534,US,35.3971138,-77.96508789,2022-11-26 19:44:49
Waffle House,3385 DUBLIN GRANVLLE,,WESTERVILLE,OH,43081,US,40.08061981,-82.9278183,2022-11-26 19:44:51
Waffle House,3305 EAST RACE AVE,,SEARCY,AR,72143,US,35.25042725,-91.69265747,2022-11-26 19:44:51
Waffle House,502 N BERKELEY BLVD,,GOLDSBORO,NC,27534,US,35.37453461,-77.9447937,2022-11-26 19:44:49
Waffle House,2404 N. ARKANSAS AVE,,RUSSELLVILLE,AR,72802,US,35.30446625,-93.13783264,2022-11-26 19:44:51
Waffle House,807 EAST HARDEN ST,,GRAHAM,NC,27253,US,36.06171036,-79.38218689,2022-11-26 19:44:51
Waffle House,1507 FAYETTEVILLE RD,,VAN BUREN,AR,72956,US,35.45700073,-94.35700226,2022-11-26 19:44:51
Waffle House,3085 E PARKWAY DR,,RUSSELLVILLE,AR,72802,US,35.2816391,-93.09506226,2022-11-26 19:44:51
Waffle House,1244 RICHMOND AVE,,STAUNTON,VA,24401,US,38.13046265,-79.03938293,2022-11-26 19:44:51
Waffle House,2505 RANDLEMAN ROAD,,GREENSBORO,NC,27406,US,36.03216553,-79.80092621,2022-11-26 19:44:51
Waffle House,1721 WEST WALNUT ST,,ROGERS,AR,72756,US,36.33421707,-94.14199066,2022-11-26 19:44:51
Waffle House,5414 WILLIAMSBURG RD,,SANDSTON,VA,23150,US,37.51902008,-77.33731842,2022-11-26 19:44:51
Waffle House,17352 PERDIDO KEY DR,,PENSACOLA,FL,32507,US,30.28198624,-87.51729584,2022-11-26 19:44:49
Waffle House,2905 CHURCH ST,,CONWAY,SC,29526,US,33.86157227,-79.0929718,2022-11-26 19:44:49
Waffle House,820 S. MEMORIAL DR.,,GREENVILLE,NC,27858,US,35.60375977,-77.39666748,2022-11-26 19:44:49
Waffle House,2523 WEST KINGS HWY,,PARAGOULD,AR,72450,US,36.06000137,-90.51899719,2022-11-26 19:44:51
Waffle House,1961 WEST MAIN ST,,SALEM,VA,24153,US,37.28842163,-80.09155273,2022-11-26 19:44:51
Waffle House,810 KINGS HWY,,PORT CHARLOTTE,FL,33980,US,27.01732635,-82.05029297,2022-11-26 19:44:49
Waffle House,1528 HIGHWAY 544,,CONWAY,SC,29526,US,33.77547455,-79.02111053,2022-11-26 19:44:49
Waffle House,1930 GREENVILLE BLVD,,GREENVILLE,NC,27858,US,35.59611511,-77.33615112,2022-11-26 19:44:49
Waffle House,2505 MCCAIN BLVD,,NORTH LITTLE ROCK,AR,72116,US,34.79728699,-92.2372818,2022-11-26 19:44:51
Waffle House,6500 THIRLANE RD.,,ROANOKE,VA,24019,US,37.32617188,-79.99176025,2022-11-26 19:44:51
Waffle House,4689 SW 148TH AVE,,SOUTHWEST RANCHES,FL,33330,US,26.06139565,-80.34664154,2022-11-26 19:44:49
Waffle House,1610 E COUNTY LINE,,RIDGELAND,MS,39157,US,32.39979935,-90.12059784,2022-11-26 19:44:51
Waffle House,1690 HIGHWAY 501 E.,,CONWAY,SC,29526,US,33.8046608,-79.00991821,2022-11-26 19:44:49
Waffle House,102 ELMSLEY MEADOW,,GREENSBORO,NC,27406,US,35.99859619,-79.79312134,2022-11-26 19:44:51
Waffle House,10389 AIRLINE HWY,,BATON ROUGE,LA,70816,US,30.41498184,-91.06828308,2022-11-26 19:44:49
Waffle House,"2207 HWY 11, NORTH",,PICAYUNE,MS,39466,US,30.5448761,-89.67008209,2022-11-26 19:44:49
Waffle House,8111 E RL THORNTON,,DALLAS,TX,75228,US,32.79489899,-96.70140076,2022-11-26 19:44:51
Waffle House,510 GALLIMORE DAIRY,,GREENSBORO,NC,27409,US,36.06515121,-79.95898438,2022-11-26 19:44:51
Waffle House,1500 CONOWINGO RD,,BEL AIR,MD,21014,US,39.5674057,-76.35411072,2022-11-26 19:44:51
Waffle House,15550 GEORGE O'NEAL,,BATON ROUGE,LA,70817,US,30.40786362,-91.00963593,2022-11-26 19:44:49
Waffle House,4630 WILLIAMSON ROAD,,ROANOKE,VA,24012,US,37.31441498,-79.95378113,2022-11-26 19:44:51
Waffle House,1000 MEMORIAL BLVD,,PICAYUNE,MS,39466,US,30.51748276,-89.6681366,2022-11-26 19:44:49
Waffle House,5111 ROSS AVENUE,,DALLAS,TX,75206,US,32.80849838,-96.77400208,2022-11-26 19:44:51
Waffle House,3204 GATE CITY BLVD,,GREENSBORO,NC,27407,US,36.04204941,-79.84329224,2022-11-26 19:44:51
Waffle House,5811 LAKEWOOD DRIVE,,FAYETTEVILLE,NC,28306,US,34.98065186,-79.00740814,2022-11-26 19:44:49
Waffle House,1323 RIVERSIDE PKY,,BELCAMP,MD,21017,US,39.47845078,-76.24745178,2022-11-26 19:44:51
Waffle House,855 S STARING LANE,,BATON ROUGE,LA,70820,US,30.3621769,-91.12654877,2022-11-26 19:44:49
Waffle House,4614 CLEBURNE BLVD,,DUBLIN,VA,24084,US,37.08221054,-80.69007874,2022-11-26 19:44:51
Waffle House,3129 US HIGHWAY 80,,PEARL,MS,39208,US,32.28269958,-90.11522675,2022-11-26 19:44:51
Waffle House,3818 W ILLINOIS AVE.,,DALLAS,TX,75211,US,32.7203598,-96.88236237,2022-11-26 19:44:51
Waffle House,4302 BIG TREE WAY,,GREENSBORO,NC,27409,US,36.05836487,-79.88961029,2022-11-26 19:44:51
Waffle House,1806 EDGEWOOD RD,,EDGEWOOD,MD,21040,US,39.45386887,-76.30638885,2022-11-26 19:44:51
Waffle House,2363 COLLEGE DRIVE,,BATON ROUGE,LA,70808,US,30.42666245,-91.13696289,2022-11-26 19:44:49
Waffle House,17678 FOREST ROAD,,FOREST,VA,24551,US,37.37581253,-79.24906921,2022-11-26 19:44:51
Waffle House,15 TYNER ROAD,,PETAL,MS,39465,US,31.35190582,-89.2350769,2022-11-26 19:44:51
Waffle House,3113 BANDERA ST,,DENTON,TX,76207,US,33.23112488,-97.17573547,2022-11-26 19:44:51
Waffle House,306 GREENVILLE,,GREENVILLE,NC,27858,US,35.58092117,-77.37670135,2022-11-26 19:44:49
Waffle House,261 BELLE HILL RD,,ELKTON,MD,21921,US,39.63559723,-75.80558777,2022-11-26 19:44:51
Waffle House,940 WAYNE AVENUE,,BRIDGE CITY,LA,70094,US,29.90519905,-90.15609741,2022-11-26 19:44:49
Waffle House,2800 MERCURY BLVD,,HAMPTON,VA,23666,US,37.03445435,-76.41482544,2022-11-26 19:44:49
Waffle House,7070 GULF BLVD,,ST PETERSBURG BCH,FL,33706,US,27.73925972,-82.74966431,2022-11-26 19:44:49
Waffle House,7440 HACKS CROSS RD,,OLIVE BRANCH,MS,38654,US,34.96944046,-89.79454041,2022-11-26 19:44:51
Waffle House,808 FM 646 RD.WEST,,DICKINSON,TX,77539,US,29.47440529,-95.07787323,2022-11-26 19:44:49
Waffle House,110 SEABORN DR,,MYRTLE BEACH,SC,29579,US,33.75678635,-78.9677887,2022-11-26 19:44:49
Waffle House,1916 BEL AIR ROAD,,FALLSTON,MD,21047,US,39.49750137,-76.38890076,2022-11-26 19:44:51
Waffle House,102 SWEETLAND AVE,,BROUSSARD,LA,70518,US,30.14247894,-91.94748688,2022-11-26 19:44:49
Waffle House,1675 E MARKET ST,,HARRISONBURG,VA,22801,US,38.433918,-78.84636688,2022-11-26 19:44:51
Waffle House,1736 MCCOY RD,,ORLANDO,FL,32809,US,28.45103455,-81.35716248,2022-11-26 19:44:49
Waffle House,1106 S COCKRELL HILL,,DUNCANVILLE,TX,75137,US,32.63993073,-96.89128876,2022-11-26 19:44:51
Waffle House,105 N STRAND PKWY,,MYRTLE BEACH,SC,29588,US,33.65151596,-78.98597717,2022-11-26 19:44:49
Waffle House,306 E POTOMAC ST,,WILLIAMSPORT,MD,21795,US,39.60359573,-77.80918884,2022-11-26 19:44:51
Waffle House,10439 REIGER RD,,BATON ROUGE,LA,70809,US,30.38389587,-91.06450653,2022-11-26 19:44:49
Waffle House,5105 PLAZA DRIVE,,HOPEWELL,VA,23860,US,37.26279068,-77.32489014,2022-11-26 19:44:51
Waffle House,1201 TOWNSGATE CT.,,PLANT CITY,FL,33563,US,28.02544785,-82.14987183,2022-11-26 19:44:49
Waffle House,7540 TUCKER ROAD,,OCEAN SPRINGS,MS,39564,US,30.45084381,-88.84127045,2022-11-26 19:44:49
Waffle House,105A WAGON WHEEL DR,,ENNIS,TX,75119,US,32.33419418,-96.61776733,2022-11-26 19:44:51
Waffle House,2811 SOUTH KINGS HWY,,MYRTLE BEACH,SC,29577,US,33.66538239,-78.91819,2022-11-26 19:44:49
Waffle House,1988 O'NEAL LANE,,BATON ROUGE,LA,70816,US,30.43954659,-91.00753784,2022-11-26 19:44:49
Waffle House,8 MAURY RIVER RD,,LEXINGTON,VA,24450,US,37.80333328,-79.41152191,2022-11-26 19:44:51
Waffle House,7661 BOULEVARD 26,,N RICHLAND HILLS,TX,76180,US,32.83158875,-97.21756744,2022-11-26 19:44:51
Waffle House,204 HUFFMAN DRIVE,,EULESS,TX,76040,US,32.8371582,-97.08511353,2022-11-26 19:44:51
Waffle House,"711 FRONTAGE ROAD, E",,MYRTLE BEACH,SC,29577,US,33.70835114,-78.91146851,2022-11-26 19:44:49
Waffle House,808 PULASKI HWY,,HAVRE DE GRACE,MD,21078,US,39.55285263,-76.10134125,2022-11-26 19:44:51
Waffle House,513 JONESTOWN RD,,WINSTON SALEM,NC,27103,US,36.07134247,-80.33843994,2022-11-26 19:44:51
Waffle House,20110 TIMBERLAKE RD.,,LYNCHBURG,VA,24502,US,37.34619904,-79.23349762,2022-11-26 19:44:51
Waffle House,2310 HWY 62 SOUTH,,ORANGE,TX,77632,US,30.11393166,-93.82040405,2022-11-26 19:44:49
Waffle House,100 N. KINGS HWY,,MYRTLE BEACH,SC,29577,US,33.68614578,-78.8899765,2022-11-26 19:44:49
Waffle House,10422 SHARPSBURG,,HAGERSTOWN,MD,21740,US,39.6004982,-77.73005676,2022-11-26 19:44:51
Waffle House,2727 PETERS CREEK,,WINSTON SALEM,NC,27127,US,36.05324554,-80.25888062,2022-11-26 19:44:51
Waffle House,2137 WARDS ROAD,,LYNCHBURG,VA,24502,US,37.37202072,-79.18453217,2022-11-26 19:44:51
Waffle House,334 BEACH BLVD,,JACKSONVILLE BEACH,FL,32250,US,30.28789711,-81.39273834,2022-11-26 19:44:49
Waffle House,4212 27TH STREET,,ORANGE,TX,77632,US,30.12255669,-93.76164246,2022-11-26 19:44:49
Waffle House,3693 HWY 17 BYPASS,,MURRELLS INLET,SC,29576,US,33.56755066,-79.03380585,2022-11-26 19:44:49
Waffle House,13612 CRAYTON BLVD,,HAGERSTOWN,MD,21742,US,39.68956375,-77.73162079,2022-11-26 19:44:51
Waffle House,200 W. HANES MILL RD,,WINSTON SALEM,NC,27105,US,36.18848801,-80.27906799,2022-11-26 19:44:51
Waffle House,7400 SANDY LN,,MECHANICSVILLE,VA,23111,US,37.61079025,-77.35591888,2022-11-26 19:44:51
Waffle House,800 W HWY 114 BYPASS,,ROANOKE,TX,76262,US,33.01486206,-97.23401642,2022-11-26 19:44:51
Waffle House,317 S. JEFFERSON ST.,,FREDERICK,MD,21701,US,39.40876007,-77.42737579,2022-11-26 19:44:51
Waffle House,3411 WALKERTOWN,,WALKERTOWN,NC,27051,US,36.16697693,-80.13453674,2022-11-26 19:44:51
Waffle House,621 DENBIGH BLVD,,NEWPORT NEWS,VA,23608,US,37.14078522,-76.51859283,2022-11-26 19:44:49
Waffle House,2940 JIMMY JOHNSON,,PORT ARTHUR,TX,77642,US,29.93834496,-93.98120117,2022-11-26 19:44:49
Waffle House,8906 FINGERBOARD RD,,FREDERICK,MD,21704,US,39.32419968,-77.35204315,2022-11-26 19:44:51
Waffle House,2688 NC HWY 24 W,,WARSAW,NC,28398,US,34.99359894,-78.13751221,2022-11-26 19:44:49
Waffle House,3407 ORANGE AVE NE,,ROANOKE,VA,24012,US,37.30170059,-79.8927002,2022-11-26 19:44:51
Waffle House,613 JUPITER RD,,PLANO,TX,75074,US,33.00617981,-96.6827774,2022-11-26 19:44:51
Waffle House,5646 BUCKEYSTOWN,,FREDERICK,MD,21704,US,39.3900795,-77.40940857,2022-11-26 19:44:51
Waffle House,4930 RALEIGH RD PKWY,,WILSON,NC,27896,US,35.76303864,-77.99916077,2022-11-26 19:44:49
Waffle House,7109 W BROAD ST,,RICHMOND,VA,23294,US,37.61138535,-77.52016449,2022-11-26 19:44:51
Waffle House,1740 E SPRING CREEK,,PLANO,TX,75074,US,33.05673599,-96.68849945,2022-11-26 19:44:51
Waffle House,598 WEST MAIN ST,,MIDDLETOWN,DE,19709,US,39.44784164,-75.72963715,2022-11-26 19:44:51
Waffle House,2103 S. TARBORO ST.,,WILSON,NC,27893,US,35.71940994,-77.95172119,2022-11-26 19:44:49
Waffle House,911 AIRLINE BLVD,,PORTSMOUTH,VA,23707,US,36.83018875,-76.34246063,2022-11-26 19:44:49
Waffle House,7305 BROADWAY STREET,,PEARLAND,TX,77581,US,29.55959511,-95.33251953,2022-11-26 19:44:49
Waffle House,37 CORY LANE,,SMYRNA,DE,19977,US,39.28443527,-75.59300232,2022-11-26 19:44:51
Waffle House,5309 S. COLLEGE RD.,,WILMINGTON,NC,28412,US,34.14144135,-77.89263916,2022-11-26 19:44:49
Waffle House,980 J CLYDE MORRIS,,NEWPORT NEWS,VA,23601,US,37.09536743,-76.45879364,2022-11-26 19:44:49
Waffle House,1507 E BROADWAY ST.,,PEARLAND,TX,77581,US,29.54693222,-95.22948456,2022-11-26 19:44:49
Waffle House,4003 S. DUPONT HWY,,DOVER,DE,19901,US,39.10480118,-75.540802,2022-11-26 19:44:51
Waffle House,5004 FAIRMONT PKWY,,PASADENA,TX,77505,US,29.64924812,-95.16680145,2022-11-26 19:44:49
Waffle House,1537 BLANDING BLVD,,MIDDLEBURG,FL,32068,US,30.11499977,-81.81099701,2022-11-26 19:44:49
Waffle House,946 CAROLINA AVENUE,,WASHINGTON,NC,27889,US,35.55609131,-77.05992889,2022-11-26 19:44:49
Waffle House,1417 E WILLIAMS ST,,APEX,NC,27539,US,35.71137619,-78.83831787,2022-11-26 19:44:51
Waffle House,5751 E. VIRGINIA,,NORFOLK,VA,23502,US,36.85528183,-76.20757294,2022-11-26 19:44:49
Waffle House,7423 SPENCER HWY,,PASADENA,TX,77505,US,29.66406631,-95.1243515,2022-11-26 19:44:49
Waffle House,19675 NW 2ND AVENUE,,MIAMI GARDENS,FL,33169,US,25.95567131,-80.2056427,2022-11-26 19:44:49
Waffle House,10137 N MAIN ST,,ARCHDALE,NC,27263,US,35.90510941,-79.95744324,2022-11-26 19:44:51
Waffle House,1535 INGLESIDE ROAD,,NORFOLK,VA,23502,US,36.86314774,-76.24417114,2022-11-26 19:44:49
Waffle House,5424 WHIPPLE AVE,,NORTH CANTON,OH,44720,US,40.86000824,-81.42263031,2022-11-26 19:44:51
Waffle House,4005 W EAU GALLIE BL,,MELBOURNE,FL,32935,US,28.12260056,-80.69090271,2022-11-26 19:44:49
Waffle House,255 N. FRONT STREET,,WILMINGTON,NC,28401,US,34.23753357,-77.94923401,2022-11-26 19:44:49
Waffle House,5631 BOYDTON PLANK,,PETERSBURG,VA,23803,US,37.19532013,-77.46846008,2022-11-26 19:44:52
Waffle House,7505 CRILE RD,,PAINESVILLE,OH,44077,US,41.6662674,-81.24372864,2022-11-26 19:44:51
Waffle House,1410 S. COLLEGE AVE,,WILMINGTON,NC,28403,US,34.2118988,-77.88690186,2022-11-26 19:44:49
Waffle House,4701 LITTLE ROAD,,ARLINGTON,TX,76017,US,32.67009354,-97.20233917,2022-11-26 19:44:51
Waffle House,101 ROWE DRIVE,,ROCKY MOUNT,NC,27804,US,35.96611786,-77.8162384,2022-11-26 19:44:49
Waffle House,11121 FREMONT PIKE,,PERRYSBURG,OH,43551,US,41.55070114,-83.60566711,2022-11-26 19:44:51
Waffle House,329 SEABREEZE BLVD,,DAYTONA BEACH,FL,32118,US,29.2345295,-81.01622009,2022-11-26 19:44:49
Waffle House,6936 MARKET ST,,WILMINGTON,NC,28411,US,34.26329422,-77.82753754,2022-11-26 19:44:49
Waffle House,111 VILLAGE DR,,LELAND,NC,28451,US,34.23339462,-77.99687195,2022-11-26 19:44:49
Waffle House,26046 N DIXIE HWY,,PERRYSBURG,OH,43551,US,41.52936935,-83.63658905,2022-11-26 19:44:51
Waffle House,2587 W INTERNATIONAL,,DAYTONA BEACH,FL,32114,US,29.17664528,-81.08145905,2022-11-26 19:44:49
Waffle House,1232 E ASH ST,,PIQUA,OH,45356,US,40.15167236,-84.21451569,2022-11-26 19:44:51
Waffle House,1617 JULIAN R,,WELDON,NC,27890,US,36.42999268,-77.62760925,2022-11-26 19:44:52
Waffle House,1006 AIRPORT BLVD,,MORRISVILLE,NC,27560,US,35.85881424,-78.81951904,2022-11-26 19:44:52
Waffle House,9092 MAC DRIVE,,PUNTA GORDA,FL,33950,US,26.8960228,-82.00724792,2022-11-26 19:44:49
Waffle House,2448 CAROLINA BEACH,,WILMINGTON,NC,28401,US,34.19329834,-77.93589783,2022-11-26 19:44:49
Waffle House,1633A TAYLOR ROAD,,PORT ORANGE,FL,32128,US,29.1061573,-81.02875519,2022-11-26 19:44:49
Waffle House,1120 N.WOODLAND BLVD,,DELAND,FL,32720,US,29.04714775,-81.30427551,2022-11-26 19:44:49
Waffle House,2805 BASS PRO DRIVE,,GRAPEVINE,TX,76051,US,32.95555878,-97.03679657,2022-11-26 19:44:51
Waffle House,5041 MARKET ST.,,WILMINGTON,NC,28405,US,34.24453354,-77.88105774,2022-11-26 19:44:49
Waffle House,3740 NOVA ROAD,,PORT ORANGE,FL,32129,US,29.12763977,-81.00518799,2022-11-26 19:44:49
Waffle House,414 DELTONA BLVD,,DELTONA,FL,32725,US,28.87302208,-81.28063965,2022-11-26 19:44:49
Waffle House,225 HWY 70 WEST,,HAVELOCK,NC,28532,US,34.89862061,-76.92956543,2022-11-26 19:44:49
Waffle House,34058 LA HWY 16,,DENHAM SPRINGS,LA,70706,US,30.56218147,-90.95542908,2022-11-26 19:44:49
Waffle House,5515 RAEFORD RD,,FAYETTEVILLE,NC,28304,US,35.04393768,-78.97564697,2022-11-26 19:44:49
Waffle House,9201 WEST HWY 98,,PENSACOLA,FL,32506,US,30.40291786,-87.3398819,2022-11-26 19:44:49
Waffle House,1135 RUIN CREEK RD,,HENDERSON,NC,27537,US,36.32162476,-78.4515686,2022-11-26 19:44:52
Waffle House,699 HWY 6 EAST,,BATESVILLE,MS,38606,US,34.31060791,-89.93058777,2022-11-26 19:44:51
Waffle House,6781 US HWY 90,,DAPHNE,AL,36526,US,30.65531921,-87.90601349,2022-11-26 19:44:49
Waffle House,2210 ROCKFORD ST,,MT AIRY,NC,27030,US,36.47480774,-80.62024689,2022-11-26 19:44:51
Waffle House,1759 BEACH BLVD,,BILOXI,MS,39531,US,30.39361954,-88.94251251,2022-11-26 19:44:49
Waffle House,30935 MILL LANE,,DAPHNE,AL,36526,US,30.67420006,-87.8526535,2022-11-26 19:44:49
Waffle House,1901 JULIAN R,,ROANOKE RAPIDS,NC,27870,US,36.43154526,-77.63301849,2022-11-26 19:44:52
Waffle House,8007 TUCKER RD,,BILOXI,MS,39532,US,30.45812607,-88.84374237,2022-11-26 19:44:49
Waffle House,1439 US HIGHWAY 98,,DAPHNE,AL,36526,US,30.5986042,-87.89889526,2022-11-26 19:44:49
Waffle House,709 RADFORD BLVD,,DILLON,SC,29536,US,34.43899918,-79.37149811,2022-11-26 19:44:49
Waffle House,1208 S MADISON ST,,WEBB CITY,MO,64870,US,37.13356781,-94.47553253,2022-11-26 19:44:51
Waffle House,998 CEDAR LAKE RD,,BILOXI,MS,39532,US,30.44749832,-88.93367004,2022-11-26 19:44:49
Waffle House,29100 US HWY 98,,DAPHNE,AL,36526,US,30.64903069,-87.91243744,2022-11-26 19:44:49
Waffle House,1012 NORTH HWY 47,,WARRENTON,MO,63383,US,38.82356262,-91.13827515,2022-11-26 19:44:51
Waffle House,618 BEACH BLVD,,BILOXI,MS,39530,US,30.39334869,-88.88298035,2022-11-26 19:44:49
Waffle House,3703 NEW BERN AVE,,RALEIGH,NC,27610,US,35.79808426,-78.57687378,2022-11-26 19:44:52
Waffle House,1607 T.W. ALEXANDER,,DURHAM,NC,27703,US,35.92412186,-78.84524536,2022-11-26 19:44:52
Waffle House,3960 VOGEL RD,,ARNOLD,MO,63010,US,38.41672134,-90.39172363,2022-11-26 19:44:51
Waffle House,2320 S.SHERWOOD,,BATON ROUGE,LA,70816,US,30.43213272,-91.05738068,2022-11-26 19:44:49
Waffle House,3500 HILLSBOROUGH RD,,DURHAM,NC,27705,US,36.02138901,-78.95016479,2022-11-26 19:44:52
Waffle House,4203 NC HIGHWAY 55,,DURHAM,NC,27713,US,35.9129982,-78.89199829,2022-11-26 19:44:52
Waffle House,115 WESTCHESTER DR,,HIGH POINT,NC,27262,US,35.98238373,-80.02478027,2022-11-26 19:44:52
Waffle House,17201 OUTER RD.,,BELTON,MO,64012,US,38.81211472,-94.50101471,2022-11-26 19:44:51
Waffle House,7995 EAST TEXAS ST,,BOSSIER CITY,LA,71111,US,32.54972839,-93.63076782,2022-11-26 19:44:51
Waffle House,1724 WALNUT ST,,CARY,NC,27511,US,35.76256561,-78.74682617,2022-11-26 19:44:52
Waffle House,2100 N. ROXBORO ST.,,DURHAM,NC,27704,US,36.0177803,-78.89019012,2022-11-26 19:44:52
Waffle House,110 DANIEL BOONE ST,,HILLSBOROUGH,NC,27278,US,36.05778503,-79.10292816,2022-11-26 19:44:52
Waffle House,5991 W IRLO BRONSON,,KISSIMMEE,FL,34747,US,28.33311844,-81.52422333,2022-11-26 19:44:49
Waffle House,4525 JS MCDONNELL BL,,BERKELEY,MO,63134,US,38.73025894,-90.34459686,2022-11-26 19:44:51
Waffle House,2123 OLD MINDEN RD,,BOSSIER CITY,LA,71112,US,32.51845551,-93.7069931,2022-11-26 19:44:51
Waffle House,4406 N ROXBORO ST.,,DURHAM,NC,27704,US,36.0544281,-78.90344238,2022-11-26 19:44:52
Waffle House,3019 N MAIN ST,,HOPE MILLS,NC,28348,US,34.98387909,-78.96440125,2022-11-26 19:44:49
Waffle House,12701 ST CHARLES,,BRIDGETON,MO,63044,US,38.7598114,-90.4344635,2022-11-26 19:44:51
Waffle House,1986 AIRLINE DR,,BOSSIER CITY,LA,71112,US,32.52766418,-93.70087433,2022-11-26 19:44:51
Waffle House,1200 S 5TH ST,,SAINT CHARLES,MO,63301,US,38.77189255,-90.49205017,2022-11-26 19:44:51
Waffle House,4330 LEGION ROAD,,HOPE MILLS,NC,28348,US,34.98306274,-78.93223572,2022-11-26 19:44:49
Waffle House,904 VANDIVER DR,,COLUMBIA,MO,65202,US,38.97071075,-92.32594299,2022-11-26 19:44:51
Waffle House,1131 W PEARCE BLVD,,WENTZVILLE,MO,63385,US,38.81122971,-90.87210846,2022-11-26 19:44:51
Waffle House,14173 US HWY 90,,BOUTTE,LA,70039,US,29.89118004,-90.40969849,2022-11-26 19:44:49
Waffle House,14860 HWY 301 SOUTH,,ROWLAND,NC,28383,US,34.50489044,-79.30739594,2022-11-26 19:44:49
Waffle House,112 EAST NC HWY 54,,DURHAM,NC,27713,US,35.91014481,-78.93353271,2022-11-26 19:44:52
Waffle House,12201 US HWY 19,,HUDSON,FL,34667,US,28.33399963,-82.6989975,2022-11-26 19:44:49
Waffle House,2701 S PROVIDENCE RD,,COLUMBIA,MO,65203,US,38.92056274,-92.33630371,2022-11-26 19:44:51
Waffle House,502 DEGEYTER,,BREAUX BRIDGE,LA,70517,US,30.2939415,-91.91591644,2022-11-26 19:44:49
Waffle House,7401 N E PARVIN RD,,KANSAS CITY,MO,64117,US,39.16830826,-94.49524689,2022-11-26 19:44:51
Waffle House,43 VENTURE DRIVE,,ROCKY MOUNT,NC,27804,US,35.97757339,-77.8442688,2022-11-26 19:44:49
Waffle House,2305 VINTAGE COURT,,EXCELSIOR SPRINGS,MO,64024,US,39.33149338,-94.26988983,2022-11-26 19:44:51
Waffle House,3031 S ARLINGTON RD,,AKRON,OH,44312,US,40.98888779,-81.49221039,2022-11-26 19:44:51
Waffle House,2998 GRAND POINT HWY,,BREAUX BRIDGE,LA,70517,US,30.31343651,-91.8327179,2022-11-26 19:44:49
Waffle House,9700 NE BARRY RD,,KANSAS CITY,MO,64157,US,39.24504852,-94.4595871,2022-11-26 19:44:51
Waffle House,1304 VETERANS BLVD,,FESTUS,MO,63028,US,38.21317673,-90.40769958,2022-11-26 19:44:51
Waffle House,2850 G. H. DRIVE,,AUSTINBURG,OH,44010,US,41.7837944,-80.85527039,2022-11-26 19:44:51
Waffle House,111 HECTOR CONNOLY,,CARENCRO,LA,70520,US,30.32302475,-92.03185272,2022-11-26 19:44:49
Waffle House,4128 S NATIONAL RD,,SPRINGFIELD,MO,65807,US,37.1386795,-93.27793884,2022-11-26 19:44:51
Waffle House,5060 HIGHWAY 70,,MOREHEAD CITY,NC,28557,US,34.73648834,-76.79884338,2022-11-26 19:44:49
Waffle House,375 N. US HWY 67,,FLORISSANT,MO,63031,US,38.79666138,-90.33898926,2022-11-26 19:44:51
Waffle House,4382 INDIAN RIPPLE,,BEAVERCREEK,OH,45440,US,39.69680023,-84.10237122,2022-11-26 19:44:51
Waffle House,3429 PARIS RD,,CHALMETTE,LA,70043,US,29.95054054,-89.95983887,2022-11-26 19:44:49
Waffle House,101 BROOK LN,,SPRING LAKE,NC,28390,US,35.17932892,-78.98116302,2022-11-26 19:44:49
Waffle House,1305 PLATTE FALLS RD,,PLATTE CITY,MO,64079,US,39.35268402,-94.76589203,2022-11-26 19:44:51
Waffle House,1133 NORTH MAIN ST,,BELLEFONTAINE,OH,43311,US,40.37726974,-83.75598907,2022-11-26 19:44:51
Waffle House,73111 LOUISIANA,,COVINGTON,LA,70433,US,30.50395012,-90.11047363,2022-11-26 19:44:49
Waffle House,611 LILLINGTON HWY,,SPRING LAKE,NC,28390,US,35.1740799,-78.97013855,2022-11-26 19:44:49
Waffle House,451 SOUTH BROADWAY,,OAK GROVE,MO,64075,US,39.01215363,-94.12826538,2022-11-26 19:44:51
Waffle House,809 HIGH POINT ST,,RANDLEMAN,NC,27317,US,35.82361603,-79.81828308,2022-11-26 19:44:52
Waffle House,3458 US ROUTE 60 E,,BARBOURSVILLE,WV,25504,US,38.4144516,-82.26042938,2022-11-26 19:44:51
Waffle House,780 ARLINGTON RD,,BROOKVILLE,OH,45309,US,39.84527969,-84.42488098,2022-11-26 19:44:51
Waffle House,110 HOLIDAY BLVD,,COVINGTON,LA,70433,US,30.43808746,-90.08443451,2022-11-26 19:44:49
Waffle House,"1510 US HWY 1, SOUTH",,SOUTHERN PINES,NC,28387,US,35.16239929,-79.4103241,2022-11-26 19:44:52
Waffle House,301 LITTLE HILLS,,SAINT CHARLES,MO,63301,US,38.80580521,-90.47553253,2022-11-26 19:44:51
Waffle House,103 KEYES FERRY ROAD,,CHARLES TOWN,WV,25414,US,39.29602432,-77.83421326,2022-11-26 19:44:51
Waffle House,5755 GENDER RD,,CANAL WINCHESTER,OH,43110,US,39.86336899,-82.82769012,2022-11-26 19:44:51
Waffle House,105 RUSHING RD,,DENHAM SPRINGS,LA,70726,US,30.45715523,-90.95563507,2022-11-26 19:44:49
Waffle House,E. 1655 MARKET ST,,SMITHFIELD,NC,27577,US,35.50559998,-78.32749176,2022-11-26 19:44:49
Waffle House,12215 DORSETT RD,,MARYLAND HGTS,MO,63043,US,38.71530914,-90.44399261,2022-11-26 19:44:51
Waffle House,2320 DIXIE FOREST RD,,RALEIGH,NC,27615,US,35.86304855,-78.59965515,2022-11-26 19:44:52
Waffle House,4384 US ROUTE 60,,HUNTINGTON,WV,25705,US,38.4124794,-82.36174011,2022-11-26 19:44:51
Waffle House,2512 CLEVELAND AVE,,CANTON,OH,44707,US,40.77078247,-81.38634491,2022-11-26 19:44:51
Waffle House,113 LINDA ANN AVE,,GRAY,LA,70359,US,29.68153381,-90.78325653,2022-11-26 19:44:49
Waffle House,110 LOVES CREEK,,SILER CITY,NC,27344,US,35.73458099,-79.43360901,2022-11-26 19:44:52
Waffle House,436 N WEST BYPASS,,SPRINGFIELD,MO,65802,US,37.21334839,-93.34840393,2022-11-26 19:44:51
Waffle House,3400 OLYMPIA DRIVE,,RALEIGH,NC,27603,US,35.73405457,-78.651474,2022-11-26 19:44:52
Waffle House,4851 GERRARDSTOWN RD,,INWOOD,WV,25428,US,39.36269379,-78.04330444,2022-11-26 19:44:51
Waffle House,476 OHIO PIKE,,CINCINNATI,OH,45255,US,39.07226181,-84.30884552,2022-11-26 19:44:51
Waffle House,14416 GREENWELL SPGS,,GREENWELL SPRINGS,LA,70739,US,30.51379585,-91.02793121,2022-11-26 19:44:49
Waffle House,1699 NE DOUGLAS ST,,LEE'S SUMMIT,MO,64086,US,38.94145203,-94.37767792,2022-11-26 19:44:51
Waffle House,3909 HILLSBOROUGH ST,,RALEIGH,NC,27607,US,35.79406738,-78.69023895,2022-11-26 19:44:52
Waffle House,85 PARKSTONE PLACE,,JACKSON,TN,38305,US,35.67491531,-88.78069305,2022-11-26 19:44:51
Waffle House,1054 MEBANE OAKS RD,,MEBANE,NC,27302,US,36.07372284,-79.2735672,2022-11-26 19:44:52
Waffle House,1783 AIRPORT RD,,ALLENTOWN,PA,18109,US,40.63655853,-75.43531036,2022-11-26 19:44:52
Waffle House,1050 EAST DUBLIN,,COLUMBUS,OH,43229,US,40.08808899,-82.98946381,2022-11-26 19:44:51
Waffle House,52 WESTBANK EXPY,,GRETNA,LA,70053,US,29.91531181,-90.04621124,2022-11-26 19:44:49
Waffle House,352 WHITEVILLE RD,,SHALLOTTE,NC,28470,US,33.97386169,-78.40197754,2022-11-26 19:44:49
Waffle House,5330 S LINDBERGH,,SAINT LOUIS,MO,63126,US,38.52558136,-90.36183167,2022-11-26 19:44:51
Waffle House,2624 WESTINGHOUSE,,RALEIGH,NC,27604,US,35.81673431,-78.59837341,2022-11-26 19:44:52
Waffle House,2314 N HIGHLAND AVE,,JACKSON,TN,38305,US,35.66672897,-88.82897186,2022-11-26 19:44:51
Waffle House,255 MURTLAND AVE,,WASHINGTON,PA,15301,US,40.18255615,-80.23189545,2022-11-26 19:44:51
Waffle House,2360 WESTBELT DRIVE,,COLUMBUS,OH,43228,US,40.00190735,-83.12276459,2022-11-26 19:44:51
Waffle House,43145 S AIRPORT RD.,,HAMMOND,LA,70403,US,30.48290062,-90.4151001,2022-11-26 19:44:49
Waffle House,9750 N CONGRESS AVE,,KANSAS CITY,MO,64153,US,39.271492,-94.66993713,2022-11-26 19:44:51
Waffle House,106 LAURINBURG RD,,RAEFORD,NC,28376,US,34.97833633,-79.23700714,2022-11-26 19:44:49
Waffle House,24 CASEY JONES LANE,,JACKSON,TN,38305,US,35.66045761,-88.85456848,2022-11-26 19:44:51
Waffle House,5445 MONROE STREET,,TOLEDO,OH,43623,US,41.70531464,-83.66360474,2022-11-26 19:44:51
Waffle House,430 RACETRACK RD,,WASHINGTON,PA,15301,US,40.22233963,-80.20796204,2022-11-26 19:44:51
Waffle House,1938 BEACH BLVD,,BILOXI,MS,39531,US,30.39338493,-88.95320129,2022-11-26 19:44:49
Waffle House,3154 TELEGRAPH RD,,SAINT LOUIS,MO,63125,US,38.49816513,-90.29975891,2022-11-26 19:44:51
Waffle House,1724 S. HIGHLAND AVE,,JACKSON,TN,38301,US,35.56417465,-88.81434631,2022-11-26 19:44:51
Waffle House,708 DAVIS ST,,SCRANTON,PA,18505,US,41.37647629,-75.69116974,2022-11-26 19:44:51
Waffle House,7431 SIWELL RD,,BYRAM,MS,39272,US,32.18550873,-90.2596283,2022-11-26 19:44:51
Waffle House,3163 HWY 1 SOUTH,,PORT ALLEN,LA,70767,US,30.4239006,-91.21685791,2022-11-26 19:44:49
Waffle House,1405 MARTIN SPRINGS,,ROLLA,MO,65401,US,37.94253159,-91.79161835,2022-11-26 19:44:51
Waffle House,11636 US HWY 70,,ARLINGTON,TN,38002,US,35.29434967,-89.67469025,2022-11-26 19:44:51
Waffle House,8243 RUFE SNOW DR,,WATAUGA,TX,76148,US,32.89102936,-97.23905945,2022-11-26 19:44:51
Waffle House,1021 DILLERVILLE RD,,LANCASTER,PA,17603,US,40.05348587,-76.32310486,2022-11-26 19:44:52
Waffle House,111 REYNOIR ST,,BILOXI,MS,39530,US,30.39433479,-88.89057159,2022-11-26 19:44:49
Waffle House,4304 MAIN ST,,LAPLACE,LA,70068,US,30.08695793,-90.4450531,2022-11-26 19:44:49
Waffle House,4223 COMMONWEALTH,,SAINT JOSEPH,MO,64503,US,39.72404099,-94.79321289,2022-11-26 19:44:51
Waffle House,2499 LINCOLN HWY E,,LANCASTER,PA,17602,US,40.02243805,-76.19297791,2022-11-26 19:44:52
Waffle House,2428 BEACH BLVD,,BILOXI BEACH,MS,39531,US,30.39131927,-88.97840881,2022-11-26 19:44:49
Waffle House,203 AMBASSADOR,,SCOTT,LA,70583,US,30.24251556,-92.06613159,2022-11-26 19:44:49
Waffle House,10635 ST CHARLES,,SAINT ANN,MO,63074,US,38.73180008,-90.38809967,2022-11-26 19:44:51
Waffle House,509 N WESTSHORE BLVD,,TAMPA,FL,33609,US,27.94932747,-82.52401733,2022-11-26 19:44:49
Waffle House,3890 UNION DEPOSIT,,HARRISBURG,PA,17109,US,40.27843857,-76.82445526,2022-11-26 19:44:51
Waffle House,908 W GOVERNMENT ST,,BRANDON,MS,39042,US,32.27740097,-89.9984436,2022-11-26 19:44:51
Waffle House,2006 OLD SPANISH TRL,,SLIDELL,LA,70458,US,30.25052261,-89.76593018,2022-11-26 19:44:49
Waffle House,4404 N ANTIOCH RD,,KANSAS CITY,MO,64117,US,39.17440414,-94.54914856,2022-11-26 19:44:51
Waffle House,933 SOUTH STATE ST,,CLARKS SUMMIT,PA,18411,US,41.48778915,-75.69556427,2022-11-26 19:44:51
Waffle House,5452 HWY 25 /,,BRANDON,MS,39047,US,32.35646439,-90.01919556,2022-11-26 19:44:51
Waffle House,804 N LAKESHORE DR,,LAKE CHARLES,LA,70601,US,30.2374897,-93.22562408,2022-11-26 19:44:49
Waffle House,106 OLD W TERRA LANE,,OFALLON,MO,63366,US,38.80324936,-90.70127106,2022-11-26 19:44:51
Waffle House,105 OCTAVIA DR,,BRANDON,MS,39042,US,32.2803421,-90.03567505,2022-11-26 19:44:51
Waffle House,6371 US HWY 90,,MORGAN CITY,LA,70380,US,29.69925117,-91.19817352,2022-11-26 19:44:49
Waffle House,3135 N GLENSTONE AVE,,SPRINGFIELD,MO,65803,US,37.25383759,-93.26553345,2022-11-26 19:44:51
Waffle House,1249 HARRISBURG PIKE,,CARLISLE,PA,17013,US,40.23471069,-77.13295746,2022-11-26 19:44:51
Waffle House,954 BROOKWAY BLVD,,BROOKHAVEN,MS,39601,US,31.57930374,-90.47011566,2022-11-26 19:44:52
Waffle House,6127 FINANCIAL PLAZA,,SHREVEPORT,LA,71129,US,32.44977188,-93.86296844,2022-11-26 19:44:51
Waffle House,2101 CHERRY LANE,,BETHLEHEM,PA,18015,US,40.59352112,-75.33918762,2022-11-26 19:44:52
Waffle House,1417 WEST PEACE ST,,CANTON,MS,39046,US,32.60758209,-90.06479645,2022-11-26 19:44:51
Waffle House,723 WEST PINE ST,,PONCHATOULA,LA,70454,US,30.43767929,-90.45256042,2022-11-26 19:44:49
Waffle House,3506 S RANGE LINE RD,,JOPLIN,MO,64804,US,37.05005646,-94.4789505,2022-11-26 19:44:51
Waffle House,2210 NORTH ASPEN AVE,,BROKEN ARROW,OK,74012,US,36.07436371,-95.81568909,2022-11-26 19:44:51
Waffle House,486 SPRINGRIDGE ROAD,,CLINTON,MS,39056,US,32.32894135,-90.32704926,2022-11-26 19:44:51
Waffle House,1121 COOKTOWN RD,,RUSTON,LA,71270,US,32.53774261,-92.65302277,2022-11-26 19:44:51
Waffle House,1924 WEST ELM,,LEBANON,MO,65536,US,37.6509552,-92.66748047,2022-11-26 19:44:51
Waffle House,13975 BEACH BLVD.,,JACKSONVILLE,FL,32224,US,30.28800011,-81.44999695,2022-11-26 19:44:49
Waffle House,1350 CANADIAN COURT,,YUKON,OK,73099,US,35.48894119,-97.75911713,2022-11-26 19:44:51
Waffle House,7172 LA HWY 22,,SORRENTO,LA,70778,US,30.16996193,-90.87751007,2022-11-26 19:44:49
Waffle House,3410 E.SUNSHINE ST.,,SPRINGFIELD,MO,65804,US,37.1798172,-93.22568512,2022-11-26 19:44:51
Waffle House,8514 BAYMEADOWS RD.,,JACKSONVILLE,FL,32256,US,30.21999931,-81.58100128,2022-11-26 19:44:49
Waffle House,7022 SOUTH MINGO RD,,TULSA,OK,74133,US,36.06204605,-95.86856842,2022-11-26 19:44:51
Waffle House,2903 STERLINGTON RD,,MONROE,LA,71203,US,32.55093765,-92.07706451,2022-11-26 19:44:51
Waffle House,11825 SAN JOSE BLVD,,JACKSONVILLE,FL,32223,US,30.15699959,-81.63200378,2022-11-26 19:44:49
Waffle House,19260 TIMBERCREST,,CATOOSA,OK,74015,US,36.16430664,-95.76325989,2022-11-26 19:44:51
Waffle House,"2610 WEST I 20 ,",,GRAND PRAIRIE,TX,75052,US,32.6782608,-97.0456543,2022-11-26 19:44:51
Waffle House,321 Z HIGHWAY,,ST ROBERT,MO,65584,US,37.82222748,-92.1412735,2022-11-26 19:44:51
Waffle House,9780 US HIGHWAY 64,,LAKELAND,TN,38002,US,35.20558929,-89.73677826,2022-11-26 19:44:51
Waffle House,3054 RICHLANDS HWY,,JACKSONVILLE,NC,28540,US,34.75614929,-77.47338104,2022-11-26 19:44:49
Waffle House,5505 TINKER DIAGONAL,,DEL CITY,OK,73115,US,35.44646835,-97.42391968,2022-11-26 19:44:51
Waffle House,1432 N. CENTRAL XWAY,,MCKINNEY,TX,75070,US,33.21059799,-96.63717651,2022-11-26 19:44:51
Waffle House,605 MARINE BLVD,,JACKSONVILLE,NC,28540,US,34.76089859,-77.41587067,2022-11-26 19:44:49
Waffle House,316 SW 19TH ST,,MOORE,OK,73160,US,35.31957626,-97.48723602,2022-11-26 19:44:51
Waffle House,1015 N. HWY 6,,HOUSTON,TX,77079,US,29.78572083,-95.64554596,2022-11-26 19:44:49
Waffle House,1035 WESTERN BLVD,,JACKSONVILLE,NC,28546,US,34.77808762,-77.39405823,2022-11-26 19:44:49
Waffle House,1161 RAMBLING OAKS,,NORMAN,OK,73072,US,35.23244476,-97.48904419,2022-11-26 19:44:51
Waffle House,120 W. SPRING VALLEY,,RICHARDSON,TX,75081,US,32.94017029,-96.73953247,2022-11-26 19:44:51
Waffle House,5801 49TH WEST AVE S,,TULSA,OK,74107,US,36.07901764,-96.0475235,2022-11-26 19:44:51
Waffle House,2610 RIDGE RD,,ROCKWALL,TX,75087,US,32.89838409,-96.46997833,2022-11-26 19:44:51
Waffle House,4600 GOLDEN TRIANGLE,,FT WORTH,TX,76244,US,32.93104172,-97.28659058,2022-11-26 19:44:51
Waffle House,10516 E 11TH ST,,TULSA,OK,74128,US,36.14787674,-95.85970306,2022-11-26 19:44:51
Waffle House,1507 N BECKLEY AVE,,DESOTO,TX,75115,US,32.61920929,-96.82350922,2022-11-26 19:44:51
Waffle House,503 EAST 2ND STREET,,OWASSO,OK,74055,US,36.26468277,-95.85019684,2022-11-26 19:44:51
Waffle House,1501 W FAIRMONT PKWY,,LAPORTE,TX,77571,US,29.65184975,-95.03464508,2022-11-26 19:44:49
Waffle House,125 INTERSTATE DR.,,NORMAN,OK,73069,US,35.21907806,-97.48236084,2022-11-26 19:44:51
Waffle House,102 N.E. INTERCHANGE,,DIAMONDHEAD,MS,39525,US,30.37476921,-89.37783813,2022-11-26 19:44:49
Waffle House,7125 WINCHESTER ROAD,,MEMPHIS,TN,38125,US,35.04948044,-89.82879639,2022-11-26 19:44:51
Waffle House,2701 N ROBERTS AVE,,LUMBERTON,NC,28358,US,34.64353561,-79.01093292,2022-11-26 19:44:49
Waffle House,959 W. MEMORIAL RD,,OKLAHOMA CITY,OK,73114,US,35.60918808,-97.53028107,2022-11-26 19:44:51
Waffle House,2992 BIENVILLE BLVD,,OCEAN SPRINGS,MS,39564,US,30.41317368,-88.78786469,2022-11-26 19:44:49
Waffle House,1550 SYCAMORE VIEW,,MEMPHIS,TN,38134,US,35.16775513,-89.86304474,2022-11-26 19:44:51
Waffle House,3090 WEST 5TH AVE.,,LUMBERTON,NC,28358,US,34.62148285,-79.05181122,2022-11-26 19:44:49
Waffle House,105 SOUTH MARTIN,,OKLAHOMA CITY,OK,73117,US,35.46468353,-97.47692871,2022-11-26 19:44:51
Waffle House,7035 ENTERPRISE DR,,OLIVE BRANCH,MS,38654,US,34.96315384,-89.85655212,2022-11-26 19:44:51
Waffle House,100 JACKSON COURT,,LUMBERTON,NC,28358,US,34.6679039,-79.0042038,2022-11-26 19:44:49
Waffle House,10380 SPRINGFIELD,,CINCINNATI,OH,45215,US,39.25742722,-84.46928406,2022-11-26 19:44:51
Waffle House,351 AIRPORT RD,,PEARL,MS,39208,US,32.27359009,-90.07325745,2022-11-26 19:44:51
Waffle House,4314 AMERICAN WAY,,MEMPHIS,TN,38118,US,35.07544708,-89.92060089,2022-11-26 19:44:51
Waffle House,4611 SE MARICAMP RD,,OCALA,FL,34480,US,29.14856339,-82.07063293,2022-11-26 19:44:49
Waffle House,6000 S INDEPENDENCE,,OKLAHOMA CITY,OK,73159,US,35.40644836,-97.56596375,2022-11-26 19:44:51
Waffle House,144 WEST MCMILLAN ST,,CINCINNATI,OH,45219,US,39.12792206,-84.51751709,2022-11-26 19:44:51
Waffle House,3099 US 90,,GAUTIER,MS,39553,US,30.3927002,-88.6599884,2022-11-26 19:44:49
Waffle House,343 S BICKETT BLVD,,LOUISBURG,NC,27549,US,36.08741379,-78.30235291,2022-11-26 19:44:52
Waffle House,10041 US 301,,RIVERVIEW,FL,33578,US,27.85400009,-82.32700348,2022-11-26 19:44:49
Waffle House,3651 AIRPORT BLVD,,MOBILE,AL,36608,US,30.67523956,-88.13115692,2022-11-26 19:44:49
Waffle House,1150 S. MERIDIAN AVE,,OKLAHOMA CITY,OK,73108,US,35.45471954,-97.60073853,2022-11-26 19:44:51
Waffle House,4928 DELHI PIKE,,CINCINNATI,OH,45238,US,39.09560013,-84.6065979,2022-11-26 19:44:51
Waffle House,10081 THIRD AVE,,DIBERVILLE,MS,39540,US,30.42981911,-88.89299011,2022-11-26 19:44:49
Waffle House,10337 OCEAN HWY,,PAWLEYS ISL,SC,29585,US,33.43769455,-79.12960815,2022-11-26 19:44:49
Waffle House,599 HWY 17,,LITTLE RIVER,SC,29566,US,33.86587143,-78.64595795,2022-11-26 19:44:49
Waffle House,1400 E MAIN ST,,WYTHEVILLE,VA,24382,US,36.95053101,-81.06607056,2022-11-26 19:44:51
Waffle House,12009 N I-35,,OKLAHOMA CITY,OK,73131,US,35.59215546,-97.43576813,2022-11-26 19:44:51
Waffle House,1423 DENNY AVE,,PASCAGOULA,MS,39567,US,30.37097931,-88.54945374,2022-11-26 19:44:49
Waffle House,505 BLUFF RD,,COLLINSVILLE,IL,62234,US,38.67765045,-90.01262665,2022-11-26 19:44:51
Waffle House,3090 HWY 49 SOUTH,,FLORENCE,MS,39073,US,32.15494919,-90.12438965,2022-11-26 19:44:51
Waffle House,340 E CORNELIUS,,LILLINGTON,NC,27546,US,35.41522217,-78.79849243,2022-11-26 19:44:52
Waffle House,3244 W. CHAIN OF,,GRANITE CITY,IL,62040,US,38.76213837,-90.12317657,2022-11-26 19:44:51
Waffle House,5709 GLENWAY AVE,,CINCINNATI,OH,45238,US,39.1347847,-84.61233521,2022-11-26 19:44:51
Waffle House,11967 BOBBY,,DIBERVILLE,MS,39540,US,30.45670128,-88.89907074,2022-11-26 19:44:49
Waffle House,604 HWY 17 SOUTH,,NORTH MYRTLE BEACH,SC,29582,US,33.82424545,-78.68545532,2022-11-26 19:44:49
Waffle House,1754 DAUPHIN ISL PKY,,MOBILE,AL,36605,US,30.63512039,-88.08899689,2022-11-26 19:44:49
Waffle House,990 HWY 65 N,,CONWAY,AR,72032,US,35.11064911,-92.43943024,2022-11-26 19:44:51
Waffle House,7200 TANNER LN,,MOSS POINT,MS,39563,US,30.44623184,-88.53128052,2022-11-26 19:44:49
Waffle House,1238 D  ROGERS ST,,CLARKSVILLE,AR,72830,US,35.45393372,-93.46572876,2022-11-26 19:44:51
Waffle House,900 WILSON ROAD,,COLUMBUS,OH,43204,US,39.97128296,-83.09781647,2022-11-26 19:44:51
Waffle House,4411 DENNY AVE,,PASCAGOULA,MS,39581,US,30.38555908,-88.51560974,2022-11-26 19:44:49
Waffle House,960 E CENTERTON BLVD,,CENTERTON,AR,72719,US,36.35765076,-94.263237,2022-11-26 19:44:51
Waffle House,1712 NORTH HIGH ST,,COLUMBUS,OH,43201,US,39.99734116,-83.00743866,2022-11-26 19:44:51
Waffle House,9282 CANAL RD,,GULFPORT,MS,39503,US,30.42049789,-89.13636017,2022-11-26 19:44:49
Waffle House,1245 US HWY 42 NE,,LONDON,OH,43140,US,39.95784378,-83.37214661,2022-11-26 19:44:51
Waffle House,1106 WEST MAIN ST,,CABOT,AR,72023,US,34.9770546,-92.02740479,2022-11-26 19:44:51
Waffle House,8303 NORTH HIGH ST,,COLUMBUS,OH,43235,US,40.13451004,-83.01746368,2022-11-26 19:44:51
Waffle House,1249 S GERMANTOWN RD,,GERMANTOWN,TN,38138,US,35.11519623,-89.80259705,2022-11-26 19:44:51
Waffle House,309 S PEARSON RD,,PEARL,MS,39208,US,32.26908112,-90.13542175,2022-11-26 19:44:51
Waffle House,4912 SPRINGBORO PIKE,,MORAINE,OH,45439,US,39.68851089,-84.22031403,2022-11-26 19:44:51
Waffle House,3224 BILL FOSTER MEM,,CABOT,AR,72023,US,34.94617844,-92.06105042,2022-11-26 19:44:51
Waffle House,870 EASTGATE N DRIVE,,CINCINNATI,OH,45245,US,39.09683228,-84.26360321,2022-11-26 19:44:51
Waffle House,106 BEACH BLVD EAST,,LONG BEACH,MS,39560,US,30.3454113,-89.14719391,2022-11-26 19:44:49
Waffle House,1225 HAMILTON,,MONROE,OH,45050,US,39.4394989,-84.33313751,2022-11-26 19:44:51
Waffle House,4886 S. AMHERST HWY,,MADISON HEIGHTS,VA,24572,US,37.43887711,-79.1220932,2022-11-26 19:44:51
Waffle House,3671 GOVERNMENT BLVD,,MOBILE,AL,36693,US,30.64916039,-88.12671661,2022-11-26 19:44:49
Waffle House,105 W COMMERCE DR,,BRYANT,AR,72022,US,34.62067413,-92.49878693,2022-11-26 19:44:51
Waffle House,3960 SOUTH HIGH ST,,COLUMBUS,OH,43207,US,39.88101578,-83.0006485,2022-11-26 19:44:51
Waffle House,708 HWY 49 SOUTH,,RICHLAND,MS,39218,US,32.23268127,-90.16171265,2022-11-26 19:44:51
Waffle House,1080 STATE RD 28,,MILFORD,OH,45150,US,39.19640732,-84.23511505,2022-11-26 19:44:51
Waffle House,9520 US HIGHWAY 441,,LEESBURG,FL,34788,US,28.82653427,-81.79953003,2022-11-26 19:44:49
Waffle House,7300 INNERPLAN DR,,NORTH LITTLE ROCK,AR,72113,US,34.82474136,-92.37741089,2022-11-26 19:44:51
Waffle House,1405 N CASSADY AVE,,COLUMBUS,OH,43219,US,39.99843979,-82.93016052,2022-11-26 19:44:51
Waffle House,1705 DELAWARE AVE,,MCCOMB,MS,39648,US,31.24730492,-90.47545624,2022-11-26 19:44:52
Waffle House,2959 MIAMISBURG,,MIAMISBURG,OH,45342,US,39.63822556,-84.22590637,2022-11-26 19:44:51
Waffle House,1302 SCOTLAND,,LAURINBURG,NC,28352,US,34.75651169,-79.48262787,2022-11-26 19:44:49
Waffle House,818 EAST OAK ST,,CONWAY,AR,72032,US,35.0918045,-92.41960144,2022-11-26 19:44:51
Waffle House,1183 POLARIS PKWY,,COLUMBUS,OH,43240,US,40.1414032,-82.98841858,2022-11-26 19:44:51
Waffle House,3640 CANADA RD,,LAKELAND,TN,38002,US,35.22465897,-89.73744965,2022-11-26 19:44:51
Waffle House,451 EAST COMMERCE ST,,HERNANDO,MS,38632,US,34.82360077,-89.98191833,2022-11-26 19:44:51
Waffle House,3190 MEDINA RD,,MEDINA,OH,44256,US,41.13615799,-81.80182648,2022-11-26 19:44:51
Waffle House,9009 HWY 71 SOUTH,,FORT SMITH,AR,72908,US,35.29761505,-94.38813782,2022-11-26 19:44:51
Waffle House,6484 E BROAD ST,,COLUMBUS,OH,43213,US,39.98104858,-82.82933807,2022-11-26 19:44:51
Waffle House,12118 OLD 63 SOUTH,,LUCEDALE,MS,39452,US,30.90907478,-88.59783173,2022-11-26 19:44:49
Waffle House,5377 BEACH BLVD,,MASON,OH,45040,US,39.35887146,-84.26701355,2022-11-26 19:44:51
Waffle House,2308 SE WALTON BLVD,,BENTONVILLE,AR,72712,US,36.33471298,-94.18569183,2022-11-26 19:44:51
Waffle House,4595 WEST BROAD ST,,COLUMBUS,OH,43228,US,39.95250702,-83.12359619,2022-11-26 19:44:51
Waffle House,2085 SUNSET DR,,GRENADA,MS,38901,US,33.78642273,-89.85232544,2022-11-26 19:44:51
Waffle House,9725 MASON MONTGOMRY,,MASON,OH,45040,US,39.29705048,-84.31531525,2022-11-26 19:44:51
Waffle House,875 JOHNSTON PKWY,,KENLY,NC,27542,US,35.58158875,-78.14762115,2022-11-26 19:44:49
Waffle House,123 VALLEY ST,,ARKADELPHIA,AR,71923,US,34.18016434,-93.07085419,2022-11-26 19:44:51
Waffle House,20660 HIGHWAY 63,,MOSS POINT,MS,39563,US,30.64310074,-88.56700897,2022-11-26 19:44:49
Waffle House,11403 ULMERTON ROAD,,LARGO,FL,33778,US,27.89500046,-82.79799652,2022-11-26 19:44:49
Waffle House,1120 HWY 67 WEST,,ALVARADO,TX,76009,US,32.41598892,-97.22528076,2022-11-26 19:44:51
Waffle House,9184 COLERAIN AVE.,,COLERAIN TOWNSHIP,OH,45251,US,39.23862457,-84.59270477,2022-11-26 19:44:51
Waffle House,2291 W NORTHWEST HWY,,DALLAS,TX,75220,US,32.86162186,-96.89108276,2022-11-26 19:44:51
Waffle House,3244 US HWY 98 N,,LAKELAND,FL,33805,US,28.08349037,-81.96923828,2022-11-26 19:44:49
Waffle House,1910 N COLLINS RD,,ARLINGTON,TX,76011,US,32.76483154,-97.09710693,2022-11-26 19:44:51
Waffle House,2825 1/2 61ST ST,,GALVESTON,TX,77551,US,29.26835442,-94.82745361,2022-11-26 19:44:49
Waffle House,1515 51ST AVE EAST,,ELLENTON,FL,34222,US,27.52740669,-82.51286316,2022-11-26 19:44:49
Waffle House,2312 S.FLORIDA AVE,,LAKELAND,FL,33803,US,28.01634216,-81.95677948,2022-11-26 19:44:49
Waffle House,2690 COUNTY RD 59,,MANVEL,TX,77578,US,29.54096794,-95.39776611,2022-11-26 19:44:49
Waffle House,"8800 US HWY 290,",,AUSTIN,TX,78724,US,30.32907486,-97.65776825,2022-11-26 19:44:49
Waffle House,2002 BOULEVARD,,COLONIAL HEIGHTS,VA,23834,US,37.25842285,-77.41136169,2022-11-26 19:44:52
Waffle House,4505 TWIN CITY HWY,,PORT ARTHUR,TX,77642,US,29.93596458,-93.93419647,2022-11-26 19:44:49
Waffle House,596 E JACKSON BLVD,,ERWIN,NC,28339,US,35.3229866,-78.64633942,2022-11-26 19:44:49
Waffle House,4210 LAKELAND HILLS,,LAKELAND,FL,33805,US,28.09634018,-81.95206451,2022-11-26 19:44:49
Waffle House,4011 SW COLLEGE  RD,,OCALA,FL,34474,US,29.14508438,-82.19111633,2022-11-26 19:44:49
Waffle House,13143 KINGSTON AVE,,CHESTER,VA,23836,US,37.34659958,-77.34174347,2022-11-26 19:44:52
Waffle House,5045 NORTH BEACH ST,,FORT WORTH,TX,76137,US,32.83572006,-97.29062653,2022-11-26 19:44:51
Waffle House,14951 MARSH LANE,,FARMERS BRANCH,TX,75234,US,32.95211029,-96.85607147,2022-11-26 19:44:51
Waffle House,90 OAK TREE BLVD,,CHRISTIANSBURG,VA,24073,US,37.14860153,-80.41602325,2022-11-26 19:44:51
Waffle House,1275 FRY RD,,KATY,TX,77449,US,29.78845406,-95.71923065,2022-11-26 19:44:49
Waffle House,610 NORTH MAIN ST,,BLACKSBURG,VA,24060,US,37.23345566,-80.41831207,2022-11-26 19:44:51
Waffle House,1416 N I 35 EAST,,LANCASTER,TX,75134,US,32.60496902,-96.82176971,2022-11-26 19:44:51
Waffle House,25101 PERDIDO BEACH,,ORANGE BEACH,AL,36561,US,30.26760292,-87.59637451,2022-11-26 19:44:49
Waffle House,760 PINSON RD,,FORNEY,TX,75126,US,32.75753403,-96.46617126,2022-11-26 19:44:51
Waffle House,690 ASPEN PARKWAY,,MIDLOTHIAN,TX,76065,US,32.47446823,-96.97718048,2022-11-26 19:44:51
Waffle House,4301 OLD LANE,,CHESTER,VA,23831,US,37.38510513,-77.45314026,2022-11-26 19:44:52
Waffle House,3020 WESTERN CENTER,,FORT WORTH,TX,76131,US,32.86100006,-97.31672668,2022-11-26 19:44:51
Waffle House,637 ALTA MERE DRIVE,,FORT WORTH,TX,76114,US,32.75100708,-97.43240356,2022-11-26 19:44:51
Waffle House,7605 E US HWY 64,,KNIGHTDALE,NC,27545,US,35.79981995,-78.47364807,2022-11-26 19:44:52
Waffle House,406 FM 1960,,HOUSTON,TX,77073,US,30.02280617,-95.4229126,2022-11-26 19:44:49
Waffle House,1216 OAKLAND BLVD,,FORT WORTH,TX,76103,US,32.75963974,-97.26184082,2022-11-26 19:44:51
Waffle House,1512 N JOHN YOUNG,,KISSIMMEE,FL,34741,US,28.30566406,-81.41635132,2022-11-26 19:44:49
Waffle House,12923 SHELBYVILLE RD,,LOUISVILLE,KY,40243,US,38.24359512,-85.51320648,2022-11-26 19:44:51
Waffle House,102 RED CEDAR COURT,,CHESAPEAKE,VA,23320,US,36.76740265,-76.25275421,2022-11-26 19:44:49
Waffle House,175 OUTLET CENTER DR,,GEORGETOWN,KY,40324,US,38.22018433,-84.5398407,2022-11-26 19:44:51
Waffle House,9450 WHITE,,FORT WORTH,TX,76108,US,32.760849,-97.47981262,2022-11-26 19:44:51
Waffle House,716 HWY 66 SOUTH,,KERNERSVILLE,NC,27284,US,36.11078262,-80.06336212,2022-11-26 19:44:52
Waffle House,1002 U.S. HWY 90,,BAY SAINT LOUIS,MS,39520,US,30.31324577,-89.35657501,2022-11-26 19:44:49
Waffle House,3040 LAKECREST CIR.,,LEXINGTON,KY,40513,US,38.01526642,-84.55319977,2022-11-26 19:44:51
Waffle House,100270 OVERSEAS HWY,,KEY LARGO,FL,33037,US,25.10050011,-80.43408966,2022-11-26 19:44:49
Waffle House,495 PREMIER CIRCLE,,CHARLOTTESVILLE,VA,22901,US,38.07439423,-78.4810791,2022-11-26 19:44:51
Waffle House,7031 THEODORE DAWES,,THEODORE,AL,36582,US,30.56025124,-88.20664978,2022-11-26 19:44:49
Waffle House,3739 PAMELA RAE AVE,,LOUISVILLE,KY,40241,US,38.30101013,-85.54256439,2022-11-26 19:44:51
Waffle House,150 EAST LOOP 820,,FORT WORTH,TX,76112,US,32.77772141,-97.21312714,2022-11-26 19:44:51
Waffle House,714 SOUTH MAIN ST,,KING,NC,27021,US,36.2626152,-80.36341095,2022-11-26 19:44:51
Waffle House,5579 HWY 90,,THEODORE,AL,36582,US,30.57472229,-88.17079163,2022-11-26 19:44:49
Waffle House,373 SOUTH GREENO RD,,FAIRHOPE,AL,36532,US,30.51432991,-87.88571167,2022-11-26 19:44:49
Waffle House,1162 5TH ST SW,,CHARLOTTESVILLE,VA,22902,US,38.01157379,-78.5032196,2022-11-26 19:44:51
Waffle House,1024 HWY 59 SOUTH,,SUMMERDALE,AL,36580,US,30.47076035,-87.70162964,2022-11-26 19:44:49
Waffle House,1012 GEORGETOWN RD,,LEXINGTON,KY,40511,US,38.07675934,-84.50680542,2022-11-26 19:44:51
Waffle House,601 EAST NEW BERN RD,,KINSTON,NC,28504,US,35.23890686,-77.57620239,2022-11-26 19:44:49
Waffle House,6840 EAST FRONT ST.,,KANSAS CITY,MO,64120,US,39.13018036,-94.50177765,2022-11-26 19:44:51
Waffle House,9800 BLAIRWOOD RD.,,LOUISVILLE,KY,40222,US,38.22536087,-85.57935333,2022-11-26 19:44:51
Waffle House,12615 FOLEY BEACH,,FOLEY,AL,36535,US,30.40770149,-87.64830017,2022-11-26 19:44:49
Waffle House,4690 SEVEN DWARFS LN,,KISSIMMEE,FL,34746,US,28.32551956,-81.47103882,2022-11-26 19:44:49
Waffle House,2660 S. MCKENZIE ST,,FOLEY,AL,36535,US,30.37562943,-87.68358612,2022-11-26 19:44:49
Waffle House,617 WEST THIRD ST,,COVINGTON,KY,41011,US,39.08717728,-84.52059174,2022-11-26 19:44:51
Waffle House,1034 MAIN ST N,,NICHOLASVILLE,KY,40356,US,37.90093231,-84.56362915,2022-11-26 19:44:51
Waffle House,406 CHURCH RD WEST,,SOUTHAVEN,MS,38671,US,34.93404007,-89.99754333,2022-11-26 19:44:51
Waffle House,8050 US ROUTE 42,,FLORENCE,KY,41042,US,38.98321533,-84.64470673,2022-11-26 19:44:51
Waffle House,20618 KUYKENDAHL RD,,SPRING,TX,77379,US,30.06896782,-95.50759888,2022-11-26 19:44:49
Waffle House,580 WARRENTON ROAD,,FREDERICKSBURG,VA,22406,US,38.34545898,-77.49876404,2022-11-26 19:44:52
Waffle House,3277 GOODMAN ROAD,,SOUTHAVEN,MS,38672,US,34.96207428,-89.93203735,2022-11-26 19:44:51
Waffle House,37 INN RD,,CARROLLTON,KY,41008,US,38.64935303,-85.12345123,2022-11-26 19:44:51
Waffle House,8939 HAMILTON RD,,SOUTHAVEN,MS,38671,US,34.99094009,-89.99972534,2022-11-26 19:44:51
Waffle House,13132 HWY 61 NORTH,,ROBINSONVILLE,MS,38664,US,34.83435822,-90.27832794,2022-11-26 19:44:51
Waffle House,405 CHERRY BLOSSOM,,GEORGETOWN,KY,40324,US,38.27432251,-84.55314636,2022-11-26 19:44:51
Waffle House,65 LOWES DRIVE,,PITTSBORO,NC,27312,US,35.74614334,-79.1664505,2022-11-26 19:44:52
Waffle House,11320 WESTMARK DRIVE,,YUKON,OK,73099,US,35.46565247,-97.72327423,2022-11-26 19:44:51
Waffle House,17137 DUMFRIES RD,,DUMFRIES,VA,22025,US,38.58189774,-77.32578278,2022-11-26 19:44:52
Waffle House,12679 US ROUTE 60,,ASHLAND,KY,41102,US,38.38806534,-82.71601105,2022-11-26 19:44:51
Waffle House,6931 OLD CANTON RD,,RIDGELAND,MS,39157,US,32.41206741,-90.10655212,2022-11-26 19:44:51
Waffle House,1912 PLAUDITT PLACE,,LEXINGTON,KY,40509,US,38.01854324,-84.41584778,2022-11-26 19:44:51
Waffle House,3303 MARTIN LUTHER,,NEW BERN,NC,28560,US,35.09992218,-77.09378052,2022-11-26 19:44:49
Waffle House,9190 GRAND BAY,,GRAND BAY,AL,36541,US,30.49913025,-88.33480835,2022-11-26 19:44:49
Waffle House,45 CIVILIAN STREET,,FREDERICKSBURG,VA,22406,US,38.35933304,-77.51898193,2022-11-26 19:44:52
Waffle House,397 ASH ST,,BENTON,KY,42025,US,36.86687469,-88.36061096,2022-11-26 19:44:51
Waffle House,1290 ARCHER DRIVE,,TROY,OH,45373,US,40.02601242,-84.22567749,2022-11-26 19:44:51
Waffle House,382 E. BEACH BLVD.,,GULF SHORES,AL,36542,US,30.24930954,-87.68195343,2022-11-26 19:44:49
Waffle House,10357 PATRIOT HWY,,FREDERICKSBURG,VA,22408,US,38.24373245,-77.49852753,2022-11-26 19:44:52
Waffle House,6725 W CENTRAL AVE,,TOLEDO,OH,43617,US,41.67449188,-83.70346832,2022-11-26 19:44:51
Waffle House,314 W WASHINGTON ST,,NASHVILLE,NC,27856,US,35.97661972,-77.97047424,2022-11-26 19:44:49
Waffle House,991 DURHAM RD,,WAKE FOREST,NC,27587,US,35.97623062,-78.54708862,2022-11-26 19:44:52
Waffle House,2454 S REYNOLDS AVE,,TOLEDO,OH,43614,US,41.5949173,-83.66506958,2022-11-26 19:44:51
Waffle House,33190 S DIXIE HWY,,FLORIDA CITY,FL,33034,US,25.46005249,-80.47563171,2022-11-26 19:44:49
Waffle House,24148 WELCOME WAY DR,,RUTHER GLEN,VA,22546,US,37.93474579,-77.4743576,2022-11-26 19:44:52
Waffle House,7163 E STATE RTE 37,,SUNBURY,OH,43074,US,40.26673508,-82.93386078,2022-11-26 19:44:51
Waffle House,3601 A WALDEN DR,,LEXINGTON,KY,40517,US,37.98314667,-84.49582672,2022-11-26 19:44:51
Waffle House,2580 DAVIE RD,,FORT LAUDERDALE,FL,33317,US,26.09022331,-80.22756195,2022-11-26 19:44:49
Waffle House,114 FAIRFAX PIKE,,STEPHENS CITY,VA,22655,US,39.08057404,-78.21353149,2022-11-26 19:44:51
Waffle House,10606 US ROUTE 23,,CATLETTSBURG,KY,41129,US,38.38901138,-82.60624695,2022-11-26 19:44:51
Waffle House,12020 STANDIFORD PLZ,,LOUISVILLE,KY,40229,US,38.08668518,-85.66662598,2022-11-26 19:44:51
Waffle House,10457 SORRENTO RD,,PENSACOLA,FL,32507,US,30.35876274,-87.36255646,2022-11-26 19:44:49
Waffle House,3810 CLEVELAND AVE,,FORT MYERS,FL,33901,US,26.60639954,-81.87220001,2022-11-26 19:44:49
Waffle House,5656 INDIAN RIVER RD,,VIRGINIA BEACH,VA,23464,US,36.80514908,-76.18917084,2022-11-26 19:44:49
Waffle House,11520 SPRINGFIELD,,SPRINGDALE,OH,45246,US,39.28480148,-84.48500061,2022-11-26 19:44:51
Waffle House,2740 RICHMOND RD,,LEXINGTON,KY,40517,US,38.00809097,-84.4540863,2022-11-26 19:44:51
Waffle House,9420 DANIELS PKWY,,FORT MYERS,FL,33912,US,26.54690742,-81.79927826,2022-11-26 19:44:49
Waffle House,601 MCLAWHORNE DR,,NEWPORT NEWS,VA,23605,US,37.04470825,-76.45921326,2022-11-26 19:44:49
Waffle House,885 WEST CENTRAL AVE,,SPRINGBORO,OH,45066,US,39.56230164,-84.26339722,2022-11-26 19:44:51
Waffle House,2080 LITTON LN,,HEBRON,KY,41048,US,39.07789993,-84.70760345,2022-11-26 19:44:51
Waffle House,50 BAUER ROAD,,PENSACOLA,FL,32506,US,30.39646339,-87.40048218,2022-11-26 19:44:49
Waffle House,4050 BOATWAYS ROAD,,FORT MYERS,FL,33905,US,26.6845417,-81.79618835,2022-11-26 19:44:49
Waffle House,1811 W. MERCURY BLVD,,HAMPTON,VA,23666,US,37.04114532,-76.39046478,2022-11-26 19:44:49
Waffle House,468 KENNEDY AVE,,CALVERT CITY,KY,42029,US,37.00367355,-88.32771301,2022-11-26 19:44:51
Waffle House,317 FOLKERTH AVENUE,,SIDNEY,OH,45365,US,40.28797913,-84.18488312,2022-11-26 19:44:51
Waffle House,7715 BARDSTOWN RD,,LOUISVILLE,KY,40291,US,38.13510132,-85.57966614,2022-11-26 19:44:51
Waffle House,5872 OKEECHOBEE RD,,FORT PIERCE,FL,34947,US,27.41769981,-80.3837738,2022-11-26 19:44:49
Waffle House,3919 ELECTRIC ROAD,,ROANOKE,VA,24018,US,37.22340012,-79.98639679,2022-11-26 19:44:51
Waffle House,2160 BRICE ROAD,,REYNOLDSBURG,OH,43068,US,39.93707275,-82.83014679,2022-11-26 19:44:51
Waffle House,7147 OKEECHOBEE RD,,FORT PIERCE,FL,34945,US,27.4123764,-80.39653778,2022-11-26 19:44:49
Waffle House,1521 LYNNHAVEN PKWY,,VIRGINIA BEACH,VA,23453,US,36.79595566,-76.10063934,2022-11-26 19:44:49
Waffle House,2621 BRICE ROAD,,REYNOLDSBURG,OH,43068,US,39.92610931,-82.83202362,2022-11-26 19:44:51
Waffle House,1448 MOUNT PLEASANT,,CHESAPEAKE,VA,23322,US,36.71478271,-76.18760681,2022-11-26 19:44:49
Waffle House,11770 U.S. ROUTE 42,,SHARONVILLE,OH,45241,US,39.2868042,-84.3969574,2022-11-26 19:44:51
Waffle House,1594 VERSAILLES RD,,FRANKFORT,KY,40601,US,38.17898178,-84.81407166,2022-11-26 19:44:51
Waffle House,5397 WESLEYAN DRIVE,,VIRGINIA BEACH,VA,23455,US,36.8698082,-76.16320038,2022-11-26 19:44:49
Waffle House,1530 N BROADWAY AVE,,BARTOW,FL,33830,US,27.9095993,-81.84279633,2022-11-26 19:44:49
Waffle House,2391 E SHARON ROAD,,SHARONVILLE,OH,45241,US,39.26976395,-84.43565369,2022-11-26 19:44:51
Waffle House,2100 LONE OAK RD,,PADUCAH,KY,42003,US,37.04768753,-88.65460205,2022-11-26 19:44:51
Waffle House,1807 EDWIN MILLER,,MARTINSBURG,WV,25404,US,39.48668671,-77.95723724,2022-11-26 19:44:51
Waffle House,117 GEORGE WASHINGTO,,CHESAPEAKE,VA,23323,US,36.7408638,-76.34429932,2022-11-26 19:44:49
Waffle House,638 DONALDSON RD,,ERLANGER,KY,41018,US,39.02882767,-84.61650848,2022-11-26 19:44:51
Waffle House,4840 POWERLINE ROAD,,FT LAUDERDALE,FL,33309,US,26.18684387,-80.15503693,2022-11-26 19:44:49
Waffle House,6420 IRON BRIDGE RD,,NORTH CHESTERFIELD,VA,23234,US,37.42878723,-77.49404907,2022-11-26 19:44:52
Waffle House,"2400 CORTEZ ROAD, W",,BRADENTON,FL,34207,US,27.46278191,-82.58586121,2022-11-26 19:44:49
Waffle House,1600 MT EDEN RD,,SHELBYVILLE,KY,40065,US,38.18894196,-85.21176147,2022-11-26 19:44:51
Waffle House,7119 HULL STREET RD.,,NORTH CHESTERFIELD,VA,23235,US,37.47190094,-77.52639771,2022-11-26 19:44:52
Waffle House,2101 SW RAILROAD AVE,,HAMMOND,LA,70403,US,30.47796822,-90.4566803,2022-11-26 19:44:49
Waffle House,859 SOUTH BROADWAY,,LEXINGTON,KY,40504,US,38.03978729,-84.51371002,2022-11-26 19:44:51
Waffle House,5825 NORTHAMPTON BLV,,VIRGINIA BEACH,VA,23455,US,36.88141251,-76.18612671,2022-11-26 19:44:49
Waffle House,30481 CORTEZ BLVD.,,BROOKSVILLE,FL,34602,US,28.52345085,-82.23413849,2022-11-26 19:44:49
Waffle House,3123 HWY 190W,,HAMMOND,LA,70401,US,30.50420761,-90.49983215,2022-11-26 19:44:49
Waffle House,3251 WESTERN BRANCH,,CHESAPEAKE,VA,23321,US,36.86441422,-76.40908813,2022-11-26 19:44:49
Waffle House,2443 MANHATTAN BLVD.,,HARVEY,LA,70058,US,29.87719917,-90.04910278,2022-11-26 19:44:49
Waffle House,4029 TAYLORSVILLE RD,,LOUISVILLE,KY,40220,US,38.21998215,-85.62341309,2022-11-26 19:44:51
Waffle House,11201 IRONBRIDGE RD,,CHESTER,VA,23831,US,37.36272049,-77.49758911,2022-11-26 19:44:52
Waffle House,1412 W. BRANDON BLVD,,BRANDON,FL,33511,US,27.93800926,-82.30500793,2022-11-26 19:44:49
Waffle House,1736 MLK JR BLVD,,HOUMA,LA,70360,US,29.61292076,-90.75548553,2022-11-26 19:44:49
Waffle House,4810 GEORGE WASH HWY,,PORTSMOUTH,VA,23702,US,36.79710007,-76.3266983,2022-11-26 19:44:49
Waffle House,1902 W LUMSDEN RD,,BRANDON,FL,33511,US,27.92335129,-82.31506348,2022-11-26 19:44:49
Waffle House,1168 MALABAR RD SE,,PALM BAY,FL,32907,US,27.99757957,-80.63252258,2022-11-26 19:44:49
Waffle House,4800 PORTSMOUTH BLVD,,CHESAPEAKE,VA,23321,US,36.81771469,-76.43994904,2022-11-26 19:44:49
Waffle House,475 NORTH ELMS ST,,HAUGHTON,LA,71037,US,32.54485703,-93.51410675,2022-11-26 19:44:51
Waffle House,2395 POCAHONTAS TRL.,,QUINTON,VA,23141,US,37.50889969,-77.19049835,2022-11-26 19:44:52
Waffle House,603 67TH STREET CIR,,BRADENTON,FL,34208,US,27.49310112,-82.47722626,2022-11-26 19:44:49
Waffle House,3500 SPEEKS DR,,MIDLOTHIAN,VA,23112,US,37.44020081,-77.59374237,2022-11-26 19:44:52
Waffle House,4141 RAMSEY ST,,FAYETTEVILLE,NC,28311,US,35.11624908,-78.87998962,2022-11-26 19:44:49
Waffle House,7497 MIDLOTHIAN,,N. CHESTERFIELD,VA,23225,US,37.4994278,-77.53435516,2022-11-26 19:44:52
Waffle House,12304 DESSAU ROAD,,AUSTIN,TX,78754,US,30.38714027,-97.64855957,2022-11-26 19:44:49
Waffle House,4520 YADKIN RD,,FAYETTEVILLE,NC,28303,US,35.08010864,-78.9581604,2022-11-26 19:44:49
Waffle House,8400 BROOK RD,,GLEN ALLEN,VA,23060,US,37.63829422,-77.46022034,2022-11-26 19:44:52
Waffle House,2221 S COOPER ST,,ARLINGTON,TX,76013,US,32.70668411,-97.11660004,2022-11-26 19:44:51
Waffle House,2319 GILLESPIE ST,,FAYETTEVILLE,NC,28306,US,35.01831818,-78.89565277,2022-11-26 19:44:49
Waffle House,808 ENGLAND ST,,ASHLAND,VA,23005,US,37.75847626,-77.46569824,2022-11-26 19:44:52
Waffle House,7809 E BEN WHITE BLV,,AUSTIN,TX,78744,US,30.21881676,-97.68916321,2022-11-26 19:44:49
Waffle House,7641 S RAEFORD RD,,FAYETTEVILLE,NC,28304,US,35.02641296,-79.05157471,2022-11-26 19:44:49
Waffle House,5937 HOPKINS ROAD,,NORTH CHESTERFIELD,VA,23234,US,37.43730164,-77.47280121,2022-11-26 19:44:52
Waffle House,650 SOUTH REILLY RD,,FAYETTEVILLE,NC,28314,US,35.06427002,-79.01454926,2022-11-26 19:44:49
Waffle House,1805 S PLEASANT,,WINCHESTER,VA,22601,US,39.16499329,-78.16558075,2022-11-26 19:44:51
Waffle House,551 MCPHERSON CH. RD,,FAYETTEVILLE,NC,28303,US,35.0788002,-78.95619965,2022-11-26 19:44:49
Waffle House,2101 WILLIS RD,,RICHMOND,VA,23237,US,37.4017601,-77.42258453,2022-11-26 19:44:52
Waffle House,1931 EAST 60TH ST,,ANDERSON,IN,46013,US,40.05448914,-85.65415955,2022-11-26 19:44:51
Waffle House,2124 CEDAR CREEK RD,,FAYETTEVILLE,NC,28312,US,35.00556946,-78.81569672,2022-11-26 19:44:49
Waffle House,901 LEW DEWITT BLVD,,WAYNESBORO,VA,22980,US,38.0643959,-78.93810272,2022-11-26 19:44:51
Waffle House,9221 E US HWY 36,,AVON,IN,46123,US,39.76335144,-86.35715485,2022-11-26 19:44:51
Waffle House,3202 EAST PARHAM RD.,,HENRICO,VA,23228,US,37.63331604,-77.50723267,2022-11-26 19:44:52
Waffle House,2665 W. JONATHAN,,COLUMBUS,IN,47201,US,39.20029449,-85.9539032,2022-11-26 19:44:51
Waffle House,1412 NORTH MAIN ST,,FUQUAY VARINA,NC,27526,US,35.5927887,-78.77196503,2022-11-26 19:44:52
Waffle House,5102 WILLIAMSBURG RD,,RICHMOND,VA,23231,US,37.51783752,-77.34384918,2022-11-26 19:44:52
Waffle House,2024 LANDMARK DRIVE,,CORYDON,IN,47112,US,38.23652649,-86.1266098,2022-11-26 19:44:51
Waffle House,8915 N HWY. 146,,MONT BELVIEU,TX,77523,US,29.82385445,-94.89893341,2022-11-26 19:44:49
Waffle House,100 GETTY LANE,,WINCHESTER,VA,22603,US,39.18684006,-78.13089752,2022-11-26 19:44:51
Waffle House,1908 OATES DR,,MESQUITE,TX,75150,US,32.83652496,-96.6304245,2022-11-26 19:44:51
Waffle House,1613 W HEBRON PKWY,,CARROLLTON,TX,75010,US,33.02336121,-96.93662262,2022-11-26 19:44:51
Waffle House,"10220 N. US 31 , I65",,TAYLORSVILLE,IN,47280,US,39.29663467,-85.95803833,2022-11-26 19:44:51
Waffle House,950 E CARTWRIGHT AVE,,MESQUITE,TX,75149,US,32.74503708,-96.58240509,2022-11-26 19:44:51
Waffle House,3109 JUPITER RD,,GARLAND,TX,75041,US,32.87807083,-96.68312073,2022-11-26 19:44:51
Waffle House,8800 SOUTH DALE,,DALEVILLE,IN,47334,US,40.11661148,-85.56570435,2022-11-26 19:44:51
Waffle House,1304 SOUTH COX ST,,ASHEBORO,NC,27203,US,35.68989182,-79.81104279,2022-11-26 19:44:52
Waffle House,1722 SCYENE ROAD,,MESQUITE,TX,75149,US,32.76834488,-96.62426758,2022-11-26 19:44:51
Waffle House,494 WEST I 30,,GARLAND,TX,75043,US,32.83976746,-96.5945816,2022-11-26 19:44:51
Waffle House,110 UMBARGER LANE,,FRANKLIN,IN,46131,US,39.48274994,-86.01823425,2022-11-26 19:44:51
Waffle House,7673 BURLINGTON PIKE,,FLORENCE,KY,41042,US,39.00069427,-84.64295197,2022-11-26 19:44:51
Waffle House,13048 HWY 70 WEST,,CLAYTON,NC,27520,US,35.66635895,-78.49819183,2022-11-26 19:44:52
Waffle House,1825 N. BELTLINE RD,,MESQUITE,TX,75149,US,32.78948975,-96.59583282,2022-11-26 19:44:51
Waffle House,5020 STATE HWY 78,,SACHSE,TX,75048,US,32.96813202,-96.60636902,2022-11-26 19:44:51
Waffle House,70 HOWARD DRIVE,,SHELBYVILLE,KY,40065,US,38.20305634,-85.26643372,2022-11-26 19:44:51
Waffle House,5551 EAST END BLVD S,,MARSHALL,TX,75672,US,32.49438858,-94.35832977,2022-11-26 19:44:51
Waffle House,1100 E PIONEER PKWY,,GRAND PRAIRIE,TX,75051,US,32.70928574,-96.99185944,2022-11-26 19:44:51
Waffle House,1909 NORTH HWY 157,,MANSFIELD,TX,76063,US,32.59990311,-97.14608765,2022-11-26 19:44:51
Waffle House,1901 S ST HWY 121,,LEWISVILLE,TX,75067,US,33.01675034,-96.99363708,2022-11-26 19:44:51
Waffle House,2200 WEST CENTER ST,,BEEBE,AR,72012,US,35.06896973,-91.91068268,2022-11-26 19:44:51
Waffle House,750 SOUTH MAIN,,LUMBERTON,TX,77657,US,30.24173546,-94.19612122,2022-11-26 19:44:49
Waffle House,11240 WESTHEIMER RD,,HOUSTON,TX,77042,US,29.73677635,-95.57488251,2022-11-26 19:44:49
Waffle House,1215 HOT SPRINGS RD,,BENTON,AR,72019,US,34.57483673,-92.5901413,2022-11-26 19:44:51
Waffle House,7004 HWY 4,,BATTLEBORO,NC,27809,US,36.06225967,-77.81788635,2022-11-26 19:44:49
Waffle House,318 E LOOP 281,,LONGVIEW,TX,75605,US,32.54167557,-94.73766327,2022-11-26 19:44:51
Waffle House,7203 GARTH ROAD,,BAYTOWN,TX,77521,US,29.80574799,-94.98233032,2022-11-26 19:44:49
Waffle House,2701 ALAMANCE ROAD,,BURLINGTON,NC,27215,US,36.06414032,-79.46977234,2022-11-26 19:44:52
Waffle House,3107 ESTES PARKWAY,,LONGVIEW,TX,75602,US,32.44847488,-94.72304535,2022-11-26 19:44:51
Waffle House,27935 S W FWY,,ROSENBERG,TX,77471,US,29.53164482,-95.80601501,2022-11-26 19:44:49
Waffle House,1407 NORTH MAIN ST,,BRINKLEY,AR,72021,US,34.90538406,-91.19818878,2022-11-26 19:44:51
Waffle House,1405 UNIVERSITY DR,,BURLINGTON,NC,27215,US,36.07101059,-79.52361298,2022-11-26 19:44:52
Waffle House,14201 MUESCHKE RD,,CYPRESS,TX,77433,US,29.98120308,-95.71784973,2022-11-26 19:44:49
Waffle House,1733 N CHURCH ST.,,BURLINGTON,NC,27217,US,36.09550095,-79.40840149,2022-11-26 19:44:52
Waffle House,3522 CLARKS RIVER RD,,PADUCAH,KY,42003,US,37.04856873,-88.56227875,2022-11-26 19:44:51
Waffle House,1803 W. MAIN STREET,,LEAGUE CITY,TX,77573,US,29.50226402,-95.11655426,2022-11-26 19:44:49
Waffle House,3865 INTERSTATE 10,,BEAUMONT,TX,77705,US,30.03964615,-94.15412903,2022-11-26 19:44:49
Waffle House,2805 FERN VALLEY RD,,LOUISVILLE,KY,40213,US,38.15704727,-85.71173859,2022-11-26 19:44:51
Waffle House,6250 LAKE WORTH BLVD,,LAKE WORTH,TX,76135,US,32.80990982,-97.42166901,2022-11-26 19:44:51
Waffle House,4320 BISHOP LANE,,LOUISVILLE,KY,40218,US,38.19849396,-85.68643188,2022-11-26 19:44:51
Waffle House,2900 FM 1764 RD,,LA MARQUE,TX,77568,US,29.4005928,-95.03564453,2022-11-26 19:44:49
Waffle House,10563 DIXIE HWY,,LOUISVILLE,KY,40272,US,38.10097885,-85.87042999,2022-11-26 19:44:51
Waffle House,19886 W. LITTLE YORK,,KATY,TX,77449,US,29.86180878,-95.71946716,2022-11-26 19:44:49
Waffle House,550 EAST MAIN ST,,BISCOE,NC,27209,US,35.36091614,-79.76940155,2022-11-26 19:44:52
Waffle House,1540 SOUTH CAMPUS DR,,CREEDMOOR,NC,27522,US,36.14260864,-78.71949768,2022-11-26 19:44:52
Waffle House,4375 W. NORTHGATE DR,,IRVING,TX,75062,US,32.85724258,-97.00930023,2022-11-26 19:44:51
Waffle House,907 E. MAIN ST.,,BENSON,NC,27504,US,35.37569427,-78.53804779,2022-11-26 19:44:49
Waffle House,608 N MAYSVILLE ST,,MT STERLING,KY,40353,US,38.0735321,-83.94821167,2022-11-26 19:44:51
Waffle House,1116 LEAGUE LINE RD,,CONROE,TX,77303,US,30.36643219,-95.48274231,2022-11-26 19:44:49
Waffle House,2115 OAKHURST DR,,IRVING,TX,75061,US,32.83646774,-96.95042419,2022-11-26 19:44:51
Waffle House,11925 NC HWY 210,,BENSON,NC,27504,US,35.51541901,-78.5535965,2022-11-26 19:44:49
Waffle House,3610 MADISON PIKE,,FORT WRIGHT,KY,41017,US,39.02378464,-84.53456116,2022-11-26 19:44:51
Waffle House,240 S LOOP 336 WEST,,CONROE,TX,77304,US,30.27907944,-95.46203613,2022-11-26 19:44:49
Waffle House,3970 SOUTH BELTLINE,,GRAND PRAIRIE,TX,75052,US,32.67389679,-96.98493958,2022-11-26 19:44:51
Waffle House,4150 CANE RUN ROAD,,LOUISVILLE,KY,40216,US,38.20228195,-85.83374023,2022-11-26 19:44:51
Waffle House,2951 S US HWY 287,,CORSICANA,TX,75109,US,32.07147598,-96.44298553,2022-11-26 19:44:51
Waffle House,2998 S. HWY. 360,,GRAND PRAIRIE,TX,75051,US,32.69233322,-97.06123352,2022-11-26 19:44:51
Waffle House,5875 HWY 105,,BEAUMONT,TX,77708,US,30.13342094,-94.17009735,2022-11-26 19:44:49
Waffle House,612 LYNDON LANE,,LOUISVILLE,KY,40222,US,38.25882339,-85.60407257,2022-11-26 19:44:51
Waffle House,1720 COLLEGE AVE,,HOUSTON,TX,77017,US,29.65303421,-95.24949646,2022-11-26 19:44:49
Waffle House,175 S DOWLEN ROAD,,BEAUMONT,TX,77707,US,30.07338905,-94.17185211,2022-11-26 19:44:49
Waffle House,13861 CYPRESS NORTH,,CYPRESS,TX,77429,US,29.94742012,-95.62908173,2022-11-26 19:44:49
Waffle House,6320 WEST ROAD,,HOUSTON,TX,77086,US,29.91329384,-95.48110199,2022-11-26 19:44:49
Waffle House,1134 WINCHESTER ROAD,,LEXINGTON,KY,40505,US,38.04206085,-84.45237732,2022-11-26 19:44:51
Waffle House,635 RANKIN ROAD,,HOUSTON,TX,77073,US,29.96617889,-95.41184998,2022-11-26 19:44:49
Waffle House,405 E. RENFRO ST,,BURLESON,TX,76028,US,32.54434967,-97.31380463,2022-11-26 19:44:51
Waffle House,2923 FT CAMPBELL,,HOPKINSVILLE,KY,42240,US,36.83753586,-87.47844696,2022-11-26 19:44:51
Waffle House,1570 NORTH US HWY 1,,ORMOND BEACH,FL,32174,US,29.33456612,-81.12961578,2022-11-26 19:44:49
Waffle House,15747 WALLISVILLE RD,,HOUSTON,TX,77049,US,29.81100845,-95.15626526,2022-11-26 19:44:49
Waffle House,251 WEST RENDON /,,BURLESON,TX,76028,US,32.57727814,-97.32312012,2022-11-26 19:44:51
Waffle House,1815 S. SEMORAN BLVD,,ORLANDO,FL,32822,US,28.52050018,-81.30979919,2022-11-26 19:44:49
Waffle House,17609 FM 529,,HOUSTON,TX,77095,US,29.87859726,-95.67739105,2022-11-26 19:44:49
Waffle House,8505 BENBROOK BLVD,,BENBROOK,TX,76126,US,32.68204117,-97.46147919,2022-11-26 19:44:51
Waffle House,213 JOE B HALL AVE,,SHEPHERDSVILLE,KY,40165,US,37.98888397,-85.70657349,2022-11-26 19:44:51
Waffle House,9406 SOUTH ORANGE,,ORLANDO,FL,32837,US,28.42461205,-81.40514374,2022-11-26 19:44:49
Waffle House,728 N SAM HOUSTON E,,HOUSTON,TX,77060,US,29.93823624,-95.38410187,2022-11-26 19:44:49
Waffle House,7438 E. HILLSBOROUGH,,TAMPA,FL,33610,US,27.99681854,-82.3713913,2022-11-26 19:44:49
Waffle House,1425 BROWN TRAIL,,BEDFORD,TX,76022,US,32.83813858,-97.1606369,2022-11-26 19:44:51
Waffle House,4706 PRESTON HWY,,LOUISVILLE,KY,40213,US,38.17956543,-85.71788025,2022-11-26 19:44:51
Waffle House,6308 INTERNATIONAL,,ORLANDO,FL,32819,US,28.46100044,-81.46700287,2022-11-26 19:44:49
Waffle House,8411 HWY 6 SOUTH,,HOUSTON,TX,77083,US,29.68887329,-95.6432724,2022-11-26 19:44:49
Waffle House,10100 MIDLOTHIAN,,RICHMOND,VA,23235,US,37.50691223,-77.58419037,2022-11-26 19:44:52
Waffle House,3764 CHEEK SPARGER,,BEDFORD,TX,76021,US,32.86536789,-97.10357666,2022-11-26 19:44:51
Waffle House,188 SOUTH DIXIE BLVD,,RADCLIFF,KY,40160,US,37.83896255,-85.93694305,2022-11-26 19:44:51
Waffle House,5350 S KIRKMAN RD,,ORLANDO,FL,32819,US,28.48457718,-81.459198,2022-11-26 19:44:49
Waffle House,10134 ALMEDA GENOA,,HOUSTON,TX,77075,US,29.62754631,-95.23555756,2022-11-26 19:44:49
Waffle House,3987 COLLEGE ST,,BEAUMONT,TX,77707,US,30.06790733,-94.13583374,2022-11-26 19:44:49
Waffle House,2840 FORT WORTH HWY,,HUDSON OAKS,TX,76087,US,32.75688171,-97.71633148,2022-11-26 19:44:51
Waffle House,1208 WILSON ROAD,,HUMBLE,TX,77338,US,29.98279953,-95.25,2022-11-26 19:44:49
Waffle House,2026 MULBERRY STREET,,ELIZABETHTOWN,KY,42701,US,37.71611023,-85.82463074,2022-11-26 19:44:51
Waffle House,12801 S APOPKA,,ORLANDO,FL,32836,US,28.37928963,-81.50456238,2022-11-26 19:44:49
Waffle House,7106 WILL CLAYTON,,HUMBLE,TX,77338,US,29.98270988,-95.28128815,2022-11-26 19:44:49
Waffle House,6403 W INTERSTATE CT,,WHITSETT,NC,27377,US,36.06258774,-79.6068573,2022-11-26 19:44:52
Waffle House,2203 NORTH BROADWAY,,LEXINGTON,KY,40505,US,38.07786179,-84.45262146,2022-11-26 19:44:51
Waffle House,11749 E. COLONIAL DR,,ORLANDO,FL,32817,US,28.5669117,-81.20865631,2022-11-26 19:44:49
Waffle House,2000 EAST HWY 356,,IRVING,TX,75060,US,32.8094101,-96.91988373,2022-11-26 19:44:51
Waffle House,13035 N WINTZELL AVE,,BAYOU LA BATRE,AL,36509,US,30.41789627,-88.24429321,2022-11-26 19:44:49
Waffle House,1620 KENTUCKY MILLS,,JEFFERSONTOWN,KY,40299,US,38.21894836,-85.53936768,2022-11-26 19:44:51
Waffle House,2931 GERMANTOWN RD,,BARTLETT,TN,38134,US,35.20543289,-89.79219055,2022-11-26 19:44:51
Waffle House,2021 E BLUELICK ROAD,,SHEPHERDSVILLE,KY,40165,US,38.06150818,-85.70250702,2022-11-26 19:44:51
Waffle House,1050 S BLUFORD AVE,,OCOEE,FL,34761,US,28.55261803,-81.53799438,2022-11-26 19:44:49
Waffle House,9777 GREENVILLE AVE,,DALLAS,TX,75243,US,32.90849304,-96.74742126,2022-11-26 19:44:51
Waffle House,2920 HIGHWAY 501,,AYNOR,SC,29511,US,33.9916153,-79.20140839,2022-11-26 19:44:49
Waffle House,64 BROADWAY ROAD,,DRY RIDGE,KY,41035,US,38.68228149,-84.59850311,2022-11-26 19:44:51
Waffle House,22 NW 34TH AVE.,,OCALA,FL,34475,US,29.18647957,-82.17874908,2022-11-26 19:44:49
Waffle House,104 N KEENELAND DR,,RICHMOND,KY,40475,US,37.77666092,-84.31926727,2022-11-26 19:44:51
Waffle House,1001 NEW MOODY LANE,,LAGRANGE,KY,40031,US,38.39719009,-85.37138367,2022-11-26 19:44:51
Waffle House,2065 S.W. HWY 484,,OCALA,FL,34473,US,29.02571297,-82.15978241,2022-11-26 19:44:49
Waffle House,1784 N RILEY HWY,,SHELBYVILLE,IN,46176,US,39.54669952,-85.77536011,2022-11-26 19:44:51
Waffle House,220 EASTERN BY PASS,,RICHMOND,KY,40475,US,37.73609543,-84.31941223,2022-11-26 19:44:51
Waffle House,3871 S.W. COLLEGE RD,,OCALA,FL,34474,US,29.14849281,-82.18802643,2022-11-26 19:44:49
Waffle House,250 S INDIANA AVE,,SELLERSBURG,IN,47172,US,38.39678192,-85.75778961,2022-11-26 19:44:51
Waffle House,1385 GRAND VENTURE,,NORTH PORT,FL,34286,US,27.07229996,-82.20850372,2022-11-26 19:44:49
Waffle House,1515 W MCCLAIN AVE,,SCOTTSBURG,IN,47170,US,38.68482971,-85.79183197,2022-11-26 19:44:51
Waffle House,6608 US HWY 19,,NEW PORT RICHEY,FL,34652,US,28.25355721,-82.72743225,2022-11-26 19:44:49
Waffle House,560 SCHILLINGER RD,,MOBILE,AL,36695,US,30.67868042,-88.22545624,2022-11-26 19:44:49
Waffle House,5018 CAMBRIDGE WAY,,PLAINFIELD,IN,46168,US,39.67950821,-86.37070465,2022-11-26 19:44:51
Waffle House,5448 US HWY 90 W,,MOBILE,AL,36619,US,30.58636093,-88.17008972,2022-11-26 19:44:49
Waffle House,6531 DUDLEY DR.,,NAPLES,FL,34105,US,26.21056747,-81.74090576,2022-11-26 19:44:49
Waffle House,2423 SCHILLINGER RD,,MOBILE,AL,36695,US,30.64039421,-88.22428894,2022-11-26 19:44:49
Waffle House,7810 S STATE RD 13,,PENDLETON,IN,46064,US,39.9905014,-85.84281158,2022-11-26 19:44:51
Waffle House,4 NORTH 130TH STREET,,BONNER SPRINGS,KS,66012,US,39.09770203,-94.88262939,2022-11-26 19:44:51
Waffle House,3824 TOLLHOUSE DR,,NAPLES,FL,34114,US,26.15545654,-81.68585205,2022-11-26 19:44:49
Waffle House,3262 B DAUPHIN ST,,MOBILE,AL,36606,US,30.68906021,-88.12236786,2022-11-26 19:44:49
Waffle House,10910 WEST 75TH ST,,SHAWNEE,KS,66214,US,38.9931488,-94.71243286,2022-11-26 19:44:51
Waffle House,612 WEST HWY 90,,NEW IBERIA,LA,70560,US,29.98564339,-91.85712433,2022-11-26 19:44:49
Waffle House,96 RIVERVIEW DRIVE,,FLOWOOD,MS,39232,US,32.33029938,-90.12599945,2022-11-26 19:44:51
Waffle House,5610 OLD SHELL RD,,MOBILE,AL,36608,US,30.68973541,-88.1728363,2022-11-26 19:44:49
Waffle House,1074 EAST EADS PKWY,,GREENDALE,IN,47025,US,39.12175369,-84.84912109,2022-11-26 19:44:51
Waffle House,1455 E SANTA FE ST,,OLATHE,KS,66061,US,38.88365173,-94.79549408,2022-11-26 19:44:51
Waffle House,9217 MANSFIELD RD,,SHREVEPORT,LA,71118,US,32.40110779,-93.80492401,2022-11-26 19:44:51
Waffle House,1310 HIGHWAY 35 S,,FOREST,MS,39074,US,32.33906937,-89.48400879,2022-11-26 19:44:51
Waffle House,1269 HILLCREST RD,,MOBILE,AL,36695,US,30.66322136,-88.19030762,2022-11-26 19:44:49
Waffle House,5391 W IRLO BRONSON,,KISSIMMEE,FL,34746,US,28.33300209,-81.49862671,2022-11-26 19:44:49
Waffle House,4500 KANSAS AVE,,KANSAS CITY,KS,66106,US,39.09000015,-94.68170166,2022-11-26 19:44:51
Waffle House,925 HWY 82 WEST,,GREENWOOD,MS,38930,US,33.52378082,-90.20514679,2022-11-26 19:44:51
Waffle House,5011 COTTAGE HILL RD,,MOBILE,AL,36609,US,30.64897537,-88.1583252,2022-11-26 19:44:49
Waffle House,1736 NORTH STATE ST.,,GREENFIELD,IN,46140,US,39.80913162,-85.77047729,2022-11-26 19:44:51
Waffle House,111 OAK COURT,,SLIDELL,LA,70458,US,30.22443008,-89.78645325,2022-11-26 19:44:49
Waffle House,612 BEACH DR,,GULFPORT,MS,39507,US,30.37982178,-89.03923035,2022-11-26 19:44:49
Waffle House,1851 GOVERNMENT ST,,MOBILE,AL,36606,US,30.67700768,-88.08282471,2022-11-26 19:44:49
Waffle House,1069 E MAIN ST,,GREENWOOD,IN,46142,US,39.61417389,-86.08139801,2022-11-26 19:44:51
Waffle House,4324 W BEACH BLVD,,GULFPORT,MS,39501,US,30.35831833,-89.11363983,2022-11-26 19:44:49
Waffle House,4642 DEL PRADO BLVD.,,CAPE CORAL,FL,33904,US,26.56489944,-81.94409943,2022-11-26 19:44:49
Waffle House,68071 HIGHWAY 59,,MANDEVILLE,LA,70471,US,30.41497231,-90.04161835,2022-11-26 19:44:49
Waffle House,3810 25TH AVENUE,,GULFPORT,MS,39501,US,30.39631653,-89.0927887,2022-11-26 19:44:49
Waffle House,4959 MOFFETT ROAD,,MOBILE,AL,36618,US,30.71994019,-88.15665436,2022-11-26 19:44:49
Waffle House,662 CORWIN NIXON BLV,,SOUTH LEBANON,OH,45065,US,39.38089752,-84.22108459,2022-11-26 19:44:51
Waffle House,4141 S EMERSON AVE.,,INDIANAPOLIS,IN,46203,US,39.70642853,-86.0822525,2022-11-26 19:44:51
Waffle House,2121 DEL PRADO BLVD.,,CAPE CORAL,FL,33990,US,26.6208992,-81.94090271,2022-11-26 19:44:49
Waffle House,2233 EAST PASS RD.,,GULFPORT,MS,39507,US,30.40060425,-89.00645447,2022-11-26 19:44:49
Waffle House,3428 SPRINGHILL AVE,,MOBILE,AL,36608,US,30.70421028,-88.12602997,2022-11-26 19:44:49
Waffle House,4465 STATE ROAD 520,,COCOA,FL,32926,US,28.35951233,-80.79288483,2022-11-26 19:44:49
Waffle House,8305 DESIARD ST,,MONROE,LA,71201,US,32.52935791,-92.03421021,2022-11-26 19:44:51
Waffle House,9525 HIGHWAY 49,,GULFPORT,MS,39503,US,30.42727089,-89.09255981,2022-11-26 19:44:49
Waffle House,236 EAST MAIN STREET,,APOPKA,FL,32703,US,28.67268562,-81.50659943,2022-11-26 19:44:49
Waffle House,325 WEST SPRING ST,,NEW ALBANY,IN,47150,US,38.28388214,-85.82871246,2022-11-26 19:44:51
Waffle House,206 STATE ROAD 436,,CASSELBERRY,FL,32707,US,28.6583004,-81.33631134,2022-11-26 19:44:49
Waffle House,2106 NE EVANGELINE,,LAFAYETTE,LA,70501,US,30.24862289,-92.01383209,2022-11-26 19:44:49
Waffle House,10435 HWY 49,,GULFPORT,MS,39503,US,30.43832016,-89.09742737,2022-11-26 19:44:49
Waffle House,278 DOUGLAS AVE,,ALTAMONTE SPRINGS,FL,32714,US,28.66513634,-81.39032745,2022-11-26 19:44:49
Waffle House,3018 ST. JOSEPH RD.,,NEW ALBANY,IN,47150,US,38.34580231,-85.79897308,2022-11-26 19:44:51
Waffle House,1728 GAUSE BLVD,,SLIDELL,LA,70461,US,30.28513145,-89.7461319,2022-11-26 19:44:49
Waffle House,963 BROADWAY DRIVE,,HATTIESBURG,MS,39401,US,31.30948067,-89.31543732,2022-11-26 19:44:52
Waffle House,15979 NW US HWY 441,,ALACHUA,FL,32615,US,29.80147171,-82.51078796,2022-11-26 19:44:49
Waffle House,3080 NORTH MARKET ST,,SHREVEPORT,LA,71107,US,32.55845642,-93.78372192,2022-11-26 19:44:51
Waffle House,6512 HWY 49 NORTH,,HATTIESBURG,MS,39401,US,31.3491478,-89.3364563,2022-11-26 19:44:52
Waffle House,7954 NE 8TH WAY,,WILDWOOD,FL,34785,US,28.87204552,-82.09018707,2022-11-26 19:44:49
Waffle House,7290 PENDLETON PIKE,,LAWRENCE,IN,46226,US,39.82999039,-86.04051208,2022-11-26 19:44:51
Waffle House,5801 READ BLVD,,NEW ORLEANS,LA,70127,US,30.03506088,-89.97440338,2022-11-26 19:44:49
Waffle House,12880 MISSISSIPPI,,AURORA,CO,80012,US,39.69623566,-104.83876801,2022-11-26 19:45:00
Waffle House,222 WOLFENSBERGER RD,,CASTLE ROCK,CO,80109,US,39.37992859,-104.8647995,2022-11-26 19:45:00
Waffle House,1039 SPACE CENTER DR,,COLORADO SPRINGS,CO,80915,US,38.84671021,-104.72171021,2022-11-26 19:45:00
Waffle House,8401 PEARL STREET,,THORNTON,CO,80229,US,39.84936905,-104.97963715,2022-11-26 19:45:00
Waffle House,19312 E PLAZA DR,,PARKER,CO,80138,US,39.52656937,-104.76534271,2022-11-26 19:45:00
Waffle House,3811 HWY 119 AT I 25,,LONGMONT,CO,80504,US,40.16087341,-104.98419952,2022-11-26 19:45:00
Waffle House,201 E COUNTY LINE RD,,LITTLETON,CO,80122,US,39.56657028,-104.98578644,2022-11-26 19:45:00
Waffle House,3850 E. MULBERRY,,FORT COLLINS,CO,80524,US,40.58227539,-105.00479889,2022-11-26 19:45:00
Waffle House,755 WEST FILLMORE,,COLORADO SPRINGS,CO,80907,US,38.87635803,-104.83657837,2022-11-26 19:45:00
Waffle House,4180 AUSTIN BLUFFS,,COLORADO SPRINGS,CO,80918,US,38.89169693,-104.75444031,2022-11-26 19:45:00
Waffle House,2108 S WESTERN ST,,AMARILLO,TX,79109,US,35.18975067,-101.88427734,2022-11-26 19:45:00
Waffle House,2804 W 45TH AVE,,AMARILLO,TX,79106,US,35.16399765,-101.86956024,2022-11-26 19:45:00
Waffle House,2110 S COULTER ST,,AMARILLO,TX,79106,US,35.18877792,-101.92116547,2022-11-26 19:45:00
Waffle House,6310 HOLLYWOOD RD,,AMARILLO,TX,79110,US,35.11704254,-101.90581512,2022-11-26 19:45:00
Waffle House,13207 CENTRAL AVE.,,ALBUQUERQUE,NM,87123,US,35.0685463,-106.49932098,2022-11-26 19:45:00
Waffle House,2250 YALE BLVD. S.E.,,ALBUQUERQUE,NM,87106,US,35.05612183,-106.6217804,2022-11-26 19:45:00
Waffle House,101 E 29TH AVE,,APACHE JUNCTION,AZ,85119,US,33.38871002,-111.54496765,2022-11-26 19:45:00
Waffle House,820 NORTH DYSART RD,,GOODYEAR,AZ,85338,US,33.45547104,-112.34128571,2022-11-26 19:45:00
Waffle House,1801 W BASELINE RD,,GUADALUPE,AZ,85283,US,33.3781662,-111.96658325,2022-11-26 19:45:00
Waffle House,709 W STARR PASS,,TUCSON,AZ,85713,US,32.20658112,-110.98082733,2022-11-26 19:45:00
Waffle House,1380 W GRANT RD,,TUCSON,AZ,85705,US,32.25044632,-110.99484253,2022-11-26 19:45:00
Waffle House,2701 E VALENCIA RD,,TUCSON,AZ,85706,US,32.13418579,-110.93235016,2022-11-26 19:45:00
Waffle House,3565 E IRVINGTON RD,,TUCSON,AZ,85714,US,32.163517,-110.91634369,2022-11-26 19:45:00
Waffle House,8325 W. MCDOWELL RD,,TOLLESON,AZ,85353,US,33.46505737,-112.23918915,2022-11-26 19:45:00
Waffle House,2189 E UNIVERSITY DR,,TEMPE,AZ,85281,US,33.42179871,-111.8923111,2022-11-26 19:45:00
Waffle House,2516 W BELL RD,,PHOENIX,AZ,85023,US,33.64048386,-112.11286926,2022-11-26 19:45:00
Waffle House,4824 E CHANDLER BLVD,,PHOENIX,AZ,85048,US,33.30595398,-111.97920227,2022-11-26 19:45:00
Waffle House,3363 E UNIVERSITY DR,,PHOENIX,AZ,85040,US,33.41561127,-112.00814819,2022-11-26 19:45:00
Waffle House,2627 W DEER VALLEY,,PHOENIX,AZ,85027,US,33.68382263,-112.11638641,2022-11-26 19:45:00
Waffle House,5055 EAST MCKELLIPS,,MESA,AZ,85215,US,33.45154572,-111.72097015,2022-11-26 19:45:00
Waffle House,1831 SOUTH COUNTRY,,MESA,AZ,85210,US,33.38176727,-111.84008789,2022-11-26 19:45:00
