company_name,address_line_1,address_line_2,city,state_alpha,postal_code,country_code,latitude,longitude,when_verified
Whataburger,8000 FM 423,,Frisco,TX,75036,US,33.14601898,-96.89028168,2022-12-16 15:27:43
Whataburger,11650 N Dallas Pkwy,,Frisco,TX,75034,US,33.17436218,-96.83849335,2022-12-16 15:27:43
Whataburger,5266 Preston Rd,,Frisco,TX,75034,US,33.12279129,-96.80492401,2022-12-16 15:27:43
Whataburger,4687 State Highway 121,,The Colony,TX,75056,US,33.06505203,-96.89282227,2022-12-16 15:27:43
Whataburger,1201 S Preston Rd,,Prosper,TX,75078,US,33.22140503,-96.79924011,2022-12-16 15:27:43
Whataburger,6401 Coit Rd,,Plano,TX,75024,US,33.0594902,-96.77098083,2022-12-16 15:27:43
Whataburger,8608 State Highway 121,,McKinney,TX,75070,US,33.12818527,-96.72698975,2022-12-16 15:27:43
Whataburger,3424 E Hebron Pkwy,,Carrollton,TX,75010,US,33.02638626,-96.84098816,2022-12-16 15:27:43
Whataburger,9053 W University Dr,,McKinney,TX,75071,US,33.21799469,-96.73384094,2022-12-16 15:27:43
Whataburger,6151 Eldorado Pkwy,,McKinney,TX,75070,US,33.17354584,-96.69605255,2022-12-16 15:27:43
Whataburger,9822 Gaston Rd,,Katy,TX,77494,US,29.73586845,-95.81176758,2022-12-16 15:27:45
Whataburger,25635 Katy Fwy,,Katy,TX,77494,US,29.77485275,-95.82048035,2022-12-16 15:27:45
Whataburger,23540 Westheimer Pkwy,,Katy,TX,77494,US,29.73414612,-95.77539062,2022-12-16 15:27:43
Whataburger,27002 FM 1093 Rd,,Richmond,TX,77406,US,29.69558334,-95.84442902,2022-12-16 15:27:49
Whataburger,22710 Bellaire Blvd,,Richmond,TX,77406,US,29.68962669,-95.77219391,2022-12-16 15:27:43
Whataburger,307 S Mason Road,,Katy,TX,77450,US,29.78266907,-95.75130463,2022-12-16 15:27:43
Whataburger,2940 W Grand Pkwy N,,Katy,TX,77449,US,29.8157444,-95.77069092,2022-12-16 15:27:45
Whataburger,1225 Fry Road,,Katy,TX,77449,US,29.7877388,-95.72020721,2022-12-16 15:27:43
Whataburger,4817 Waterview Town Center Dr,,Richmond,TX,77407,US,29.66037178,-95.71742249,2022-12-16 15:27:43
Whataburger,2901 E Bell Rd,,Phoenix,AZ,85032,US,33.64030457,-112.01960754,2022-12-16 15:27:49
Whataburger,12440 N Tatum Blvd,,Phoenix,AZ,85032,US,33.60063934,-111.98015594,2022-12-16 15:27:43
Whataburger,2910 W Thunderbird Rd,,Phoenix,AZ,85053,US,33.61138916,-112.12093353,2022-12-16 15:27:43
Whataburger,4280 W Bell Rd,,Glendale,AZ,85308,US,33.63980865,-112.15119934,2022-12-18 06:25:17
Whataburger,9990 N 90th St,,Scottsdale,AZ,85258,US,33.57709885,-111.88628387,2022-12-16 15:27:49
Whataburger,2460 W Bethany Home Rd,,Phoenix,AZ,85015,US,33.52524948,-112.11147308,2022-12-18 06:25:21
Whataburger,12140 Montwood Drive,,El Paso,TX,79936,US,31.76023483,-106.27062225,2022-12-16 15:27:47
Whataburger,1755 N Lee Trevino Dr,,El Paso,TX,79936,US,31.76353836,-106.31945038,2022-12-16 15:27:39
Whataburger,11075 Gateway West,,El Paso,TX,79935,US,31.7450695,-106.33200073,2022-12-16 15:27:45
Whataburger,1310 George Dieter Dr,,El Paso,TX,79936,US,31.72157097,-106.30345154,2022-12-16 15:27:45
Whataburger,1198 N Yarbrough Dr,,El Paso,TX,79925,US,31.7559185,-106.34196472,2022-12-16 15:27:39
Whataburger,12302 Montana Ave,,El Paso,TX,79938,US,31.80698586,-106.25959778,2022-12-16 15:27:47
Whataburger,8055 North Loop,,El Paso,TX,79915,US,31.72906494,-106.34799194,2022-12-16 15:27:45
Whataburger,7400 Gateway Blvd E,,El Paso,TX,79915,US,31.76474762,-106.36653137,2022-12-16 15:27:39
Whataburger,9500 Montana Ave,,El Paso,TX,79925,US,31.79400253,-106.35899353,2022-12-16 15:27:39
Whataburger,13391 Gateway West Blvd,,El Paso,TX,79928,US,31.68781853,-106.26703644,2022-12-18 06:25:21
Whataburger,3845 S Carrier Pkwy,,Grand Prairie,TX,75052,US,32.67893982,-97.00637054,2022-12-18 06:25:20
Whataburger,2630 South S.H. 161,,Grand Prairie,TX,75052,US,32.70774078,-97.02362823,2022-12-18 06:25:20
Whataburger,3360 S Watson Rd,,Arlington,TX,76014,US,32.69240952,-97.06388092,2022-12-18 06:25:20
Whataburger,4120 S Collins St,,Arlington,TX,76014,US,32.68013763,-97.09407806,2022-12-18 06:25:20
Whataburger,211 S Watson Rd,,Arlington,TX,76010,US,32.73472595,-97.06136322,2022-12-18 06:25:20
Whataburger,1404 N State Highway 161,,Grand Prairie,TX,75050,US,32.75792313,-97.02813721,2022-12-18 06:25:20
Whataburger,930 E Interstate 30,,Grand Prairie,TX,75050,US,32.75966263,-96.99351501,2022-12-18 06:25:20
Whataburger,3519 S Cooper St,,Arlington,TX,76015,US,32.68776703,-97.13002777,2022-12-16 15:27:43
Whataburger,5869 S Cooper St,,Arlington,TX,76017,US,32.65129852,-97.13445282,2022-12-16 15:27:45
Whataburger,311 W Camp Wisdom Rd,,Duncanville,TX,75116,US,32.66231537,-96.91186523,2022-12-16 15:27:45
Whataburger,1004 State Hwy 123,,San Marcos,TX,78666,US,29.86768532,-97.93932343,2022-12-18 06:25:21
Whataburger,4040 S Interstate 35,,San Marcos,TX,78666,US,29.82738876,-97.98711395,2022-12-18 06:25:21
Whataburger,10028 E 71st St,,Tulsa,OK,74133,US,36.06056213,-95.8646698,2022-12-16 15:27:39
Whataburger,10121 S Memorial Dr,,Tulsa,OK,74133,US,36.01565933,-95.88574219,2022-12-16 15:27:43
Whataburger,6004 S Sheridan Rd,,Tulsa,OK,74145,US,36.07791519,-95.90479279,2022-12-16 15:27:39
Whataburger,5726 East 41st Street,,Tulsa,OK,74135,US,36.10399246,-95.91207123,2022-12-18 06:25:19
Whataburger,10675 E 31st St,,Tulsa,OK,74146,US,36.11936188,-95.85688019,2022-12-16 15:27:39
Whataburger,4888 E 21st St S,,Tulsa,OK,74114,US,36.1329689,-95.92304993,2022-12-18 06:25:19
Whataburger,7760 S Olympia Ave,,Tulsa,OK,74132,US,36.05174637,-96.00566864,2022-12-18 06:25:19
Whataburger,2341 E Kenosha St,,Broken Arrow,OK,74012,US,36.06049728,-95.76377869,2022-12-16 15:27:43
Whataburger,12110 S Waco Ave.,,Glenpool,OK,74033,US,35.98694992,-96.01680756,2022-12-16 15:27:43
Whataburger,1432 S Peoria Ave,,Tulsa,OK,74120,US,36.14125824,-95.97592926,2022-12-18 06:25:19
Whataburger,7430 Louetta Rd,,Spring,TX,77379,US,30.01890755,-95.52846527,2022-12-16 15:27:45
Whataburger,4608 FM 1960 West Rd,,Houston,TX,77069,US,29.98726845,-95.50052643,2022-12-16 15:27:45
Whataburger,21710 Kuykendahl Rd,,Spring,TX,77379,US,30.0831337,-95.52220154,2022-12-16 15:27:45
Whataburger,22603 Tomball Pkwy,,Tomball,TX,77375,US,30.01423645,-95.59230804,2022-12-16 15:27:45
Whataburger,7210 FM 1960 Rd W,,Houston,TX,77069,US,29.96707153,-95.53710938,2022-12-16 15:27:45
Whataburger,1604 FM 1960 West,,Houston,TX,77090,US,30.01265335,-95.45426941,2022-12-16 15:27:45
Whataburger,12663 Veterans Memorial Drive,,Houston,TX,77014,US,29.97059441,-95.48579407,2022-12-16 15:27:45
Whataburger,2115 FM 2920 Rd,,Spring,TX,77388,US,30.06921577,-95.44758606,2022-12-16 15:27:45
Whataburger,20550 Interstate 45,,Spring,TX,77373,US,30.06452942,-95.4331665,2022-12-16 15:27:45
Whataburger,28315 Tomball Pkwy,,Tomball,TX,77375,US,30.08589554,-95.63206482,2022-12-16 15:27:45
Whataburger,1835 Old Fort Parkway,,Murfreesboro,TN,37129,US,35.84526062,-86.42423248,2022-12-16 15:27:46
Whataburger,360 W Sam Ridley Parkway,,Smyrna,TN,37167,US,35.99650955,-86.52198029,2022-12-16 15:27:46
Whataburger,705 Town Park Lane NW,,Kennesaw,GA,30144,US,34.03629303,-84.57138824,2022-12-16 15:27:50
Whataburger,388 E Stacy Rd,,Allen,TX,75002,US,33.12897873,-96.64797974,2022-12-16 15:27:43
Whataburger,445 S Central Expy,,McKinney,TX,75070,US,33.19510651,-96.638237,2022-12-16 15:27:43
Whataburger,4970 W University Dr,,McKinney,TX,75071,US,33.21873856,-96.67761993,2022-12-16 15:27:43
Whataburger,3521 N Central Expy,,Plano,TX,75023,US,33.04484558,-96.7015152,2022-12-16 15:27:43
Whataburger,1221 Highway 157 N,,Mansfield,TX,76063,US,32.58100128,-97.15119171,2022-12-16 15:27:46
Whataburger,3320 E Broad St,,Mansfield,TX,76063,US,32.57573318,-97.08295441,2022-12-16 15:27:46
Whataburger,5321 West Sublett Road,,Arlington,TX,76001,US,32.64672852,-97.1886673,2022-12-16 15:27:46
Whataburger,4408 Little Rd,,Arlington,TX,76016,US,32.67591858,-97.1987381,2022-12-16 15:27:43
Whataburger,101 West Highway 67,,Venus,TX,76084,US,32.43537903,-97.10471344,2022-12-18 06:25:22
Whataburger,26040 US-290 Frontage,,Cypress,TX,77429,US,29.97259331,-95.6947403,2022-12-16 15:27:43
Whataburger,28630 US-290 Frontage,,Cypress,TX,77433,US,29.9920845,-95.74902344,2022-12-16 15:27:43
Whataburger,9130 Barker Cypress Rd,,Cypress,TX,77433,US,29.91120529,-95.68559265,2022-12-16 15:27:43
Whataburger,10843 FM 1960 West,,Houston,TX,77070,US,29.93394279,-95.58244324,2022-12-16 15:27:46
Whataburger,8930 Fry Rd,,Cypress,TX,77433,US,29.91186333,-95.72571564,2022-12-16 15:27:43
Whataburger,8534 Highway 6 N,,Houston,TX,77095,US,29.90253448,-95.63311005,2022-12-16 15:27:43
Whataburger,1300 Airway Blvd STE B,,El Paso,TX,79925,US,31.78648186,-106.39515686,2022-12-16 15:27:39
Whataburger,5600 Montana Ave,,El Paso,TX,79925,US,31.78327942,-106.42157745,2022-12-16 15:27:39
Whataburger,3500 Dyer St,,El Paso,TX,79930,US,31.80807877,-106.44441223,2022-12-18 06:25:22
Whataburger,6131 N Fry Rd,,Katy,TX,77449,US,29.86311531,-95.72114563,2022-12-16 15:27:43
Whataburger,5815 Highway 6 North,,Houston,TX,77084,US,29.86071205,-95.64575958,2022-12-16 15:27:43
Whataburger,2990 Gulf Fwy S,,League City,TX,77573,US,29.46801376,-95.08905029,2022-12-16 15:27:45
Whataburger,2212 E Main St,,League City,TX,77573,US,29.52371025,-95.07645416,2022-12-16 15:27:45
Whataburger,100 Nasa Road 1,,Webster,TX,77598,US,29.53763771,-95.11898041,2022-12-16 15:27:45
Whataburger,305 FM 518 Rd,,Kemah,TX,77565,US,29.53564262,-95.02068329,2022-12-16 15:27:45
Whataburger,18190 Gulf Fwy,,Friendswood,TX,77546,US,29.55319977,-95.15686035,2022-12-16 15:27:45
Whataburger,214 E Parkwood Ave,,Friendswood,TX,77546,US,29.51081276,-95.18744659,2022-12-16 15:27:45
Whataburger,6300 Gulf Freeway,,La Marque,TX,77568,US,29.40133858,-95.03295135,2022-12-16 15:27:46
Whataburger,106 N Friendswood Dr,,Friendswood,TX,77546,US,29.53408051,-95.20717621,2022-12-16 15:27:45
Whataburger,10011 San Pedro,,San Antonio,TX,78216,US,29.53191376,-98.49692535,2022-12-16 15:27:49
Whataburger,14646 Blanco Rd,,San Antonio,TX,78216,US,29.57670593,-98.51285553,2022-12-16 15:27:43
Whataburger,14543 Brook Hollow Blvd,,San Antonio,TX,78232,US,29.57989311,-98.47615814,2022-12-16 15:27:45
Whataburger,9800 Airport Blvd,,San Antonio,TX,78216,US,29.52159309,-98.47663879,2022-12-16 15:27:48
Whataburger,11003 NW Military Hwy,,San Antonio,TX,78231,US,29.5553875,-98.53475189,2022-12-16 15:27:43
Whataburger,8481 N US Highway 281,,San Antonio,TX,78216,US,29.51573372,-98.47863007,2022-12-16 15:27:43
Whataburger,8426 Broadway St,,San Antonio,TX,78209,US,29.5159893,-98.46437836,2022-12-16 15:27:43
Whataburger,2557 NW Loop 410,,San Antonio,TX,78230,US,29.512537,-98.53469849,2022-12-16 15:27:46
Whataburger,18330 Blanco Rd,,San Antonio,TX,78258,US,29.61106873,-98.50792694,2022-12-16 15:27:45
Whataburger,5900 San Pedro Ave,,San Antonio,TX,78212,US,29.48870087,-98.49887085,2022-12-16 15:27:48
Whataburger,9232 W Sam Houston Pkwy N,,Houston,TX,77064,US,29.90424347,-95.55212402,2022-12-16 15:27:46
Whataburger,17234 Northwest Fwy,,Jersey Village,TX,77040,US,29.88978195,-95.58229065,2022-12-16 15:27:46
Whataburger,870 N Resler Dr,,El Paso,TX,79912,US,31.85857201,-106.55728149,2022-12-18 06:25:22
Whataburger,5270 Doniphan Dr,,El Paso,TX,79932,US,31.85054207,-106.58289337,2022-12-18 06:25:22
Whataburger,650 Sunland Park Dr,,El Paso,TX,79912,US,31.81978989,-106.54016876,2022-12-18 06:25:22
Whataburger,7057 S Desert Blvd,,Canutillo,TX,79835,US,31.91206932,-106.58390045,2022-12-18 06:25:22
Whataburger,8101 Dyer St,,El Paso,TX,79904,US,31.85364532,-106.4393158,2022-12-18 06:25:22
Whataburger,2201 N Mesa St,,El Paso,TX,79902,US,31.77332878,-106.50045776,2022-12-18 06:25:22
Whataburger,4640 Woodrow Bean Transmtn Dr,,El Paso,TX,79924,US,,,2022-12-18 06:25:21
Whataburger,2130 E Paisano Dr,,El Paso,TX,79905,US,31.76602745,-106.46150208,2022-12-16 15:27:45
Whataburger,5779 Fairbanks Dr,,El Paso,TX,79924,US,31.90072632,-106.40744781,2022-12-18 06:25:21
Whataburger,1346 South Rural Road,,Tempe,AZ,85281,US,33.41310883,-111.92671967,2022-12-18 06:25:21
Whataburger,4610 S 48th St,,Phoenix,AZ,85040,US,33.40572357,-111.97880554,2022-12-18 06:25:21
Whataburger,7134 E Thomas Rd,,Scottsdale,AZ,85251,US,33.48064423,-111.92805481,2022-12-18 06:25:21
Whataburger,2955 N Hayden Rd,,Scottsdale,AZ,85251,US,33.48170471,-111.90850067,2022-12-18 06:25:21
Whataburger,1947 W Broadway Rd,,Mesa,AZ,85202,US,33.40717697,-111.87348175,2022-12-18 06:25:21
Whataburger,1800 W Elliot Rd,,Tempe,AZ,85284,US,33.34972763,-111.96638489,2022-12-18 06:25:21
Whataburger,737 E McDowell Rd,,Phoenix,AZ,85006,US,33.46547699,-112.06352997,2022-12-18 06:25:21
Whataburger,450 W Indian School Rd,,Phoenix,AZ,85013,US,33.49507141,-112.07992554,2022-12-18 06:25:21
Whataburger,1840 S 19th Ave,,Phoenix,AZ,85009,US,33.42973328,-112.10031128,2022-12-18 06:25:21
Whataburger,7375 W Chandler Blvd,,Chandler,AZ,85226,US,33.30485535,-111.96822357,2022-12-16 15:27:46
Whataburger,8922 W Bell Rd,,Peoria,AZ,85382,US,33.63856125,-112.25113678,2022-12-18 06:25:17
Whataburger,3204 Town East Blvd.,,Mesquite,TX,75150,US,32.80260468,-96.64420319,2022-12-16 15:27:47
Whataburger,2943 N Galloway Ave,,Mesquite,TX,75150,US,32.8066597,-96.61177826,2022-12-16 15:27:45
Whataburger,5806 Broadway Blvd.,,Garland,TX,75043,US,32.84502792,-96.59510803,2022-12-16 15:27:45
Whataburger,725 E Centerville Rd,,Garland,TX,75041,US,32.8783989,-96.62253571,2022-12-16 15:27:46
Whataburger,5525 S Buckner Blvd,,Dallas,TX,75228,US,32.79333115,-96.68545532,2022-12-16 15:27:43
Whataburger,11721 E. NW Highway,,Dallas,TX,75218,US,32.86461639,-96.67814636,2022-12-16 15:27:45
Whataburger,1726 Military Parkway,,Mesquite,TX,75149,US,32.76742554,-96.62413788,2022-12-16 15:27:45
Whataburger,128 E Kearney St,,Mesquite,TX,75149,US,32.77007294,-96.59776306,2022-12-16 15:27:45
Whataburger,382 E US Hwy 80,,Sunnyvale,TX,75182,US,32.7840538,-96.56498718,2022-12-16 15:27:45
Whataburger,4500 Bass Pro Drive,,Garland,TX,75043,US,32.86467743,-96.54199982,2022-12-16 15:27:45
Whataburger,500 N Bell Blvd,,Cedar Park,TX,78613,US,30.51499939,-97.82576752,2022-12-16 15:27:38
Whataburger,2740 E Whitestone Blvd,,Cedar Park,TX,78613,US,30.53266716,-97.78716278,2022-12-16 15:27:43
Whataburger,1520 Cypress Creek Road,,Cedar Park,TX,78613,US,30.47987556,-97.83281708,2022-12-16 15:27:37
Whataburger,13235 Ranch Rd 620 N,,Austin,TX,78717,US,30.46957016,-97.79064941,2022-12-16 15:27:37
Whataburger,140 W Metro Rd,,Leander,TX,78641,US,30.5871067,-97.85781097,2022-12-16 15:27:43
Whataburger,17000 N RM 620,,Round Rock,TX,78681,US,30.50197792,-97.72031403,2022-12-16 15:27:43
Whataburger,6301 W Parmer Ln,,Austin,TX,78729,US,30.44558144,-97.74407959,2022-12-16 15:27:37
Whataburger,8300 N FM 620,,Austin,TX,78726,US,30.4236412,-97.84539795,2022-12-16 15:27:37
Whataburger,281 University Blvd,,Round Rock,TX,78665,US,30.55897713,-97.68745422,2022-12-16 15:27:43
Whataburger,1501 South IH 35,,Round Rock,TX,78664,US,30.49518585,-97.67765045,2022-12-16 15:27:43
Whataburger,5055 Old Hickory Blvd,,Hermitage,TN,37076,US,36.19242859,-86.61736298,2022-12-16 15:27:51
Whataburger,18004 Highway 59 N,,Humble,TX,77396,US,29.98020363,-95.27625275,2022-12-16 15:27:46
Whataburger,8430 FM 1960 Bypass Rd W,,Humble,TX,77338,US,30.0042305,-95.29872894,2022-12-16 15:27:46
Whataburger,3100 N Terminal Rd.,,Houston,TX,77032,US,29.9870472,-95.34553528,2022-12-16 15:27:50
Whataburger,4831 Wilson Rd,,Humble,TX,77396,US,29.93608093,-95.24904633,2022-12-16 15:27:45
Whataburger,320 Northpark Dr,,Kingwood,TX,77339,US,30.0683651,-95.24342346,2022-12-16 15:27:43
Whataburger,2627 FM 1960 Rd,,Houston,TX,77073,US,30.02282524,-95.38813019,2022-12-16 15:27:45
Whataburger,4545 Kingwood Dr,,Kingwood,TX,77345,US,30.05134964,-95.1841507,2022-12-16 15:27:43
Whataburger,13933 E Sam Houston Pkwy N,,Houston,TX,77044,US,29.92300797,-95.20085907,2022-12-16 15:27:45
Whataburger,7530 FM 1960 Rd E,,Atascocita,TX,77346,US,29.99846077,-95.16088104,2022-12-16 15:27:46
Whataburger,23607 Highway 59,,Porter,TX,77365,US,30.10546494,-95.23522949,2022-12-18 06:25:20
Whataburger,7833 Hwy 72 West,,Madison,AL,35758,US,34.75313568,-86.74235535,2022-12-18 06:25:21
Whataburger,7165 Philips Hwy,,Jacksonville,FL,32256,US,30.24260712,-81.59809875,2022-12-16 15:27:47
Whataburger,8840 Beach Blvd,,Jacksonville,FL,32216,US,30.2863884,-81.56349182,2022-12-16 15:27:49
Whataburger,11559 Atlantic Blvd,,Jacksonville,FL,32225,US,30.32240868,-81.49819946,2022-12-16 15:27:49
Whataburger,6970 Eastchase Loop,,Montgomery,AL,36117,US,32.35929489,-86.16939545,2022-12-18 06:25:21
Whataburger,8420 W 135th St.,,Overland Park,KS,66223,US,38.88425827,-94.68360901,2022-12-18 06:25:20
Whataburger,101 W Southwest Pkwy,,Lewisville,TX,75067,US,33.01947403,-96.99347687,2022-12-16 15:27:45
Whataburger,730 N Denton Tap Rd,,Coppell,TX,75019,US,32.98715973,-96.99235535,2022-12-16 15:27:45
Whataburger,171 N Stemmons Fwy,,Lewisville,TX,75067,US,33.0472641,-97.01007843,2022-12-16 15:27:45
Whataburger,2000 State Highway 26,,Grapevine,TX,76051,US,32.95911026,-97.04304504,2022-12-16 15:27:48
Whataburger,1033 East Trinity Mills,,Carrollton,TX,75006,US,32.98432159,-96.90792847,2022-12-16 15:27:45
Whataburger,2900 N. Airfield Drive,,Dallas,TX,75261,US,32.91992569,-97.02043915,2022-12-16 15:27:50
Whataburger,2710 FM 407,,Highland Village,TX,75077,US,33.07415771,-97.07151794,2022-12-16 15:27:45
Whataburger,401 E Northwest Hwy,,Grapevine,TX,76051,US,32.94136429,-97.07466125,2022-12-16 15:27:48
Whataburger,850 Market Pl,,Irving,TX,75063,US,32.91705704,-96.9595108,2022-12-16 15:27:47
Whataburger,18180 Dallas Pkwy,,Dallas,TX,75287,US,32.99674225,-96.8286438,2022-12-16 15:27:43
Whataburger,18253 Marsh Ln,,Dallas,TX,75287,US,32.99811935,-96.8561554,2022-12-16 15:27:43
Whataburger,433 Coit Rd,,Plano,TX,75075,US,33.00444412,-96.76842499,2022-12-16 15:27:43
Whataburger,1910 N Coit Rd,,Richardson,TX,75080,US,32.97631454,-96.76781464,2022-12-16 15:27:43
Whataburger,15255 Montfort Dr,,Dallas,TX,75248,US,32.95803452,-96.81884766,2022-12-16 15:27:43
Whataburger,6849 South Broadway,,Tyler,TX,75703,US,32.27482605,-95.30743408,2022-12-18 06:25:17
Whataburger,5916 Old Jacksonville Highway,,Tyler,TX,75703,US,32.28391647,-95.33078766,2022-12-18 06:25:17
Whataburger,16772 FM 2493,,Tyler,TX,75703,US,32.23622131,-95.34911346,2022-12-18 06:25:17
Whataburger,4825 South Broadway,,Tyler,TX,75703,US,32.29636383,-95.30172729,2022-12-18 06:25:17
Whataburger,12405 Texas 155,,Tyler,TX,75703,US,32.30134583,-95.33948517,2022-12-18 06:25:17
Whataburger,5003 Troup Hwy,,Tyler,TX,75707,US,32.29629898,-95.26322937,2022-12-16 15:27:41
Whataburger,1739 South Beckham,,Tyler,TX,75701,US,32.32972336,-95.29096222,2022-12-18 06:25:22
Whataburger,1717 Loop 323,,Tyler,TX,75701,US,32.33069992,-95.26652527,2022-12-16 15:27:41
Whataburger,345 S SW Loop 323,,Tyler,TX,75702,US,32.34743118,-95.34307098,2022-12-18 06:25:22
Whataburger,2215 W Gentry Pkwy,,Tyler,TX,75702,US,32.36737442,-95.32510376,2022-12-18 06:25:22
Whataburger,547 SW Wilshire Blvd,,Burleson,TX,76028,US,32.53641891,-97.33379364,2022-12-16 15:27:48
Whataburger,125 Sycamore School Rd.,,Fort Worth,TX,76134,US,32.63484955,-97.32354736,2022-12-16 15:27:45
Whataburger,708 North Parkway,,Alvarado,TX,76009,US,32.41770554,-97.22402191,2022-12-18 06:25:22
Whataburger,5545 McPherson Blvd,,Fort Worth,TX,76123,US,32.60623932,-97.4100647,2022-12-16 15:27:45
Whataburger,3160 SE Loop 820,,Fort Worth,TX,76140,US,32.66072464,-97.28291321,2022-12-16 15:27:46
Whataburger,3501 Alta Mesa Blvd.,,Fort Worth,TX,76133,US,32.6493454,-97.36832428,2022-12-16 15:27:45
Whataburger,"DFW International Airport, D17",,Dallas,TX,75261,US,32.89981079,-97.04033661,2022-12-16 15:27:50
Whataburger,2610 N. International Pkwy,,DFW Airport,TX,75261,US,32.89782715,-97.04037476,2022-12-16 15:27:50
Whataburger,1201 West Glade Road,,Euless,TX,76039,US,32.88104248,-97.10085297,2022-12-16 15:27:46
Whataburger,9100 N Tarrant Pkwy,,North Richland Hills,TX,76182,US,32.90327072,-97.19174194,2022-12-16 15:27:43
Whataburger,8820 Highway 6,,Missouri City,TX,77459,US,29.53911018,-95.53760529,2022-12-16 15:27:45
Whataburger,5970 Hwy 6,,Missouri City,TX,77459,US,29.56632423,-95.5658493,2022-12-16 15:27:43
Whataburger,4530 Hwy 6,,Sugar Land,TX,77478,US,29.58142662,-95.58515167,2022-12-16 15:27:43
Whataburger,7418 S Sam Houston Pkwy W,,Houston,TX,77085,US,29.61573029,-95.49633026,2022-12-16 15:27:45
Whataburger,2406 S Main St,,Pearland,TX,77581,US,29.56283379,-95.28645325,2022-12-16 15:27:43
Whataburger,3040 Silverlake Village Dr,,Pearland,TX,77584,US,29.55407333,-95.38600159,2022-12-16 15:27:50
Whataburger,11025 Shadow Creek Parkway,,Pearland,TX,77584,US,29.58177757,-95.38870239,2022-12-16 15:27:50
Whataburger,11510 Pearland Pkwy,,Houston,TX,77089,US,29.5978775,-95.26696014,2022-12-16 15:27:43
Whataburger,11116 Fuqua St,,Houston,TX,77089,US,29.61255455,-95.22031403,2022-12-16 15:27:43
Whataburger,8927 Clearwood Dr,,Houston,TX,77075,US,29.63985062,-95.24422455,2022-12-16 15:27:43
Whataburger,6402 Telephone Rd,,Houston,TX,77061,US,29.6714592,-95.28957367,2022-12-16 15:27:43
Whataburger,105 Dominik Dr,,College Station,TX,77840,US,30.6186142,-96.32215118,2022-12-16 15:27:45
Whataburger,1451 Wellborn Rd,,College Station,TX,77840,US,30.59028625,-96.32944489,2022-12-16 15:27:45
Whataburger,1745 Rock Prairie Rd,,College Station,TX,77845,US,30.58368683,-96.28842163,2022-12-16 15:27:45
Whataburger,3109 Texas Ave,,Bryan,TX,77845,US,30.64248848,-96.35123444,2022-12-16 15:27:45
Whataburger,902 S Texas Ave,,Bryan,TX,77803,US,30.66485977,-96.37167358,2022-12-16 15:27:45
Whataburger,4471 State Hwy 6 S,,College Station,TX,77845,US,30.56108093,-96.2578125,2022-12-16 15:27:49
Whataburger,123 Creekside Crossing,,New Braunfels,TX,78130,US,29.72790146,-98.07617188,2022-12-16 15:27:43
Whataburger,143 S Interstate 35,,New Braunfels,TX,78130,US,29.69004822,-98.11091614,2022-12-16 15:27:43
Whataburger,1687 Texas 46,,New Braunfels,TX,78132,US,29.71611977,-98.16027832,2022-12-16 15:27:43
Whataburger,1520 North State Highway 46,,Seguin,TX,78155,US,29.58189201,-97.99150848,2022-12-16 15:27:49
Whataburger,4640 E Palm Valley Blvd,,Round Rock,TX,78665,US,30.53261185,-97.61371613,2022-12-16 15:27:45
Whataburger,18609 Limestone Commercial Dr,,Pflugerville,TX,78660,US,30.46538162,-97.59677124,2022-12-16 15:27:43
Whataburger,5012 Gattis School Road,,Hutto,TX,78634,US,30.50285912,-97.58169556,2022-12-16 15:27:45
Whataburger,14310-A IH 35,,Austin,TX,78728,US,30.43322182,-97.67086029,2022-12-16 15:27:43
Whataburger,1201 Atlantic Blvd,,Neptune Beach,FL,32266,US,30.32406044,-81.40943146,2022-12-16 15:27:49
Whataburger,4335 S Pleasant Crossing Blvd,,Rogers,AR,72758,US,36.28208923,-94.15103149,2022-12-16 15:27:49
Whataburger,6140 Dublin Blvd,,Colorado Springs,CO,80923,US,38.9261055,-104.71351624,2022-12-18 06:25:21
Whataburger,5905 Constitution Ave,,Colorado Springs,CO,80915,US,38.87114716,-104.7171936,2022-12-18 06:25:21
Whataburger,1310 Interquest Pkwy,,Colorado Springs,CO,80921,US,38.99094009,-104.80184937,2022-12-16 15:27:43
Whataburger,1235 West St Mary's Road,,Tucson,AZ,85745,US,32.22903442,-110.99197388,2022-12-18 06:25:20
Whataburger,921 E Tucson Marketplace Blvd,,Tucson,AZ,85713,US,32.18715668,-110.95584869,2022-12-18 06:25:20
Whataburger,5402 E Speedway Blvd,,Tucson,AZ,85712,US,32.2358284,-110.87727356,2022-12-18 06:25:20
Whataburger,1430 West River Road,,Tucson,AZ,85704,US,32.29794693,-110.99687958,2022-12-18 06:25:20
Whataburger,3925 S 6th Ave,,Tucson,AZ,85714,US,32.17622375,-110.96798706,2022-12-18 06:25:20
Whataburger,6504 E 22nd St,,Tucson,AZ,85710,US,32.20603561,-110.85349274,2022-12-18 06:25:20
Whataburger,435 W Valencia Rd,,Tucson,AZ,85706,US,32.13362885,-110.97631836,2022-12-18 06:25:20
Whataburger,2548 K Ave,,Plano,TX,75074,US,33.03254318,-96.69862366,2022-12-16 15:27:47
Whataburger,301 E FM 544,,Murphy,TX,75094,US,33.01186752,-96.60437775,2022-12-16 15:27:45
Whataburger,350 State Highway 78,,Wylie,TX,75098,US,33.01051712,-96.54349518,2022-12-16 15:27:45
Whataburger,7010 Lancer Rd,,Laredo,TX,78041,US,27.55979156,-99.44818115,2022-12-16 15:27:43
Whataburger,7110 McPherson Rd.,,Laredo,TX,78041,US,27.56700325,-99.473526,2022-12-16 15:27:43
Whataburger,9102 Mcpherson Rd,,Laredo,TX,78045,US,27.59151459,-99.47962189,2022-12-16 15:27:43
Whataburger,2701 E Saunders St,,Laredo,TX,78041,US,27.53019142,-99.46865082,2022-12-16 15:27:43
Whataburger,202 W. Del Mar Blvd.,,Laredo,TX,78041,US,27.56802177,-99.49893951,2022-12-16 15:27:43
Whataburger,2420 NE Bob Bullock,,Laredo,TX,78043,US,27.61291313,-99.47019196,2022-12-16 15:27:43
Whataburger,4902 San Bernardo,,Laredo,TX,78041,US,27.54478073,-99.50479126,2022-12-16 15:27:43
Whataburger,10112 FM 1472,,Laredo,TX,78045,US,27.59262848,-99.51325989,2022-12-16 15:27:43
Whataburger,2118 Guadalupe St,,Laredo,TX,78043,US,27.50690842,-99.47460175,2022-12-16 15:27:43
Whataburger,4416 Highway 359,,Laredo,TX,78043,US,27.49786377,-99.44895172,2022-12-16 15:27:43
Whataburger,18902 E US 40 Hwy,,Independence,MO,64055,US,39.03190231,-94.3572998,2022-12-16 15:27:48
Whataburger,905 Hwy 7,,Blue Springs,MO,64014,US,39.02825928,-94.27223969,2022-12-16 15:27:48
Whataburger,1460 NE Douglas St,,Lee's Summit,MO,64086,US,38.93896866,-94.37913513,2022-12-16 15:27:48
Whataburger,2301 Spencer Hwy,,Pasadena,TX,77504,US,29.66513443,-95.20592499,2022-12-16 15:27:43
Whataburger,2203 E Evans Rd,,San Antonio,TX,78259,US,29.63670349,-98.45461273,2022-12-16 15:27:45
Whataburger,23522 Wilderness Oak,,San Antonio,TX,78258,US,29.65950394,-98.49991608,2022-12-16 15:27:45
Whataburger,18417 U.S. 281 Access Road,,San Antonio,TX,78258,US,29.61076355,-98.46893311,2022-12-16 15:27:45
Whataburger,26510 U.S. 281,,San Antonio,TX,78260,US,29.69290924,-98.45153046,2022-12-16 15:27:45
Whataburger,17311 Bulverde Rd,,San Antonio,TX,78247,US,29.59889984,-98.41944122,2022-12-16 15:27:45
Whataburger,4050 N Loop 1604 W,,Shavano Park,TX,78231,US,29.59998894,-98.5608902,2022-12-16 15:27:43
Whataburger,9968 Airport Blvd,,Mobile,AL,36608,US,30.67100525,-88.27814484,2022-12-16 15:27:43
Whataburger,2496 Schillinger Rd,,Mobile,AL,36695,US,30.63925171,-88.22518158,2022-12-16 15:27:43
Whataburger,2620 Airline Dr,,Bossier City,LA,71111,US,32.55099106,-93.70910645,2022-12-16 15:27:45
Whataburger,112 Benton Spur Road,,Bossier City,LA,71111,US,32.51837158,-93.71500397,2022-12-16 15:27:45
Whataburger,2900 N Market St,,Shreveport,LA,71107,US,32.55709076,-93.78229523,2022-12-18 06:25:21
Whataburger,521 E Kings Hwy,,Shreveport,LA,71105,US,32.48116302,-93.72373962,2022-12-16 15:27:49
Whataburger,4010 Jewella Ave,,Shreveport,LA,71109,US,32.47409058,-93.79762268,2022-12-18 06:25:21
Whataburger,3239 SE Military Dr,,San Antonio,TX,78223,US,29.35218239,-98.43551636,2022-12-16 15:27:47
Whataburger,4125 S Loop 1604 E,,San Antonio,TX,78264,US,29.21933365,-98.4143219,2022-12-16 15:27:50
Whataburger,3500 S New Braunfels,,San Antonio,TX,78223,US,29.3837986,-98.46077728,2022-12-16 15:27:46
Whataburger,5075 Rigsby Ave,,San Antonio,TX,78222,US,29.39869881,-98.39163208,2022-12-16 15:27:46
Whataburger,503 SW Military Dr,,San Antonio,TX,78221,US,29.35701561,-98.49957275,2022-12-18 06:25:17
Whataburger,303 Roland Rd,,San Antonio,TX,78210,US,29.40259171,-98.44271851,2022-12-16 15:27:46
Whataburger,1118 Roosevelt Avenue,,San Antonio,TX,78210,US,29.39279747,-98.48577118,2022-12-18 06:25:17
Whataburger,4720 Interstate 35 S,,San Antonio,TX,78211,US,29.37885666,-98.5125351,2022-12-18 06:25:17
Whataburger,7007 S Zarzamora St,,San Antonio,TX,78224,US,29.35800171,-98.53461456,2022-12-18 06:25:17
Whataburger,12510 SW Loop 410,,San Antonio,TX,78224,US,29.32116127,-98.55433655,2022-12-18 06:25:17
Whataburger,1123 Nashville Pike,,Gallatin,TN,37066,US,36.3740654,-86.4751358,2022-12-16 15:27:46
Whataburger,3077 E. Queen Creek Rd,,Chandler,AZ,85286,US,33.26221466,-111.78870392,2022-12-16 15:27:45
Whataburger,2747 E Broadway Rd,,Mesa,AZ,85204,US,33.40772629,-111.77156067,2022-12-16 15:27:45
Whataburger,13730 N Sarival Ave,,Surprise,AZ,85388,US,33.60438156,-112.40963745,2022-12-18 06:25:17
Whataburger,3531 State Highway 528 NW,,Albuquerque,NM,87114,US,35.20629501,-106.65040588,2022-12-16 15:27:47
Whataburger,4201 Osuna Rd NE,,Albuquerque,NM,87109,US,35.15677643,-106.59498596,2022-12-16 15:27:47
Whataburger,200 Menaul Blvd NW,,Albuquerque,NM,87107,US,35.11026382,-106.64458466,2022-12-16 15:27:47
Whataburger,2808 Carlisle Blvd NE,,Albuquerque,NM,87110,US,35.11315918,-106.60385132,2022-12-16 15:27:47
Whataburger,2590 S Market St.,,Gilbert,AZ,85295,US,33.30310822,-111.74410248,2022-12-16 15:27:45
Whataburger,5427 S Power Rd,,Mesa,AZ,85212,US,33.31734467,-111.68653107,2022-12-16 15:27:45
Whataburger,340 Highway 6,,Sugar Land,TX,77478,US,29.61027145,-95.64709473,2022-12-16 15:27:43
Whataburger,17480 W Grand Pkwy South,,Sugar Land,TX,77479,US,29.56376076,-95.68767548,2022-12-16 15:27:43
Whataburger,13030 Murphy Road,,Stafford,TX,77477,US,29.63326454,-95.56542206,2022-12-16 15:27:45
Whataburger,10315 S Highway 6,,Sugar Land,TX,77498,US,29.6653862,-95.64244843,2022-12-16 15:27:43
Whataburger,9517 Bissonnet St,,Houston,TX,77036,US,29.67540359,-95.54389954,2022-12-16 15:27:45
Whataburger,7629 W Bellfort St,,Houston,TX,77071,US,29.65569305,-95.51053619,2022-12-16 15:27:45
Whataburger,1506 W Buckingham Blvd,,Garland,TX,75042,US,32.93026352,-96.64993286,2022-12-16 15:27:45
Whataburger,2545 Firewheel Pkwy,,Garland,TX,75040,US,32.93863297,-96.60506439,2022-12-16 15:27:45
Whataburger,5060 State Hwy 78,,Sachse,TX,75048,US,32.96911621,-96.6056366,2022-12-16 15:27:45
Whataburger,2500 Lakeview Pkwy,,Rowlett,TX,75088,US,32.90735626,-96.57830811,2022-12-16 15:27:45
Whataburger,505 S Plano Rd,,Richardson,TX,75081,US,32.94267654,-96.69937897,2022-12-16 15:27:43
Whataburger,11740 Plano Rd,,Dallas,TX,75243,US,32.90858078,-96.69982147,2022-12-16 15:27:45
Whataburger,9394 Lyndon B Johnson Fwy,,Dallas,TX,75243,US,32.91073227,-96.73635864,2022-12-16 15:27:43
Whataburger,1560 North Cockrell Hill,,Dallas,TX,75211,US,32.76452637,-96.89502716,2022-12-16 15:27:43
Whataburger,410 S Loop 12,,Irving,TX,75060,US,32.81049347,-96.92079163,2022-12-16 15:27:43
Whataburger,2741 N Stemmons Fwy,,Dallas,TX,75207,US,32.80899811,-96.84716034,2022-12-16 15:27:43
Whataburger,3222 W Camp Wisdom Rd,,Dallas,TX,75237,US,32.66204071,-96.8732605,2022-12-16 15:27:45
Whataburger,8850 N Stemmons Fwy,,Dallas,TX,75247,US,32.83522415,-96.87422943,2022-12-16 15:27:43
Whataburger,5500 Lemmon Ave,,Dallas,TX,75209,US,32.8286972,-96.82442474,2022-12-16 15:27:43
Whataburger,2428 N Haskell Ave,,Dallas,TX,75204,US,32.80509186,-96.7891922,2022-12-16 15:27:43
Whataburger,8008 Cedar Springs Road,,Dallas,TX,75235,US,32.84445953,-96.84984589,2022-12-16 15:27:50
Whataburger,12121 Katy Fwy,,Houston,TX,77079,US,29.78395081,-95.59997559,2022-12-16 15:27:43
Whataburger,8756 Grissom Rd,,San Antonio,TX,78251,US,29.47926521,-98.65738678,2022-12-16 15:27:43
Whataburger,8319 State Highway 151,,San Antonio,TX,78245,US,29.43721962,-98.65176392,2022-12-16 15:27:50
Whataburger,5760 W Loop 1604 N,,San Antonio,TX,78251,US,29.49123192,-98.7048645,2022-12-16 15:27:47
Whataburger,530 W Loop 1604 N,,San Antonio,TX,78251,US,29.43777084,-98.71011353,2022-12-16 15:27:47
Whataburger,3202 Wurzbach Rd,,San Antonio,TX,78238,US,29.46652794,-98.62220001,2022-12-16 15:27:43
Whataburger,8214 Marbach Rd,,San Antonio,TX,78227,US,29.41741562,-98.65138245,2022-12-16 15:27:46
Whataburger,7016 Bandera Rd,,Leon Valley,TX,78238,US,29.49929237,-98.62460327,2022-12-16 15:27:43
Whataburger,12034 Culebra Rd,,San Antonio,TX,78253,US,29.50357246,-98.73078918,2022-12-16 15:27:47
Whataburger,2870 W Loop 1604 South,,San Antonio,TX,78245,US,29.40257454,-98.70523834,2022-12-18 06:25:22
Whataburger,7023 W Hwy 90,,San Antonio,TX,78227,US,29.40293121,-98.62979889,2022-12-18 06:25:17
Whataburger,11441 Quaker Ave,,Lubbock,TX,79424,US,33.48753357,-101.90421295,2022-12-16 15:27:47
Whataburger,6414 82nd St,,Lubbock,TX,79424,US,33.52031708,-101.95501709,2022-12-16 15:27:47
Whataburger,7201 Quaker Ave,,Lubbock,TX,79424,US,33.52793121,-101.90543365,2022-12-16 15:27:47
Whataburger,8226 University Ave,,Lubbock,TX,79423,US,33.51753616,-101.87100983,2022-12-16 15:27:47
Whataburger,4802 50th St,,Lubbock,TX,79414,US,33.54920578,-101.9141922,2022-12-16 15:27:47
Whataburger,1717 50th St,,Lubbock,TX,79412,US,33.54813385,-101.8568573,2022-12-16 15:27:47
Whataburger,1702 19th St,,Lubbock,TX,79401,US,33.57814026,-101.85575104,2022-12-16 15:27:47
Whataburger,5512 4th St,,Lubbock,TX,79416,US,33.59270477,-101.9336319,2022-12-16 15:27:47
Whataburger,2412 9th St,,Lubbock,TX,79401,US,33.5875206,-101.86934662,2022-12-16 15:27:47
Whataburger,1621 Beltline Rd SW,,Decatur,AL,35601,US,34.56671143,-87.01222229,2022-12-16 15:27:47
Whataburger,11484 Highway 49,,Gulfport,MS,39503,US,30.45542336,-89.09963226,2022-12-16 15:27:51
Whataburger,20151 S Ellsworth St.,,Queen Creek,AZ,85142,US,33.265522,-111.63407898,2022-12-16 15:27:45
Whataburger,1460 North Dysart Road,,Avondale,AZ,85323,US,33.44950104,-112.3420639,2022-12-18 06:25:17
Whataburger,14251 W Indian School Rd,,Goodyear,AZ,85395,US,33.48535538,-112.36545563,2022-12-18 06:25:17
Whataburger,6745 Siegen Ln,,Baton Rouge,LA,70809,US,30.38774681,-91.06212616,2022-12-16 15:27:47
Whataburger,5851 Creek Center Dr.,,Baton Rouge,LA,70820,US,30.38916206,-91.15979767,2022-12-16 15:27:47
Whataburger,12903B E 96th St N,,Owasso,OK,74055,US,36.29353714,-95.82852173,2022-12-16 15:27:46
Whataburger,2931 N Belt Line Rd,,Irving,TX,75062,US,32.84619522,-96.99279785,2022-12-16 15:27:46
Whataburger,4920 W Airport Fwy,,Irving,TX,75062,US,32.83605957,-97.02336121,2022-12-18 06:25:20
Whataburger,2515 W Airport Fwy,,Irving,TX,75062,US,32.83797455,-96.97977448,2022-12-16 15:27:46
Whataburger,2155 Airport Fwy,,Euless,TX,76040,US,32.83657074,-97.11808014,2022-12-16 15:27:43
Whataburger,1425 Eastchase Parkway,,Fort Worth,TX,76120,US,32.75878525,-97.16661072,2022-12-16 15:27:43
Whataburger,6405 San Felipe St,,Houston,TX,77057,US,29.74979591,-95.49782562,2022-12-16 15:27:43
Whataburger,8941 Long Point Rd,,Houston,TX,77055,US,29.80183411,-95.51018524,2022-12-16 15:27:47
Whataburger,1040 Gessner Rd,,Houston,TX,77055,US,29.78766441,-95.54367065,2022-12-16 15:27:49
Whataburger,1110 Silber Rd,,Houston,TX,77055,US,29.78881836,-95.46760559,2022-12-16 15:27:43
Whataburger,2820 Chimney Rock Rd,,Houston,TX,77056,US,29.73610497,-95.47685242,2022-12-16 15:27:43
Whataburger,2429 Gessner Rd,,Houston,TX,77080,US,29.81503677,-95.54553223,2022-12-16 15:27:49
Whataburger,2720 W Sam Houston Pkwy S,,Houston,TX,77042,US,29.73578453,-95.55870056,2022-12-16 15:27:43
Whataburger,6520 Southwest Fwy,,Houston,TX,77074,US,29.71845818,-95.49842072,2022-12-16 15:27:43
Whataburger,1718 West Loop N,,Houston,TX,77008,US,29.80110741,-95.44820404,2022-12-16 15:27:43
Whataburger,7411 Southwest Fwy,,Houston,TX,77074,US,29.69915771,-95.51783752,2022-12-16 15:27:46
Whataburger,9500 Candelaria Rd NE,,Albuquerque,NM,87112,US,35.11581421,-106.53535461,2022-12-16 15:27:47
Whataburger,3711 Las Estancias Ct,,Albuquerque,NM,87121,US,35.02320099,-106.71385956,2022-12-16 15:27:51
Whataburger,2290 S Service Rd,,Moore,OK,73160,US,35.31737137,-97.48872375,2022-12-16 15:27:39
Whataburger,1124 SW 59th St,,Oklahoma City,OK,73109,US,35.40587234,-97.53607941,2022-12-18 06:25:19
Whataburger,2914 S Douglas Blvd,,Midwest City,OK,73130,US,35.43641281,-97.37034607,2022-12-16 15:27:43
Whataburger,2424 W Main St,,Norman,OK,73069,US,35.21803665,-97.47773743,2022-12-16 15:27:49
Whataburger,2710 N State Hwy 360 Svc Rd E,,Grand Prairie,TX,75050,US,32.79553604,-97.05540466,2022-12-18 06:25:20
Whataburger,3710 W Northwest Hwy,,Dallas,TX,75220,US,32.8602066,-96.85640717,2022-12-16 15:27:43
Whataburger,11880 N Central Expwy,,Dallas,TX,75243,US,32.91104507,-96.76779175,2022-12-16 15:27:43
Whataburger,12100 Lake June Rd,,Balch Springs,TX,75180,US,32.73351288,-96.6185379,2022-12-16 15:27:45
Whataburger,12083 N Grand Pkwy E,,New Caney,TX,77357,US,30.13061905,-95.23226166,2022-12-18 06:25:20
Whataburger,316 Sawdust Rd,,Spring,TX,77380,US,30.12701225,-95.44814301,2022-12-18 06:25:20
Whataburger,3447 Rayford Rd,,Spring,TX,77386,US,30.11246681,-95.38896942,2022-12-18 06:25:20
Whataburger,25720 Kuykendahl Rd,,Tomball,TX,77375,US,30.13415527,-95.5528183,2022-12-16 15:27:45
Whataburger,3073 College Park Dr,,The Woodlands,TX,77384,US,30.20645142,-95.46194458,2022-12-18 06:25:20
Whataburger,4975 East Freeway,,Baytown,TX,77521,US,29.8052597,-94.98383331,2022-12-16 15:27:43
Whataburger,8730 Texas 146,,Baytown,TX,77523,US,29.8178215,-94.89945984,2022-12-16 15:27:43
Whataburger,1900 Decker Dr,,Baytown,TX,77520,US,29.7410984,-94.9810791,2022-12-16 15:27:43
Whataburger,14460 FM 2100,,Crosby,TX,77532,US,29.89650345,-95.06269836,2022-12-16 15:27:43
Whataburger,3551 Culebra Rd,,San Antonio,TX,78288,US,,,2022-12-18 06:25:17
Whataburger,4646 W Commerce St,,San Antonio,TX,78237,US,29.4303093,-98.55363464,2022-12-18 06:25:17
Whataburger,14353 Potranco Rd,,San Antonio,TX,78253,US,29.42196846,-98.78151703,2022-12-18 06:25:22
Whataburger,813 US Hwy 90 E,,Castroville,TX,78009,US,29.35603714,-98.86274719,2022-12-18 06:25:22
Whataburger,7101 N 10th St,,McAllen,TX,78504,US,26.26732826,-98.21971893,2022-12-16 15:27:43
Whataburger,1000 E Nolana Ave,,McAllen,TX,78504,US,26.2364254,-98.20388794,2022-12-16 15:27:43
Whataburger,1812 W University Dr,,Edinburg,TX,78539,US,26.30379677,-98.18206787,2022-12-16 15:27:43
Whataburger,1717 E University Dr,,Edinburg,TX,78542,US,26.29930305,-98.14550018,2022-12-16 15:27:47
Whataburger,4017 N 23rd St,,McAllen,TX,78504,US,26.24203682,-98.23963165,2022-12-16 15:27:43
Whataburger,100 East Expressway 83,,Pharr,TX,78577,US,26.20588875,-98.18133545,2022-12-16 15:27:45
Whataburger,3801 N Bus Hwy 281,,Edinburg,TX,78541,US,26.33931732,-98.15409088,2022-12-16 15:27:47
Whataburger,1412 E Jackson Ave,,McAllen,TX,78503,US,26.19047546,-98.20681763,2022-12-16 15:27:45
Whataburger,2225 U.S. 83 Business,,McAllen,TX,78501,US,26.20551491,-98.24479675,2022-12-16 15:27:43
Whataburger,1419 S 10th Street,,McAllen,TX,78501,US,26.19049835,-98.23164368,2022-12-16 15:27:45
Whataburger,1719 E Parmer Ln,,Austin,TX,78754,US,30.38575363,-97.64774323,2022-12-16 15:27:43
Whataburger,11135 N Interstate Hwy 35,,Austin,TX,78753,US,30.37545586,-97.67616272,2022-12-16 15:27:43
Whataburger,12003 E US 290,,Manor,TX,78653,US,30.34858704,-97.54024506,2022-12-16 15:27:43
Whataburger,9516 N Lamar Blvd,,Austin,TX,78753,US,30.36530685,-97.69622803,2022-12-16 15:27:37
Whataburger,6702 NW Cache Rd,,Lawton,OK,73505,US,34.62305832,-98.47509766,2022-12-16 15:27:48
Whataburger,2201 NW Cache Rd,,Lawton,OK,73505,US,34.62372589,-98.4238739,2022-12-16 15:27:48
Whataburger,601 S Central Expy,,Anna,TX,75409,US,33.34644699,-96.58464813,2022-12-16 15:27:50
Whataburger,803 W Princeton Dr,,Princeton,TX,75407,US,33.17556763,-96.51480865,2022-12-18 06:25:17
Whataburger,1243 Austin Highway,,San Antonio,TX,78209,US,29.48899078,-98.44480133,2022-12-16 15:27:43
Whataburger,3130 Broadway St,,San Antonio,TX,78209,US,29.45570183,-98.47008514,2022-12-16 15:27:43
Whataburger,4635 Rittiman Rd,,San Antonio,TX,78218,US,29.48447609,-98.40060425,2022-12-16 15:27:43
Whataburger,8300 N IH 35,,Windcrest,TX,78239,US,29.51334572,-98.39600372,2022-12-16 15:27:43
Whataburger,516 W Cypress,,San Antonio,TX,78212,US,29.44031143,-98.49967194,2022-12-18 06:25:17
Whataburger,2727 West Ave,,San Antonio,TX,78201,US,29.48559761,-98.52632141,2022-12-16 15:27:46
Whataburger,12808 Frontage Road,,San Antonio,TX,78249,US,29.5636692,-98.59224701,2022-12-16 15:27:43
Whataburger,6391 Babcock Rd,,San Antonio,TX,78240,US,29.54376984,-98.61398315,2022-12-16 15:27:43
Whataburger,6803 N Loop 1604 W,,San Antonio,TX,78249,US,29.58903694,-98.62223053,2022-12-16 15:27:43
Whataburger,18303 W I-10 Frontage Rd,,San Antonio,TX,78257,US,29.61456108,-98.60403442,2022-12-16 15:27:43
Whataburger,9263 N Loop 1604 W,,San Antonio,TX,78249,US,29.55550766,-98.66713715,2022-12-16 15:27:43
Whataburger,8002 Fredericksburg Rd,,San Antonio,TX,78229,US,29.5136261,-98.56896973,2022-12-16 15:27:43
Whataburger,11400 Gateway North Blvd,,El Paso,TX,79934,US,31.94009209,-106.40635681,2022-12-18 06:25:21
Whataburger,4321 N Conway Ave,,Palmhurst,TX,78573,US,26.25968742,-98.31893158,2022-12-16 15:27:43
Whataburger,1727 Montgomery Hwy,,Hoover,AL,35244,US,33.37965393,-86.80421448,2022-12-16 15:27:48
Whataburger,557 Cahaba Valley Road,,Pelham,AL,35124,US,33.33467102,-86.78569031,2022-12-16 15:27:48
Whataburger,195 State Farm Pkwy,,Homewood,AL,35209,US,33.44868088,-86.8238678,2022-12-18 06:25:20
Whataburger,7820 N Macarthur Blvd,,Oklahoma City,OK,73132,US,35.55083847,-97.61865234,2022-12-16 15:27:45
Whataburger,208 S Council Rd,,Oklahoma City,OK,73128,US,35.46334457,-97.65349579,2022-12-18 06:25:19
Whataburger,5832 NW 36th St,,Oklahoma City,OK,73122,US,35.5074234,-97.61791992,2022-12-18 06:25:19
Whataburger,13500 N Macarthur Blvd,,Oklahoma City,OK,73142,US,35.60735321,-97.62026215,2022-12-16 15:27:46
Whataburger,1325 S Meridian Ave,,Oklahoma City,OK,73108,US,35.4521637,-97.60158539,2022-12-18 06:25:19
Whataburger,5315 N May Ave,,Oklahoma City,OK,73112,US,35.52447128,-97.56629944,2022-12-16 15:27:45
Whataburger,212 N Mustang Rd,,Mustang,OK,73064,US,35.3925705,-97.72425079,2022-12-18 06:25:19
Whataburger,12401 Westheimer Rd,,Houston,TX,77077,US,29.73578262,-95.59979248,2022-12-16 15:27:43
Whataburger,3530 Highway 6 S,,Houston,TX,77082,US,29.71949959,-95.64489746,2022-12-16 15:27:43
Whataburger,8134 W Sam Houston Pkwy S,,Houston,TX,77072,US,29.69111633,-95.55805206,2022-12-16 15:27:46
Whataburger,4960 E 42nd St,,Odessa,TX,79762,US,31.89287949,-102.3345871,2022-12-16 15:27:50
Whataburger,3716 Andrews Hwy,,Odessa,TX,79762,US,31.87825775,-102.38313293,2022-12-16 15:27:50
Whataburger,1900 E 8th St,,Odessa,TX,79761,US,31.86028671,-102.34731293,2022-12-16 15:27:50
Whataburger,1101 1st Street South,,Alabaster,AL,35007,US,33.23332214,-86.81000519,2022-12-16 15:27:49
Whataburger,1701 W Tennessee St,,Tallahassee,FL,32304,US,30.44874763,-84.30892944,2022-12-16 15:27:47
Whataburger,2586 N Monroe St,,Tallahassee,FL,32303,US,30.47615051,-84.29764557,2022-12-16 15:27:47
Whataburger,815 Lake Bradford Rd,,Tallahassee,FL,32304,US,30.43281364,-84.30182648,2022-12-16 15:27:47
Whataburger,1101 Thomasville Rd,,Tallahassee,FL,32303,US,30.45441628,-84.27786255,2022-12-16 15:27:47
Whataburger,2511 Apalachee Pkwy,,Tallahassee,FL,32301,US,30.42736435,-84.23832703,2022-12-16 15:27:47
Whataburger,263 I.H. 45 South,,Huntsville,TX,77340,US,30.7077446,-95.56407928,2022-12-18 06:25:16
Whataburger,3402 Hwy 36 S,,Rosenberg,TX,77471,US,29.53064346,-95.80889893,2022-12-16 15:27:43
Whataburger,5400 FM 1640 Rd,,Richmond,TX,77469,US,29.55969238,-95.76078796,2022-12-16 15:27:43
Whataburger,7755 Normandy Blvd,,Jacksonville,FL,32221,US,30.29592133,-81.77561951,2022-12-16 15:27:47
Whataburger,289 Blanding Blvd,,Orange Park,FL,32073,US,30.17150688,-81.74621582,2022-12-16 15:27:47
Whataburger,8239 Old Middleburg Rd,,Jacksonville,FL,32244,US,,,2022-12-16 15:27:43
Whataburger,5151 Rangeline Service Rd N,,Mobile,AL,36619,US,30.59739876,-88.16041565,2022-12-16 15:27:43
Whataburger,8700 Lakeview Pkwy,,Rowlett,TX,75088,US,32.9172554,-96.51657867,2022-12-16 15:27:45
Whataburger,1070 I-30,,Rockwall,TX,75087,US,32.9088707,-96.45139313,2022-12-16 15:27:45
Whataburger,2108 E Belt Line Rd,,Carrollton,TX,75006,US,32.95318985,-96.88332367,2022-12-16 15:27:45
Whataburger,3105 Forest Ln,,Dallas,TX,75234,US,32.9100914,-96.87237549,2022-12-16 15:27:47
Whataburger,3582 Hwy 114,,Ft. Worth,TX,76177,US,33.02561569,-97.27994537,2022-12-16 15:27:48
Whataburger,3052 Golden Triangle Blvd,,Fort Worth,TX,76244,US,32.93279648,-97.31346893,2022-12-16 15:27:48
Whataburger,605 E Byron Nelson Blvd,,Roanoke,TX,76262,US,33.00281143,-97.22049713,2022-12-16 15:27:48
Whataburger,13148 Highway 287,,Haslet,TX,76052,US,32.96696472,-97.41561127,2022-12-16 15:27:49
Whataburger,2209 N Tarrant Pkwy,,Ft. Worth,TX,76177,US,32.89911652,-97.32653046,2022-12-16 15:27:48
Whataburger,1520 Keller Parkway,,Keller,TX,76248,US,32.93279266,-97.21811676,2022-12-16 15:27:48
Whataburger,7826 Denton Hwy,,Watauga,TX,76148,US,32.88609314,-97.25954437,2022-12-16 15:27:43
Whataburger,1021 N Saginaw Blvd,,Saginaw,TX,76179,US,32.87483215,-97.37718964,2022-12-16 15:27:49
Whataburger,3000 Western Center Blvd,,Fort Worth,TX,76131,US,32.86066818,-97.31674194,2022-12-16 15:27:43
Whataburger,4250 FM 2181,,Hickory Creek,TX,75065,US,33.12952805,-97.04406738,2022-12-16 15:27:45
Whataburger,1701 Malone St,,Denton,TX,76201,US,33.22991943,-97.15005493,2022-12-16 15:27:45
Whataburger,712 Fort Worth Dr,,Denton,TX,76201,US,33.19765472,-97.13941956,2022-12-16 15:27:45
Whataburger,2420 W University Dr,,Denton,TX,76201,US,33.23034286,-97.16387177,2022-12-16 15:27:45
Whataburger,1708 S Loop 288,,Denton,TX,76205,US,33.19303894,-97.09723663,2022-12-16 15:27:45
Whataburger,11250 US Hwy 380,,Cross Roads,TX,76227,US,33.22642517,-96.98776245,2022-12-16 15:27:45
Whataburger,630 S Cumberland,,Lebanon,TN,37087,US,36.19092941,-86.29548645,2022-12-16 15:27:51
Whataburger,4831 Fairmont Pkwy,,Pasadena,TX,77505,US,29.65006828,-95.16965485,2022-12-16 15:27:45
Whataburger,3939 Red Bluff Rd,,Pasadena,TX,77503,US,29.68240929,-95.15146637,2022-12-16 15:27:46
Whataburger,9029 Spencer Hwy,,La Porte,TX,77571,US,29.6645298,-95.09980774,2022-12-16 15:27:46
Whataburger,609 Center St,,Deer Park,TX,77536,US,29.70616722,-95.12355042,2022-12-16 15:27:45
Whataburger,810 Southmore Ave,,Pasadena,TX,77502,US,29.69046211,-95.20304108,2022-12-16 15:27:43
Whataburger,1201 W Main St,,La Porte,TX,77571,US,29.66485596,-95.03128815,2022-12-16 15:27:46
Whataburger,30330 FM 2978 Rd,,Magnolia,TX,77354,US,30.19143677,-95.59008789,2022-12-16 15:27:45
Whataburger,6203 FM 1488 Rd,,Magnolia,TX,77354,US,30.22286224,-95.56136322,2022-12-16 15:27:45
Whataburger,111 Resource Center Pkwy,,Birmingham,AL,35242,US,33.42549133,-86.70523834,2022-12-16 15:27:47
Whataburger,1601 Main Street,,Fultondale,AL,35068,US,33.60910416,-86.79999542,2022-12-18 06:25:20
Whataburger,375 South Telshor Blvd,,Las Cruces,NM,88011,US,32.31750488,-106.74757385,2022-12-18 06:25:21
Whataburger,190 East University Avenue,,Las Cruces,NM,88005,US,32.28190613,-106.7687149,2022-12-18 06:25:21
Whataburger,2460 N Main St,,Las Cruces,NM,88001,US,32.33089066,-106.78252411,2022-12-18 06:25:21
Whataburger,1845 W Pinhook Rd,,Lafayette,LA,70508,US,30.18966293,-92.01439667,2022-12-18 06:25:21
Whataburger,3226 Ambassador Caffery Pkwy,,Lafayette,LA,70506,US,30.18380356,-92.07552338,2022-12-18 06:25:21
Whataburger,1725 N University Ave,,Lafayette,LA,70507,US,30.2532177,-92.03796387,2022-12-16 15:27:46
Whataburger,5570 FM 3009,,Schertz,TX,78154,US,29.60203362,-98.27790833,2022-12-16 15:27:45
Whataburger,1134 Pat Booker Rd,,Universal City,TX,78148,US,29.55055046,-98.29703522,2022-12-16 15:27:45
Whataburger,6950 N Loop 1604 E,,San Antonio,TX,78247,US,29.59222794,-98.35356903,2022-12-16 15:27:45
Whataburger,12806 I-35 Frontage Rd,,Live Oak,TX,78233,US,29.55493546,-98.34692383,2022-12-16 15:27:43
Whataburger,13900 O'Connor Road,,San Antonio,TX,78233,US,29.56776428,-98.38411713,2022-12-16 15:27:43
Whataburger,7725 FM 78,,San Antonio,TX,78244,US,29.49225044,-98.33439636,2022-12-16 15:27:43
Whataburger,12309 Nacogdoches Rd,,San Antonio,TX,78217,US,29.55251694,-98.40574646,2022-12-16 15:27:43
Whataburger,3839 E 1604  N,,Converse,TX,78109,US,29.46364594,-98.29009247,2022-12-16 15:27:45
Whataburger,1650 Bert Kouns Road,,Shreveport,LA,71105,US,32.43147278,-93.71382141,2022-12-16 15:27:50
Whataburger,2544 Bert Kouns Ind Loop,,Shreveport,LA,71118,US,32.40251541,-93.80077362,2022-12-18 06:25:21
Whataburger,6707 Pines Rd,,Shreveport,LA,71129,US,32.44722366,-93.86329651,2022-12-18 06:25:21
Whataburger,109 West Airtex Blvd,,Houston,TX,77090,US,29.98114777,-95.42405701,2022-12-16 15:27:45
Whataburger,6225 Hulen Bend Road,,Fort Worth,TX,76132,US,32.66069412,-97.40238953,2022-12-16 15:27:45
Whataburger,9200 Benbrook Blvd,,Benbrook,TX,76126,US,32.67354202,-97.47000122,2022-12-16 15:27:45
Whataburger,3313 Cherry Ln,,Fort Worth,TX,76116,US,32.72382355,-97.45064545,2022-12-16 15:27:45
Whataburger,2401 West Berry Street,,Fort Worth,TX,76110,US,32.70569611,-97.35263824,2022-12-16 15:27:45
Whataburger,3701 West Fwy,,Fort Worth,TX,76107,US,32.73196411,-97.37212372,2022-12-16 15:27:45
Whataburger,901 E Seminary Dr,,Fort Worth,TX,76115,US,32.68467712,-97.31890869,2022-12-16 15:27:45
Whataburger,2600 Hemphill St,,Fort Worth,TX,76110,US,32.71429443,-97.33196259,2022-12-16 15:27:45
Whataburger,6829 Getwell Rd N.,,Southaven,MS,38672,US,34.96003723,-89.93740082,2022-12-16 15:27:51
Whataburger,176 Goodman Rd E.,,Southaven,MS,38671,US,34.96328735,-89.98765564,2022-12-16 15:27:51
Whataburger,6232 Retail Rd,,Dallas,TX,75231,US,32.86138916,-96.75242615,2022-12-16 15:27:43
Whataburger,6061 Greenville Ave,,Dallas,TX,75206,US,32.85940933,-96.76856232,2022-12-16 15:27:43
Whataburger,1522 E Harrison Ave,,Harlingen,TX,78550,US,26.19043922,-97.67951965,2022-12-16 15:27:37
Whataburger,1605 W Harrison Ave,,Harlingen,TX,78550,US,26.18984795,-97.71328735,2022-12-18 06:25:18
Whataburger,613 N Ed Carey Dr,,Harlingen,TX,78550,US,26.16565704,-97.67884827,2022-12-16 15:27:37
Whataburger,1110 W US Highway 77,,San Benito,TX,78586,US,26.1454277,-97.63556671,2022-12-16 15:27:37
Whataburger,2916 W Expressway 83,,Mission,TX,78572,US,26.23070526,-98.36096191,2022-12-16 15:27:43
Whataburger,801 E 9th St,,Mission,TX,78572,US,26.21413231,-98.31748962,2022-12-16 15:27:43
Whataburger,201 E Griffin Pkwy,,Mission,TX,78572,US,26.22978973,-98.32181549,2022-12-16 15:27:43
Whataburger,2510 E Expressway 83,,Mission,TX,78572,US,26.19487953,-98.28256989,2022-12-16 15:27:43
Whataburger,450 US-83,,La Joya,TX,78560,US,26.24707985,-98.47356415,2022-12-16 15:27:50
Whataburger,824 S International Blvd,,Hidalgo,TX,78557,US,26.09968758,-98.26908875,2022-12-16 15:27:50
Whataburger,181 N Sam Houston Pkwy E,,Houston,TX,77060,US,29.9414978,-95.40887451,2022-12-16 15:27:45
Whataburger,211 West Rd,,Houston,TX,77038,US,29.91466522,-95.41464233,2022-12-16 15:27:45
Whataburger,4040 Little York Rd,,Houston,TX,77093,US,29.86934853,-95.32795715,2022-12-16 15:27:45
Whataburger,4590 NW Loop 410,,San Antonio,TX,78229,US,29.48884964,-98.57350922,2022-12-16 15:27:43
Whataburger,4502 Fredericksburg Rd,,Balcones Heights,TX,78201,US,29.48997307,-98.55072784,2022-12-16 15:27:43
Whataburger,5501 Rufe Snow Dr,,North Richland Hills,TX,76180,US,32.84702682,-97.23900604,2022-12-16 15:27:43
Whataburger,5200 Davis Blvd,,North Richland Hills,TX,76180,US,32.84204102,-97.21393585,2022-12-16 15:27:43
Whataburger,1120 W Pipeline Road,,Hurst,TX,76053,US,32.82406616,-97.19854736,2022-12-16 15:27:43
Whataburger,6225 Precinct Line Rd,,North Richland Hills,TX,76180,US,32.86079407,-97.1866684,2022-12-16 15:27:43
Whataburger,5351 N Beach St,,Fort Worth,TX,76137,US,32.84102249,-97.29116821,2022-12-16 15:27:43
Whataburger,955 N Beach St,,Fort Worth,TX,76111,US,32.77660751,-97.28946686,2022-12-16 15:27:43
Whataburger,6469 Brentwood Stair Rd,,Fort Worth,TX,76112,US,32.75627518,-97.21789551,2022-12-16 15:27:43
Whataburger,101 N College St,,Auburn,AL,36830,US,32.60671997,-85.48208618,2022-12-16 15:27:43
Whataburger,4196 Highway 528 NE,,Rio Rancho,NM,87144,US,35.32873154,-106.57121277,2022-11-28 17:16:09
Whataburger,840 N Airline Hwy,,Gonzales,LA,70737,US,30.2386837,-90.91336823,2022-12-16 15:27:50
Whataburger,1101 W I 35 Frontage Rd,,Edmond,OK,73034,US,35.64254379,-97.42613983,2022-12-16 15:27:38
Whataburger,421 S Broadway,,Edmond,OK,73034,US,35.65050888,-97.48229218,2022-12-16 15:27:38
Whataburger,4111 SW 45th Ave,,Amarillo,TX,79109,US,35.16333389,-101.88243866,2022-12-16 15:27:45
Whataburger,3401 S Coulter St,,Amarillo,TX,79109,US,35.17617416,-101.91979218,2022-12-16 15:27:45
Whataburger,2424 S Georgia St,,Amarillo,TX,79109,US,35.18778229,-101.86669159,2022-12-16 15:27:45
Whataburger,6120 Hollywood Rd,,Amarillo,TX,79110,US,35.11733246,-101.90395355,2022-12-16 15:27:45
Whataburger,734 N Pierce St,,Amarillo,TX,79107,US,35.22081757,-101.83016205,2022-12-16 15:27:45
Whataburger,3620 E Interstate 40,,Amarillo,TX,79103,US,35.19221878,-101.79374695,2022-12-16 15:27:45
Whataburger,4110 N State Line Ave,,Texarkana,AR,71854,US,33.46306992,-94.04235077,2022-12-16 15:27:46
Whataburger,2727 New Boston Rd,,Texarkana,TX,75501,US,33.43541718,-94.07801056,2022-12-16 15:27:51
Whataburger,101 Harbor Blvd,,Destin,FL,32541,US,30.39546394,-86.50983429,2022-12-16 15:27:45
Whataburger,4450 E Highway 20,,Niceville,FL,32578,US,30.48580742,-86.41861725,2022-12-16 15:27:45
Whataburger,190 Eglin Pkwy NE,,Fort Walton Beach,FL,32548,US,30.42430305,-86.60954285,2022-12-16 15:27:51
Whataburger,23 Miracle Strip Pkwy SW,,Fort Walton Beach,FL,32548,US,30.40460587,-86.61660767,2022-12-16 15:27:51
Whataburger,10725 Emerald Coast Pkwy,,Destin,FL,32550,US,30.37863922,-86.35366821,2022-12-16 15:27:45
Whataburger,399 Mary Esther Cut Off NW,,Fort Walton Beach,FL,32548,US,30.42796516,-86.63968658,2022-12-16 15:27:51
Whataburger,820 Skyland Blvd.,,Tuscaloosa,AL,35405,US,33.16585159,-87.54961395,2022-12-16 15:27:43
Whataburger,1301 McFarland Blvd E,,Tuscaloosa,AL,35404,US,33.20061874,-87.52481842,2022-12-16 15:27:43
Whataburger,2801 W Anderson Ln,,Austin,TX,78757,US,30.35868454,-97.73706055,2022-12-16 15:27:37
Whataburger,6106 Cameron Rd,,Austin,TX,78723,US,30.31921577,-97.69817352,2022-12-16 15:27:37
Whataburger,6205 N Lamar Blvd,,Austin,TX,78752,US,30.33041954,-97.72299957,2022-12-16 15:27:37
Whataburger,6288 North US Hwy 271,,Tyler,TX,75708,US,32.39523697,-95.26939392,2022-12-18 06:25:22
Whataburger,11701 South Memorial Parkway,,Huntsville,AL,35803,US,34.61717987,-86.5670166,2022-12-16 15:27:46
Whataburger,1778 Blanding Blvd,,Middleburg,FL,32068,US,30.10605621,-81.82804108,2022-12-16 15:27:43
Whataburger,2501 Gateway Drive,,Opelika,AL,36801,US,32.62103271,-85.40346527,2022-12-16 15:27:49
Whataburger,6100 FM 802,,Brownsville,TX,78526,US,25.94270134,-97.42734528,2022-12-16 15:27:50
Whataburger,1301 Hwy 100,,Port Isabel,TX,78578,US,26.07104492,-97.22174072,2022-12-16 15:27:49
Whataburger,2103 Ruben Torres Blvd,,Brownsville,TX,78526,US,25.95149231,-97.48438263,2022-12-16 15:27:50
Whataburger,13229 N Pennsylvania Ave,,Oklahoma City,OK,73120,US,35.60450363,-97.55014038,2022-12-16 15:27:46
Whataburger,11300 Nall Avenue,,Overland Park,KS,66211,US,38.92345428,-94.65113068,2022-12-18 06:25:20
Whataburger,1410 S Cage Blvd,,Pharr,TX,78577,US,26.17834282,-98.18733215,2022-12-16 15:27:45
Whataburger,3120 S Jackson Rd,,Hidalgo,TX,78557,US,26.12489891,-98.21703339,2022-12-16 15:27:45
Whataburger,513 N Alamo Rd,,Alamo,TX,78516,US,26.18956566,-98.12250519,2022-12-16 15:27:45
Whataburger,5401 FM 1626,,Kyle,TX,78640,US,30.01586533,-97.86201477,2022-12-16 15:27:49
Whataburger,670 Old San Antonio Rd,,Buda,TX,78610,US,30.08680725,-97.82259369,2022-12-18 06:25:09
Whataburger,509 E Rio Grande St,,Victoria,TX,77901,US,28.80548477,-96.99871063,2022-12-16 15:27:48
Whataburger,4302 N Navarro St,,Victoria,TX,77901,US,28.83463669,-97.00106812,2022-12-18 06:25:17
Whataburger,3603 Houston Hwy,,Victoria,TX,77901,US,28.81543922,-96.96518707,2022-12-18 06:25:17
Whataburger,8908 N Navarro St,,Victoria,TX,77904,US,28.87782478,-96.99658203,2022-12-18 06:25:17
Whataburger,405 E Florence Blvd,,Casa Grande,AZ,85122,US,32.87921143,-111.74830627,2022-12-18 06:25:17
Whataburger,1785 E Florence Blvd,,Casa Grande,AZ,85122,US,32.87960815,-111.71074677,2022-12-18 06:25:17
Whataburger,5070 N 9th Ave,,Pensacola,FL,32504,US,30.47242737,-87.2122879,2022-12-16 15:27:39
Whataburger,815 E Burgess Rd,,Pensacola,FL,32504,US,30.49375534,-87.22233582,2022-12-16 15:27:39
Whataburger,5480 Pensacola Blvd,,Pensacola,FL,32505,US,30.4710598,-87.24471283,2022-12-16 15:27:39
Whataburger,1790 W Fairfield Dr,,Pensacola,FL,32501,US,30.44558334,-87.23870087,2022-12-16 15:27:39
Whataburger,417 E Gregory St,,Pensacola,FL,32502,US,30.41715813,-87.20462036,2022-12-16 15:27:39
Whataburger,214 E Nine Mile Rd,,Pensacola,FL,32534,US,30.53344727,-87.26488495,2022-12-16 15:27:39
Whataburger,1313 N New Warrington Rd,,Pensacola,FL,32506,US,30.42734718,-87.27086639,2022-12-16 15:27:39
Whataburger,6129 Mobile Hwy,,Pensacola,FL,32526,US,30.46369553,-87.30256653,2022-12-16 15:27:39
Whataburger,2300 S Highway 29,,Cantonment,FL,32533,US,30.56861305,-87.28938293,2022-12-16 15:27:39
Whataburger,1135 Gulf Breeze Highway,,Gulf Breeze,FL,32561,US,30.35796356,-87.15724182,2022-12-16 15:27:43
Whataburger,1956 W Martin Luther King Blvd,,Fayetteville,AR,72701,US,36.05680084,-94.18793488,2022-12-16 15:27:46
Whataburger,4030 N College Ave,,Fayetteville,AR,72703,US,36.12440872,-94.1439743,2022-12-16 15:27:46
Whataburger,2725 Southwest Pkwy,,Wichita Falls,TX,76308,US,33.85739517,-98.53475952,2022-12-16 15:27:43
Whataburger,3404 McNiel Ave,,Wichita Falls,TX,76308,US,33.87738037,-98.54807281,2022-12-16 15:27:43
Whataburger,1040 Central Fwy,,Wichita Falls,TX,76306,US,33.93413925,-98.51820374,2022-12-16 15:27:43
Whataburger,1101 N Valley Mills Dr,,Waco,TX,76710,US,31.53107262,-97.18688202,2022-12-18 06:25:21
Whataburger,100 West Loop 340,,Waco,TX,76712,US,31.51221466,-97.18717194,2022-12-18 06:25:21
Whataburger,1528 Hewitt Dr.,,Waco,TX,76712,US,31.48252869,-97.20746613,2022-12-18 06:25:21
Whataburger,928 S 7th St,,Waco,TX,76706,US,31.54856491,-97.12517548,2022-12-18 06:25:21
Whataburger,950 N Loop 340,,Bellmead,TX,76705,US,31.60427284,-97.10346222,2022-12-18 06:25:20
Whataburger,800 E County Line Rd,,Ridgeland,MS,39157,US,32.40014648,-90.14358521,2022-12-16 15:27:45
Whataburger,1724 Old Fannin Rd,,Flowood,MS,39232,US,32.3420372,-90.06534576,2022-12-16 15:27:43
Whataburger,1320 North High Street,,Jackson,MS,39202,US,32.30364609,-90.16899872,2022-12-16 15:27:43
Whataburger,1040 N. Germantown Pkwy,,Cordova,TN,38018,US,35.1535759,-89.79455566,2022-12-18 06:25:21
Whataburger,540 W Interstate 30,,Royse City,TX,75189,US,32.9640274,-96.34236908,2022-12-16 15:27:45
Whataburger,5455 Blue Mound Rd,,Saginaw,TX,76106,US,32.84207916,-97.3436203,2022-12-16 15:27:48
Whataburger,109 NE 28th St,,Fort Worth,TX,76164,US,32.79562759,-97.34833527,2022-12-16 15:27:48
Whataburger,6120 Lake Worth Blvd,,Lake Worth,TX,76135,US,32.80804443,-97.41630554,2022-12-16 15:27:47
Whataburger,2236 Jacksboro Hwy,,Fort Worth,TX,76114,US,32.78461075,-97.38091278,2022-12-16 15:27:47
Whataburger,714 Melton Street,,Magnolia,TX,77354,US,30.21127892,-95.75263214,2022-12-16 15:27:49
Whataburger,306 Stribling Ln,,Brandon,MS,39042,US,32.2802887,-90.03707886,2022-12-16 15:27:43
Whataburger,906 U.S. 49,,Richland,MS,39218,US,32.22241592,-90.1559906,2022-12-16 15:27:43
Whataburger,4172 Elm Springs Rd,,Springdale,AR,72762,US,36.19367981,-94.17618561,2022-12-16 15:27:48
Whataburger,4983 Highway 90,,Milton,FL,32571,US,30.60286713,-87.11595154,2022-12-16 15:27:50
Whataburger,5648 Woodbine Rd,,Pace,FL,32571,US,30.6422081,-87.18030548,2022-12-16 15:27:50
Whataburger,9300 S Interstate 35,,Austin,TX,78748,US,30.16621399,-97.78987885,2022-12-18 06:25:09
Whataburger,3400 W Slaughter Ln,,Austin,TX,78748,US,30.18297005,-97.847435,2022-12-18 06:25:09
Whataburger,801 E William Cannon Dr,,Austin,TX,78745,US,30.19020653,-97.77233887,2022-12-18 06:25:09
Whataburger,6611 S Mo Pac Expy,,Austin,TX,78749,US,30.21968079,-97.83563232,2022-12-18 06:25:09
Whataburger,1908 W Ben White Blvd,,Austin,TX,78704,US,30.23031425,-97.78715515,2022-12-18 06:25:09
Whataburger,1616 E Oltorf St,,Austin,TX,78741,US,30.23374367,-97.73942566,2022-12-18 06:25:09
Whataburger,601 Barton Springs Rd,,Austin,TX,78704,US,30.25805855,-97.75068665,2022-12-18 06:25:09
Whataburger,2901 Spirit of Texas Dr #100,,Austin,TX,78719,US,30.21076012,-97.66750336,2022-12-18 06:25:09
Whataburger,2800 Guadalupe St,,Austin,TX,78705,US,30.29345131,-97.74217224,2022-12-16 15:27:37
Whataburger,9955 Main St,,Houston,TX,77025,US,29.67675591,-95.42755127,2022-12-16 15:27:43
Whataburger,2265 W Holcombe Blvd,,Houston,TX,77030,US,29.70590019,-95.41234589,2022-12-16 15:27:43
Whataburger,10310 S Post Oak Road,,Houston,TX,77035,US,29.66906548,-95.4630127,2022-12-16 15:27:46
Whataburger,3797 Southwest Fwy,,Houston,TX,77027,US,29.72835922,-95.43677521,2022-12-16 15:27:43
Whataburger,3712 S Shepherd Dr,,Houston,TX,77098,US,29.73286819,-95.41091156,2022-12-16 15:27:43
Whataburger,3639 Westheimer Rd,,Houston,TX,77027,US,29.74126434,-95.4368515,2022-12-16 15:27:43
Whataburger,3624 Old Spanish Trl,,Houston,TX,77021,US,29.70165253,-95.36278534,2022-12-16 15:27:43
Whataburger,114 Broadhead Rd,,Waxahachie,TX,75165,US,32.40209198,-96.8172226,2022-12-16 15:27:46
Whataburger,604 N Highway 77,,Waxahachie,TX,75165,US,32.41025543,-96.84162903,2022-12-16 15:27:46
Whataburger,2965 N Highway 77,,Waxahachie,TX,75165,US,32.45760345,-96.83565521,2022-12-16 15:27:46
Whataburger,121 South State Highway 342,,Red Oak,TX,75154,US,32.51137161,-96.80450439,2022-12-16 15:27:46
Whataburger,105 North Interstate Hwy 45,,Ennis,TX,75119,US,32.33460236,-96.61702728,2022-12-16 15:27:50
Whataburger,203 E Pleasant Run Rd,,Desoto,TX,75115,US,32.60447311,-96.85633087,2022-12-16 15:27:46
Whataburger,961 W Belt Line Rd,,Desoto,TX,75115,US,32.59017944,-96.88015747,2022-12-16 15:27:46
Whataburger,120 N Beckley St,,Lancaster,TX,75146,US,32.59113693,-96.82144928,2022-12-16 15:27:46
Whataburger,501 East Highway 67,,Duncanville,TX,75137,US,32.633461,-96.90081787,2022-12-16 15:27:45
Whataburger,3797 N Houston School Rd,,Lancaster,TX,75134,US,32.64093018,-96.80654144,2022-12-16 15:27:46
Whataburger,211 E FM 1382,,Cedar Hill,TX,75104,US,32.5981102,-96.94135284,2022-12-16 15:27:46
Whataburger,101 Harris Ave,,Red Oak,TX,75154,US,32.53129578,-96.82131195,2022-12-16 15:27:46
Whataburger,8501 S Lancaster Rd,,Dallas,TX,75241,US,32.64409637,-96.78049469,2022-12-16 15:27:46
Whataburger,2214 N Collins St,,Arlington,TX,76011,US,32.76989746,-97.09764099,2022-12-18 06:25:20
Whataburger,6520 Westworth Blvd,,Westworth Village,TX,76114,US,32.75712585,-97.42725372,2022-12-16 15:27:47
Whataburger,9501 White Settlement Rd,,Fort Worth,TX,76108,US,32.76033783,-97.48067474,2022-12-16 15:27:47
Whataburger,5346 Stewart St,,Milton,FL,32570,US,30.62906837,-87.04256439,2022-12-16 15:27:50
Whataburger,3210 E MLK Jr Blvd,,Austin,TX,78721,US,30.28310966,-97.70294189,2022-12-16 15:27:45
Whataburger,4915 E I-20 Service Rd N,,Willow Park,TX,76087,US,32.73580551,-97.63330841,2022-12-16 15:27:51
Whataburger,440 Northwest Pkwy,,Azle,TX,76020,US,32.89938736,-97.54296875,2022-12-16 15:27:51
Whataburger,2411 Louisville Ave,,Monroe,LA,71201,US,32.52402878,-92.0974884,2022-12-16 15:27:51
Whataburger,412 E Commerce St,,San Antonio,TX,78205,US,29.42385101,-98.48887634,2022-12-18 06:25:17
Whataburger,108 East I-20,,Weatherford,TX,76086,US,32.72880936,-97.78762054,2022-12-16 15:27:49
Whataburger,1212 S Main St,,Weatherford,TX,76086,US,32.74508286,-97.79790497,2022-12-16 15:27:49
Whataburger,11769 Panama City Beach Pkwy,,Panama City Beach,FL,32407,US,30.19961357,-85.81912231,2022-12-16 15:27:49
Whataburger,5050 Antoine Dr,,Houston,TX,77092,US,29.83872032,-95.47281647,2022-12-16 15:27:45
Whataburger,13270 Northwest Fwy,,Houston,TX,77040,US,29.84865761,-95.5035553,2022-12-16 15:27:45
Whataburger,905 North Loop W,,Houston,TX,77008,US,29.81198692,-95.41517639,2022-12-16 15:27:43
Whataburger,2123 W Davis St,,Conroe,TX,77304,US,30.31745529,-95.47859955,2022-12-16 15:27:49
Whataburger,802 N Loop 336 W,,Conroe,TX,77301,US,30.33552742,-95.46832275,2022-12-16 15:27:49
Whataburger,457 S. Loop 336 W.,,Conroe,TX,77304,US,30.27944946,-95.46904755,2022-12-18 06:25:20
Whataburger,12721 I-45N,,Willis,TX,77318,US,30.42392921,-95.49378204,2022-12-16 15:27:49
Whataburger,18950 Highway 105 W,,Montgomery,TX,77356,US,30.38414383,-95.65477753,2022-12-16 15:27:49
Whataburger,130 E Central Texas Expy,,Harker Heights,TX,76548,US,31.06988335,-97.66656494,2022-12-16 15:27:43
Whataburger,2509 Trimmier Road,,Killeen,TX,76542,US,31.09137154,-97.73400879,2022-12-16 15:27:43
Whataburger,2040 N 75th Ave,,Phoenix,AZ,85035,US,33.47066116,-112.22119904,2022-12-18 06:25:17
Whataburger,15811 I-10E,,Channelview,TX,77530,US,29.77905273,-95.1235733,2022-12-16 15:27:45
Whataburger,8120 Phoenix Ave,,Fort Smith,AR,72903,US,35.34544754,-94.34112549,2022-12-16 15:27:46
Whataburger,12424 Tomball Pkwy,,Houston,TX,77086,US,29.91070557,-95.47802734,2022-12-16 15:27:45
Whataburger,1400 W Moore Ave,,Terrell,TX,75160,US,32.73895264,-96.29779053,2022-12-16 15:27:40
Whataburger,1261 FM148,,Terrell,TX,75160,US,32.71835327,-96.32171631,2022-12-16 15:27:40
Whataburger,962 E. Hwy 80,,Forney,TX,75126,US,32.74224854,-96.44385529,2022-12-18 06:25:21
Whataburger,13910 Horizon Blvd,,Horizon City,TX,79928,US,31.68216515,-106.20053101,2022-12-18 06:25:21
Whataburger,10401 Alameda Ave,,Socorro,TX,79927,US,31.65272903,-106.28837585,2022-12-18 06:25:21
Whataburger,801 N Service Rd E,,Ruston,LA,71270,US,32.54111862,-92.62814331,2022-12-18 06:25:09
Whataburger,2305 S Bypass 35,,Alvin,TX,77511,US,29.40594482,-95.23374939,2022-12-16 15:27:50
Whataburger,140 S Dowlen Rd,,Beaumont,TX,77707,US,30.07366753,-94.17250061,2022-12-16 15:27:49
Whataburger,4286 E. Lucas St.,,Beaumont,TX,77708,US,30.11942863,-94.14350891,2022-12-16 15:27:49
Whataburger,3575 College St.,,Beaumont,TX,77701,US,30.06807137,-94.1281662,2022-12-16 15:27:49
Whataburger,540 N. Main St.,,Vidor,TX,77662,US,30.13013458,-94.01470184,2022-12-16 15:27:49
Whataburger,5931 Trussville Crossings Pkwy,,Birmingham,AL,35235,US,33.64297867,-86.62592316,2022-12-16 15:27:47
Whataburger,1824 Ashville Rd,,Leeds,AL,35094,US,33.56236649,-86.52287292,2022-12-16 15:27:47
Whataburger,1320 E Main St,,Midlothian,TX,76065,US,32.47413635,-96.97813416,2022-12-16 15:27:50
Whataburger,2440 Presidential Pkwy,,Midlothian,TX,76065,US,32.45571136,-96.93506622,2022-12-16 15:27:50
Whataburger,2850 County Road 210 W,,Jacksonville,FL,32259,US,30.05967331,-81.53334808,2022-12-16 15:27:43
Whataburger,800 Andrews Hwy,,Midland,TX,79701,US,31.99926758,-102.10863495,2022-12-16 15:27:46
Whataburger,1905 N Big Spring St,,Midland,TX,79705,US,32.01646805,-102.07967377,2022-12-16 15:27:46
Whataburger,2217 E Interstate 20,,Midland,TX,79701,US,31.98244476,-102.04100037,2022-12-16 15:27:46
Whataburger,3206 N Midkiff Rd,,Midland,TX,79705,US,32.0187912,-102.1242218,2022-12-16 15:27:46
Whataburger,3851 Bienville Blvd,,Ocean Springs,MS,39564,US,30.40994644,-88.7622757,2022-12-16 15:27:50
Whataburger,3611 Sangani Blvd,,Diberville,MS,39540,US,30.45838737,-88.89524841,2022-12-16 15:27:50
Whataburger,29651 State Hwy 181,,Daphne,AL,36526,US,30.65692329,-87.85269928,2022-12-16 15:27:47
Whataburger,3220 Gollihar Rd,,Corpus Christi,TX,78415,US,27.73779869,-97.40501404,2022-12-16 15:27:46
Whataburger,6425 Weber Rd,,Corpus Christi,TX,78413,US,27.70047569,-97.41248322,2022-12-16 15:27:47
Whataburger,1521 Airline Rd,,Corpus Christi,TX,78412,US,27.70295525,-97.36356354,2022-12-16 15:27:47
Whataburger,5001 Saratoga Blvd,,Corpus Christi,TX,78413,US,27.69040489,-97.39499664,2022-12-16 15:27:47
Whataburger,510 Texan Trl,,Corpus Christi,TX,78404,US,27.75436401,-97.389328,2022-12-16 15:27:46
Whataburger,2402 S Padre Island Dr,,Corpus Christi,TX,78415,US,27.73604012,-97.42604065,2022-12-16 15:27:46
Whataburger,6817 S Padre Island Dr,,Corpus Christi,TX,78412,US,27.69594193,-97.34812164,2022-12-16 15:27:47
Whataburger,2018 S Staples St,,Corpus Christi,TX,78404,US,27.76581573,-97.40276337,2022-12-16 15:27:46
Whataburger,6241 Saratoga Blvd,,Corpus Christi,TX,78414,US,27.67821693,-97.37036133,2022-12-16 15:27:47
Whataburger,7434 S Staples St,,Corpus Christi,TX,78413,US,27.6673851,-97.39464569,2022-12-16 15:27:47
Whataburger,2401 S Highway 77,,Lynn Haven,FL,32444,US,30.22196198,-85.64868927,2022-12-16 15:27:49
Whataburger,702 N Tyndall Pkwy,,Callaway,FL,32404,US,30.16051865,-85.59064484,2022-12-16 15:27:49
Whataburger,15329 Wallisville Rd,,Houston,TX,77049,US,29.80807304,-95.16809082,2022-12-16 15:27:45
Whataburger,13728 East Freeway,,Houston,TX,77015,US,29.76983833,-95.17936707,2022-12-16 15:27:45
Whataburger,7001 North Loop E,,Houston,TX,77028,US,29.80809975,-95.30141449,2022-12-16 15:27:43
Whataburger,1700 N Wayside Dr,,Houston,TX,77020,US,29.77864075,-95.29091644,2022-12-16 15:27:43
Whataburger,3609 N US Highway 75,,Sherman,TX,75090,US,33.67575836,-96.60803986,2022-12-16 15:27:49
Whataburger,3636 N Main St,,Houston,TX,77009,US,29.7912178,-95.37324524,2022-12-16 15:27:43
Whataburger,4545 North Fwy,,Houston,TX,77022,US,29.83165169,-95.38394165,2022-12-16 15:27:43
Whataburger,3141 S McKenzie St,,Foley,AL,36535,US,30.36835289,-87.68241119,2022-12-16 15:27:51
Whataburger,6914 Harrisburg Blvd,,Houston,TX,77011,US,29.73581505,-95.30375671,2022-12-16 15:27:43
Whataburger,444 W Little York Rd,,Houston,TX,77076,US,29.87025452,-95.40563202,2022-12-16 15:27:45
Whataburger,1327 US Hwy 72 E,,Athens,AL,35611,US,34.78436661,-86.94235229,2022-12-16 15:27:51
Whataburger,3141 S Danville Dr,,Abilene,TX,79605,US,32.41322327,-99.77358246,2022-12-16 15:27:49
Whataburger,4241 S 1st St,,Abilene,TX,79605,US,32.45142746,-99.77844238,2022-12-16 15:27:49
Whataburger,893 East Highway 80,,Abilene,TX,79601,US,32.44799423,-99.70837402,2022-12-16 15:27:48
Whataburger,103 N Brentwood Dr,,Lufkin,TX,75904,US,31.29829407,-94.7297287,2022-12-16 15:27:43
Whataburger,102 S John Redditt Dr,,Lufkin,TX,75904,US,31.33238029,-94.75999451,2022-12-16 15:27:43
Whataburger,3580 W Alton Gloor Blvd,,Brownsville,TX,78520,US,25.97768593,-97.51911163,2022-12-16 15:27:50
Whataburger,1002 Hwy 100,,Los Fresnos,TX,78566,US,26.07329178,-97.49033356,2022-12-16 15:27:48
Whataburger,2290 N Expressway 77/83 Expy,,Brownsville,TX,78521,US,25.94891739,-97.50418091,2022-12-16 15:27:50
Whataburger,2419 Boca Chica Blvd,,Brownsville,TX,78521,US,25.92234421,-97.48428345,2022-12-16 15:27:50
Whataburger,1400 Central Blvd,,Brownsville,TX,78520,US,25.92435837,-97.51098633,2022-12-16 15:27:50
Whataburger,2021 International Blvd,,Brownsville,TX,78521,US,25.90604591,-97.48326874,2022-12-16 15:27:50
Whataburger,2411 Palmer Hwy,,Texas City,TX,77590,US,29.39446449,-94.93002319,2022-12-16 15:27:49
Whataburger,1520 E Business 83,,Weslaco,TX,78596,US,26.15634727,-97.97589874,2022-12-16 15:27:45
Whataburger,318 N Westgate Dr,,Weslaco,TX,78596,US,26.16471863,-98.0063324,2022-12-16 15:27:45
Whataburger,1100 Texas Blvd N,,Weslaco,TX,78596,US,26.1716423,-97.99051666,2022-12-16 15:27:45
Whataburger,615 N Daniel Salinas Blvd,,Donna,TX,78537,US,26.17925262,-98.04163361,2022-12-16 15:27:45
Whataburger,4801 E Expressway 83,,Mercedes,TX,78570,US,26.15995598,-97.89065552,2022-12-18 06:25:18
Whataburger,3850 S Ferdon Blvd,,Crestview,FL,32536,US,30.72180367,-86.56975555,2022-12-16 15:27:43
Whataburger,3308 Fourth St.,,Longview,TX,75605,US,32.54291916,-94.73033142,2022-12-16 15:27:43
Whataburger,105 TX-63 Spur,,Longview,TX,75601,US,32.4984169,-94.75156403,2022-12-16 15:27:43
Whataburger,2401 Gilmer Road,,Longview,TX,75604,US,32.53175354,-94.78895569,2022-12-16 15:27:43
Whataburger,4108 W LOOP 281 # 100,,Longview,TX,75604,US,32.49738312,-94.77745056,2022-12-16 15:27:43
Whataburger,3123 Eastman Rd.,,Longview,TX,75602,US,32.4535675,-94.70822906,2022-12-16 15:27:43
Whataburger,103 E Hwy 80,,White Oak,TX,75693,US,32.52073669,-94.86064911,2022-12-16 15:27:43
Whataburger,25111 Interstate 10,,San Antonio,TX,78257,US,29.67462921,-98.63643646,2022-12-16 15:27:49
Whataburger,1830 N Bryant Blvd,,San Angelo,TX,76903,US,31.47671127,-100.45285797,2022-12-16 15:27:49
Whataburger,3202 Sherwood Way,,San Angelo,TX,76901,US,31.4460659,-100.47921753,2022-12-16 15:27:49
Whataburger,4800 Twin City Hwy,,Groves,TX,77619,US,29.93887329,-93.93721008,2022-12-16 15:27:51
Whataburger,3535 Nederland Ave,,Nederland,TX,77627,US,29.9570961,-94.0051651,2022-12-16 15:27:49
Whataburger,1905 Texas Ave,,Bridge City,TX,77611,US,30.0336113,-93.83366394,2022-12-16 15:27:50
Whataburger,1005 N. Hwy. 175,,Seagoville,TX,75159,US,32.64999771,-96.54716492,2022-12-18 06:25:21
Whataburger,2344 East Rental Car Drive,,Euless,TX,76155,US,32.85218048,-97.03869629,2022-12-16 15:27:50
Whataburger,6327 Stewart Rd,,Galveston,TX,77551,US,29.27463341,-94.83210754,2022-12-16 15:27:49
Whataburger,528 University Blvd,,Galveston,TX,77550,US,29.30915642,-94.77364349,2022-12-16 15:27:51
Whataburger,318 N Highway 123 Byp,,Seguin,TX,78155,US,29.57093239,-97.94145966,2022-12-16 15:27:49
Whataburger,123 Highway 332 West,,Lake Jackson,TX,77566,US,29.04745674,-95.46075439,2022-12-16 15:27:46
Whataburger,1405 West Hwy 332,,Clute,TX,77531,US,29.0106144,-95.41914368,2022-12-16 15:27:46
Whataburger,1120 N Velasco St,,Angleton,TX,77515,US,29.17702293,-95.43222809,2022-12-16 15:27:48
Whataburger,108 N Henderson Blvd,,Kilgore,TX,75662,US,32.38041687,-94.86856842,2022-12-16 15:27:43
Whataburger,6241 Old Highway 135 N,,Kilgore,TX,75662,US,32.43559647,-94.94392395,2022-12-16 15:27:43
Whataburger,7241 IH 10,,Orange,TX,77630,US,30.11433601,-93.81886292,2022-12-16 15:27:50
Whataburger,2300 McArthur Dr.,,Orange,TX,77630,US,30.09486771,-93.75684357,2022-12-16 15:27:50
Whataburger,6240 Coliseum Blvd,,Alexandria,LA,71303,US,31.29634094,-92.51394653,2022-12-18 06:25:21
Whataburger,3601 South MacArthur Dr.,,Alexandria,LA,71301,US,,,2022-12-18 06:25:21
Whataburger,257 Lofton Dr,,Pineville,LA,71360,US,31.36517143,-92.40813446,2022-12-16 15:27:48
Whataburger,6705 W Adams Ave,,Temple,TX,76502,US,31.11634064,-97.41358185,2022-12-18 06:25:21
Whataburger,115 N General Bruce Drive,,Temple,TX,76504,US,31.1035881,-97.35791779,2022-12-18 06:25:21
Whataburger,1415 SW H K Dodgen Loop,,Temple,TX,76502,US,31.07275772,-97.36988831,2022-12-18 06:25:21
Whataburger,307 N Interstate 35,,Belton,TX,76513,US,31.05596924,-97.45090485,2022-12-18 06:25:21
Whataburger,2410 Memorial Hwy,,Kerrville,TX,78028,US,30.02364349,-99.12607574,2022-12-16 15:27:50
Whataburger,338 Junction Highway,,Kerrville,TX,78028,US,30.05497169,-99.15231323,2022-12-18 06:25:21
Whataburger,2141 Sidney Baker Street,,Kerrville,TX,78028,US,30.06923866,-99.11173248,2022-12-16 15:27:50
Whataburger,3215 Junction Hwy,,Ingram,TX,78025,US,30.07299423,-99.22967529,2022-12-18 06:25:21
Whataburger,6888 Gulf Fwy,,Houston,TX,77087,US,29.70219421,-95.29845428,2022-12-16 15:27:43
Whataburger,401 TX-71,,Bastrop,TX,78602,US,30.10639954,-97.33102417,2022-12-16 15:27:46
Whataburger,2820 W. Washington,,Stephenville,TX,76401,US,32.20302582,-98.24063873,2022-12-16 15:27:51
Whataburger,2830 W Washington St,,Stephenville,TX,76401,US,32.20304489,-98.24065399,2022-12-16 15:27:51
Whataburger,2461 Government Blvd,,Mobile,AL,36606,US,30.67214394,-88.09823608,2022-12-16 15:27:43
Whataburger,100 North Craft Highway,,Chickasaw,AL,36611,US,30.76157188,-88.07335663,2022-12-18 06:25:20
Whataburger,1000 Industrial Pkwy,,Saraland,AL,36571,US,30.8017807,-88.09410095,2022-12-18 06:25:20
Whataburger,463773 State Rd 200,,Yulee,FL,32097,US,30.62767601,-81.55078125,2022-12-16 15:27:51
Whataburger,921 Holiday Dr,,Ardmore,OK,73401,US,34.18583298,-97.16555786,2022-12-16 15:27:51
Whataburger,907 East US Highway 377,,Granbury,TX,76048,US,32.43399811,-97.77721405,2022-12-16 15:27:45
Whataburger,117 Shannon Road,,Sulphur Springs,TX,75482,US,33.11567688,-95.59403229,2022-12-16 15:27:50
Whataburger,7702 S Padre Island Dr,,Corpus Christi,TX,78412,US,27.69001007,-97.33183289,2022-12-16 15:27:47
Whataburger,1121 Waldron Rd,,Corpus Christi,TX,78418,US,27.66763878,-97.28253937,2022-12-16 15:27:49
Whataburger,4126 S Staples St,,Corpus Christi,TX,78411,US,27.72794533,-97.3794632,2022-12-16 15:27:46
Whataburger,2701 S US Hwy 77 Bypass,,Kingsville,TX,78363,US,27.49081421,-97.8482666,2022-12-16 15:27:48
Whataburger,510 S 14th St,,Kingsville,TX,78363,US,27.51245308,-97.85569763,2022-12-16 15:27:48
Whataburger,131 Americas Avenue South,,El Paso,TX,79907,US,31.68036461,-106.3146286,2022-12-16 15:27:49
Whataburger,231 South Austin,,Denison,TX,75020,US,33.75364685,-96.53727722,2022-12-16 15:27:50
Whataburger,202 S Interstate 35,,Georgetown,TX,78628,US,30.64958191,-97.68127441,2022-12-16 15:27:49
Whataburger,3706 D B Wood Rd,,Georgetown,TX,78628,US,30.68158913,-97.71787262,2022-12-16 15:27:51
Whataburger,1212 W Henderson St,,Cleburne,TX,76033,US,32.34207916,-97.40327454,2022-12-16 15:27:50
Whataburger,2215 North Main Street,,Cleburne,TX,76033,US,32.38025284,-97.39369202,2022-12-16 15:27:50
Whataburger,1000 Main St,,Houston,TX,77002,US,29.75675392,-95.36576843,2022-12-16 15:27:51
Whataburger,2470 N Main St,,Paris,TX,75460,US,33.68545532,-95.55397797,2022-12-16 15:27:51
Whataburger,3325 Lamar Ave,,Paris,TX,75460,US,33.66139984,-95.51439667,2022-12-16 15:27:51
Whataburger,4545 Violet Rd,,Corpus Christi,TX,78410,US,27.84858131,-97.584198,2022-12-16 15:27:45
Whataburger,9402 Leopard St,,Corpus Christi,TX,78410,US,27.82656288,-97.5484314,2022-12-16 15:27:45
Whataburger,4021 IH 69 Access Rd,,Corpus Christi,TX,78410,US,27.8566761,-97.63072205,2022-12-16 15:27:45
Whataburger,502 N IH 69,,Robstown,TX,78380,US,27.79375458,-97.65190125,2022-12-18 06:25:22
Whataburger,4510 Leopard St,,Corpus Christi,TX,78408,US,27.79745483,-97.44364166,2022-12-16 15:27:45
Whataburger,602 S Padre Island Dr,,Corpus Christi,TX,78416,US,27.75627899,-97.45896149,2022-12-16 15:27:45
Whataburger,3006 E US 190,,Copperas Cove,TX,76522,US,31.12031555,-97.8629303,2022-12-16 15:27:48
Whataburger,1717 South Loop 256,,Palestine,TX,75801,US,31.7375412,-95.60782623,2022-12-16 15:27:49
Whataburger,401 N. Main St.,,Lumberton,TX,77657,US,30.26011276,-94.19921112,2022-12-16 15:27:49
Whataburger,825 Highway 96 S,,Silsbee,TX,77656,US,30.3416481,-94.18196106,2022-12-16 15:27:49
Whataburger,215 N Interstate 45 Service Rd,,Hutchins,TX,75141,US,32.65005875,-96.70910645,2022-12-16 15:27:47
Whataburger,4836 N Kickapoo Ave,,Shawnee,OK,74804,US,35.38118744,-96.93037415,2022-12-16 15:27:50
Whataburger,1001 North Boomer,,Stillwater,OK,74075,US,36.13318253,-97.06102753,2022-12-16 15:27:49
Whataburger,6400 Wesley St,,Greenville,TX,75402,US,33.10593033,-96.10992432,2022-12-16 15:27:50
Whataburger,1700 Antonio St,,Anthony,TX,79821,US,31.99763107,-106.58892822,2022-12-18 06:25:21
Whataburger,1700 N Interstate 35,,Gainesville,TX,76240,US,33.64185715,-97.15427399,2022-12-16 15:27:51
Whataburger,1921 W Foxwood Dr,,Raymore,MO,64083,US,38.81221771,-94.49164581,2022-12-18 06:25:20
Whataburger,4051 E Lancaster Ave,,Fort Worth,TX,76103,US,32.74121094,-97.2649231,2022-12-16 15:27:43
Whataburger,902 Keyser Ave,,Natchitoches,LA,71457,US,31.7531662,-93.06653595,2022-12-16 15:27:41
Whataburger,5123 University Pkwy,,Natchitoches,LA,71457,US,31.72828102,-93.15412903,2022-12-16 15:27:41
Whataburger,3402 Halls Ferry Rd,,Vicksburg,MS,39180,US,32.31430817,-90.87690735,2022-12-16 15:27:51
Whataburger,3510 N Main St,,Taylor,TX,76574,US,30.59860611,-97.41517639,2022-12-16 15:27:46
Whataburger,13880 US Highway 19 South,,Thomasville,GA,31757,US,30.83937836,-83.9431839,2022-12-16 15:27:49
Whataburger,627 S. Jackson St.,,Jacksonville,TX,75766,US,31.95921898,-95.26879883,2022-12-16 15:27:51
Whataburger,6920 Navarre Pkwy,,Navarre,FL,32566,US,30.40267944,-86.9338913,2022-12-16 15:27:47
Whataburger,411 E Commerce St,,Brownwood,TX,76801,US,31.73068619,-98.97383118,2022-12-16 15:27:47
Whataburger,1410 S Lynn Riggs Blvd,,Claremore,OK,74017,US,36.29576492,-95.62826538,2022-12-16 15:27:51
Whataburger,2159 Hwy 36 South,,Sealy,TX,77474,US,29.76179695,-96.15100861,2022-12-16 15:27:50
Whataburger,1709 W 7th Ave,,Corsicana,TX,75110,US,32.08320236,-96.47992706,2022-12-16 15:27:47
Whataburger,2001 S Interstate 45,,Corsicana,TX,75109,US,32.07004547,-96.44750977,2022-12-16 15:27:47
Whataburger,1010 Wildcat Dr,,Portland,TX,78374,US,27.88035011,-97.31866455,2022-12-16 15:27:45
Whataburger,4444 E Causeway Blvd,,Corpus Christi,TX,78402,US,27.83120728,-97.3850708,2022-12-16 15:27:45
Whataburger,321 Hwy 181,,Taft,TX,78390,US,27.97878456,-97.397789,2022-12-16 15:27:45
Whataburger,2474 State Highway 361,,Ingleside,TX,78362,US,27.8804493,-97.20671082,2022-12-16 15:27:45
Whataburger,734 E Port Ave,,Corpus Christi,TX,78401,US,27.8093338,-97.39981842,2022-12-07 05:32:50
Whataburger,2737 W Wheeler Ave,,Aransas Pass,TX,78336,US,27.92509079,-97.17845154,2022-12-16 15:27:45
Whataburger,121 North Shoreline,,Corpus Christi,TX,78401,US,27.79248047,-97.39297485,2022-12-16 15:27:45
Whataburger,2011 Ranch Road 620 S,,Lakeway,TX,78734,US,30.34342575,-97.96617889,2022-12-16 15:27:37
Whataburger,500 S Highway 287,,Decatur,TX,76234,US,33.23033142,-97.59561157,2022-12-16 15:27:50
Whataburger,2503 E Hubbard St,,Mineral Wells,TX,76067,US,32.80951309,-98.09264374,2022-12-16 15:27:50
Whataburger,3505 W Main St,,Durant,OK,74701,US,33.99871826,-96.4105835,2022-12-18 06:25:09
Whataburger,2424 Baldwin Blvd,,Corpus Christi,TX,78405,US,27.77373505,-97.4197464,2022-12-16 15:27:46
Whataburger,2020 Avenue F,,Bay City,TX,77414,US,28.9836998,-95.97042847,2022-12-16 15:27:49
Whataburger,421 N. Timberland Dr.,,Lufkin,TX,75901,US,31.34150314,-94.71855164,2022-11-28 16:44:34
Whataburger,598 E Hwy 290 W,,Dripping Springs,TX,78620,US,30.19025993,-98.08163452,2022-12-16 15:27:51
Whataburger,1326 North West Ave,,El Dorado,AR,71730,US,33.22494507,-92.666008,2022-12-16 15:27:45
Whataburger,2434 US Highway 331 S,,Defuniak Springs,FL,32435,US,30.68648338,-86.12321472,2022-12-16 15:27:50
Whataburger,10173 US Hwy 259,,Nacogdoches,TX,75964,US,31.7042141,-94.67763519,2022-12-16 15:27:45
Whataburger,2617 North Street,,Nacogdoches,TX,75965,US,31.60182953,-94.64670563,2022-12-16 15:27:45
Whataburger,14301 S Padre Island Dr,,Corpus Christi,TX,78418,US,27.62329483,-97.22240448,2022-12-16 15:27:51
Whataburger,2010 Victory Dr,,Marshall,TX,75672,US,32.5474968,-94.34672546,2022-12-16 15:27:50
Whataburger,2406 E End Blvd S,,Marshall,TX,75672,US,32.52388,-94.35139465,2022-12-16 15:27:50
Whataburger,2280 7th Street South,,Clanton,AL,35046,US,32.80092621,-86.57460785,2022-12-07 05:32:47
Whataburger,621 W Bandera Rd,,Boerne,TX,78006,US,29.77895355,-98.73957062,2022-12-16 15:27:50
Whataburger,2801 Hwy 36 South,,Brenham,TX,77833,US,30.13863564,-96.39498901,2022-12-16 15:27:43
Whataburger,10780 Parallel Parkway,,Kansas City,KS,66109,US,39.12892914,-94.82893372,2022-12-18 06:25:20
Whataburger,90 W Expy 83,,La Feria,TX,78559,US,26.16490364,-97.82472229,2022-12-18 06:25:18
Whataburger,2321 South Jefferson Ave,,Mt. Pleasant,TX,75455,US,33.13370132,-94.96759796,2022-12-16 15:27:50
Whataburger,300 U.S. 175,,Kaufman,TX,75142,US,32.57191086,-96.30672455,2022-12-18 06:25:21
Whataburger,49 Highway 79 Bypass North,,Magnolia,AR,71753,US,33.27617645,-93.21479797,2022-12-16 15:27:50
Whataburger,1704 S Main St,,Sapulpa,OK,74066,US,35.9787941,-96.11396027,2022-12-16 15:27:47
Whataburger,602 W Main St,,Hallsville,TX,75650,US,32.50955963,-94.59051514,2022-12-16 15:27:51
Whataburger,141 S U.S. Hwy 281,,Alice,TX,78332,US,27.74780464,-98.11184692,2022-12-18 06:25:22
Whataburger,1242 E Main St.,,Alice,TX,78332,US,27.75383759,-98.05970764,2022-12-18 06:25:22
Whataburger,1392 W Us Highway 290,,Elgin,TX,78621,US,30.35110474,-97.39438629,2022-12-16 15:27:43
Whataburger,311 South Main Street,,Lindale,TX,75771,US,32.51239777,-95.40982056,2022-12-18 06:25:22
Whataburger,133471 I-20,,Tyler,TX,75706,US,32.46405792,-95.32806396,2022-12-18 06:25:22
Whataburger,20314 State Highway 46 W,,Spring Branch,TX,78070,US,29.79834938,-98.42195892,2022-12-16 15:27:51
Whataburger,1204 Hwy 281 N.,,Marble Falls,TX,78654,US,30.58097649,-98.2734375,2022-12-13 15:34:10
Whataburger,1417 E Tyler St,,Athens,TX,75751,US,32.21185684,-95.82964325,2022-12-16 15:27:48
Whataburger,102 W Royall Blvd,,Malakoff,TX,75148,US,32.17115784,-96.01338959,2022-12-16 15:27:43
Whataburger,1301 E Main St,,Fredericksburg,TX,78624,US,30.26103783,-98.85666656,2022-12-16 15:27:50
Whataburger,204 Hwy 146,,Dayton,TX,77535,US,30.04474449,-94.88931274,2022-12-16 15:27:48
Whataburger,1921 Hwy 90,,Liberty,TX,77575,US,30.05698586,-94.79673004,2022-12-16 15:27:48
Whataburger,938 W Main St,,Gun Barrel City,TX,75156,US,32.33127594,-96.13007355,2022-12-13 15:34:07
Whataburger,17290 I-20,,Canton,TX,75103,US,32.58037186,-95.85699463,2022-12-16 15:27:43
Whataburger,10319 US 59 Hwy,,Wharton,TX,77488,US,29.32672119,-96.1198349,2022-12-18 06:25:18
Whataburger,1402 Corsicana Hwy.,,Hillsboro,TX,76645,US,32.00799179,-97.09754944,2022-12-16 15:27:49
Whataburger,909 N Mechanic St,,El Campo,TX,77437,US,29.20371628,-96.27599335,2022-12-18 06:25:18
Whataburger,100 East Edinburg Ave,,Elsa,TX,78543,US,26.29304123,-97.99282837,2022-12-16 15:27:51
Whataburger,1110 S. Gregg Street,,Big Spring,TX,79720,US,32.24321365,-101.47480774,2022-12-16 15:27:50
Whataburger,3509 Padre Blvd,,South Padre Island,TX,78597,US,26.11036301,-97.16936493,2022-12-16 15:27:49
Whataburger,809 Riverhill Dr,,Laredo,TX,78046,US,27.46046066,-99.47802734,2022-11-29 21:19:24
Whataburger,2668 Douglas Ave,,Brewton,AL,36426,US,31.14913177,-87.06597137,2022-12-16 15:27:51
Whataburger,8821 South Hwy 34,,Quinlan,TX,75474,US,32.90788269,-96.12754822,2022-12-16 15:27:40
Whataburger,630 U.S. 79,,Henderson,TX,75652,US,32.15878296,-94.78378296,2022-12-16 15:27:50
Whataburger,1207 State Hwy 35 N,,Port Lavaca,TX,77979,US,28.63480186,-96.62789917,2022-12-16 15:27:51
Whataburger,1807 Highway 35 N,,Rockport,TX,78382,US,28.04267502,-97.04292297,2022-12-16 15:27:50
Whataburger,2050 E Austin St,,Giddings,TX,78942,US,30.1790905,-96.91690826,2022-12-16 15:27:47
Whataburger,1710 N Saint Marys St,,Beeville,TX,78102,US,28.41729736,-97.75543976,2022-12-16 15:27:43
Whataburger,2173 W Oaklawn Rd,,Pleasanton,TX,78064,US,28.93828773,-98.51473236,2022-12-16 15:27:51
Whataburger,911 10th Street,,Floresville,TX,78114,US,29.14395523,-98.15639496,2022-12-16 15:27:51
Whataburger,2728 N Main St,,Altus,OK,73521,US,34.6664505,-99.33351135,2022-12-16 15:27:51
Whataburger,819 West Panola Street,,Carthage,TX,75633,US,32.15743637,-94.35305786,2022-12-16 15:27:49
Whataburger,1365 S Wheeler St,,Jasper,TX,75951,US,30.90797806,-93.9948349,2022-12-16 15:27:51
Whataburger,1012 East Milam Avenue,,Mexia,TX,76667,US,31.68452263,-96.46998596,2022-12-16 15:27:49
Whataburger,100 State Park Road,,Lockhart,TX,78644,US,29.87191772,-97.66938782,2022-12-16 15:27:47
Whataburger,2005 W Main Street,,Atlanta,TX,75551,US,33.10620117,-94.19657898,2022-12-16 15:27:48
Whataburger,892 US Highway 271 N,,Gilmer,TX,75644,US,32.74111176,-94.94139099,2022-12-16 15:27:50
Whataburger,864 Hurst St,,Center,TX,75935,US,31.80555344,-94.19102478,2022-12-16 15:27:45
Whataburger,1228 State Highway 16 S,,Graham,TX,76450,US,33.09314346,-98.5896225,2022-12-16 15:27:50
Whataburger,301 N E Georgia Ave,,Sweetwater,TX,79556,US,32.45147705,-100.39598083,2022-12-16 15:27:45
Whataburger,12445 Hwy 64 E,,Tyler,TX,75707,US,32.31622314,-95.20301056,2022-12-16 15:27:41
Whataburger,651 S Dr M Roper Pkwy,,Bullard,TX,75757,US,32.12825012,-95.30429077,2022-12-18 06:25:17
Whataburger,1281 E Loop 304,,Crockett,TX,75835,US,31.31527901,-95.43540192,2022-12-16 15:27:51
Whataburger,1003 S Key Ave,,Lampasas,TX,76550,US,31.05940056,-98.1799469,2022-12-16 15:27:46
Whataburger,19561 McDonald St,,Lytle,TX,78052,US,29.23046494,-98.78952026,2022-12-18 06:25:22
Whataburger,14935 F.M. 1663,,Winnie,TX,77665,US,29.83599091,-94.38371277,2022-12-16 15:27:47
Whataburger,229 19th St,,Hondo,TX,78861,US,29.34787369,-99.12890625,2022-12-16 15:27:49
Whataburger,2200 North Pacific Street,,Mineola,TX,75773,US,32.68882751,-95.48352814,2022-12-16 15:27:43
Whataburger,300 I-45 E,Suite B,Fairfield,TX,75840,US,31.66827393,-96.16612244,2022-12-16 15:27:45
Whataburger,2204 Texas 71 Business,,Columbus,TX,78934,US,29.69433212,-96.54096222,2022-12-16 15:27:50
Whataburger,905 N Esplanade St,,Cuero,TX,77954,US,29.09764671,-97.28769684,2022-12-16 15:27:51
Whataburger,1709 St. Joseph St,,Gonzales,TX,78629,US,29.51412582,-97.45862579,2022-12-01 11:13:41
Whataburger,1007 East Hidalgo St.,,Raymondville,TX,78580,US,26.48241234,-97.77045441,2022-12-18 06:25:22
Whataburger,1309 S. 5th St.,,Leesville,LA,71446,US,31.13068581,-93.26609039,2022-12-18 06:25:21
Whataburger,1203 N Dickinson Dr,,Rusk,TX,75785,US,31.80105591,-95.14776611,2022-12-16 15:27:50
Whataburger,703 S Magnolia,,Woodville,TX,75979,US,30.76829338,-94.41416931,2022-12-16 15:27:47
Whataburger,93 FM 1346,,La Vernia,TX,78121,US,29.3581543,-98.13645935,2022-12-16 15:27:51
Whataburger,505 US-83,,Roma,TX,78584,US,26.40263557,-99.0063858,2022-12-16 15:27:49
Whataburger,5775 Baseline Rd.,,Laveen Village,AZ,85339,US,33.37664032,-112.18365479,2022-12-16 15:27:45
Whataburger,920 S Red River Expy,,Burkburnett,TX,76354,US,34.08098221,-98.55828094,2022-12-16 15:27:50
Whataburger,1001 Hwy 82 E,,Whitesboro,TX,76273,US,33.67279434,-96.9053421,2022-12-16 15:27:46
Whataburger,806 U.S. 59 North Bypass,,Cleveland,TX,77327,US,30.33681297,-95.09838867,2022-12-05 05:53:40
Whataburger,306 N Wright Street,,Caldwell,TX,77836,US,30.53739548,-96.69206238,2022-12-16 15:27:51
Whataburger,220 S San Patricio St,,Sinton,TX,78387,US,28.03470993,-97.51702881,2022-12-16 15:27:43
Whataburger,1371 US Hwy 60,,Republic,MO,65738,US,37.13201904,-93.45793152,2022-12-16 15:27:55
Whataburger,1851 W Marler Ln,,Ozark,MO,65721,US,37.00413895,-93.22446442,2022-12-16 15:27:55
Whataburger,8340 N Century Blvd,,Century,FL,32535,US,30.98013306,-87.25803375,2022-12-08 05:05:40
Whataburger,103 Hwy 31 West,,Chandler,TX,75758,US,32.30727005,-95.48061371,2022-12-18 06:25:17
Whataburger,40 N Kessler Ave,,Schulenburg,TX,78956,US,29.69120026,-96.90229034,2022-12-06 10:49:15
Whataburger,101 US-281,,Falfurrias,TX,78355,US,27.22672653,-98.14178467,2022-12-08 05:05:40
Whataburger,729 Hwy 361,,Port Aransas,TX,78373,US,27.82723808,-97.06726074,2022-12-13 15:34:01
Whataburger,700 S Home Street,,Corrigan,TX,75939,US,30.9883976,-94.82597351,2022-12-16 15:27:55
Whataburger,4646 Knickerbocker Rd,,San Angelo,TX,76904,US,31.41425705,-100.47541046,2022-12-16 15:27:49
Whataburger,694 N. First St.,,Timpson,TX,75975,US,31.90570641,-94.39883423,2022-12-18 06:25:20
Whataburger,2113 Veterans Blvd,,Del Rio,TX,78840,US,29.38790894,-100.90474701,2022-12-13 15:34:08
Whataburger,2537 E SH 21 ste 102,,Paige,TX,78659,US,30.21337128,-97.13954163,2022-12-18 06:25:21
Whataburger,1211 US Hwy 380,,Bridgeport,TX,76426,US,33.22320938,-97.75452423,2022-12-13 15:34:10
Whataburger,2107 S US Highway 281,,Edinburg,TX,78539,US,27.73050308,-98.078125,2022-12-18 06:25:22
Whataburger,104 S Railroad Avenue,,Mt. Enterprise,TX,75681,US,31.91753387,-94.68038177,2022-12-16 15:27:53
Whataburger,12768 Hwy 84 East,,Joaquin,TX,75954,US,31.96898079,-94.02048492,2022-12-18 06:25:14
Whataburger,1504 W Church St,,Livingston,TX,77351,US,30.7116127,-94.95082092,2022-12-18 06:25:20
Whataburger,1800 Texas 71,,La Grange,TX,78945,US,29.9192028,-96.85434723,2022-12-18 06:25:21
Whataburger,454 S Bibb Ave,,Eagle Pass,TX,78852,US,28.7031002,-100.4826889,2022-12-18 06:25:22
