company_name,address_line_1,address_line_2,city,state_alpha,postal_code,country_code,latitude,longitude,when_verified
White Castle,15101 Cedar Avenue,,Apple Valley,MN,55124,,44.73069763,-93.21844482,2022-11-17 06:37:55
White Castle,9600 LYNDALE AVE S,,Bloomington,MN,55420,,44.82951355,-93.28929138,2022-11-17 06:37:55
White Castle,4515 S ROBERT TRAIL,,Inver Grove Heights,MN,55077,,44.8832016,-93.08113861,2022-11-17 06:37:55
White Castle,1111 Cambridge Street,,Hopkins,MN,55343,,44.93486786,-93.38704681,2022-11-17 06:37:55
White Castle,100 W LAKE ST,,Minneapolis,MN,55408,,44.94855118,-93.28001404,2022-11-17 06:37:55
White Castle,505 RICE ST,,St. Paul,MN,55102,,44.95638275,-93.10627747,2022-11-17 06:37:55
White Castle,1120 UNIVERSITY AVE,,St. Paul,MN,55104,,44.95546722,-93.14712524,2022-11-17 06:37:55
White Castle,1601 WHITE BEAR AVE,,St. Paul,MN,55109,,44.98970795,-93.02561188,2022-11-17 06:37:55
White Castle,600 CENTRAL AVE NE,,Minneapolis,MN,55414,,44.99172974,-93.25097656,2022-11-17 06:37:55
White Castle,5950 Nova Scotia Avenue North,,Oak Park Heights,MN,55082,,45.0354805,-92.82814789,2022-11-13 18:43:32
White Castle,5055 CENTRAL AVE NE,,Columbia Heights,MN,55421,,45.06052017,-93.24691772,2022-11-17 06:37:55
White Castle,3401 Clark Lane,,Columbia,MO,65202,,38.96433258,-92.2868576,2022-11-17 06:37:45
White Castle,7741 ZANE AVE N,,Brooklyn Park,MN,55443,,45.09553528,-93.35699463,2022-11-17 06:37:55
White Castle,9330   BALTIMORE ST,,Blaine,MN,55434,,45.14087296,-93.23440552,2022-11-17 06:37:55
White Castle,9480 Dunkirk Lane North,,Maple Grove,MN,55311,,45.12589264,-93.49032593,2022-11-17 06:37:55
White Castle,3465 124th Ave North,,Coon Rapids,MN,55433,,45.19696426,-93.35385895,2022-11-17 06:37:55
White Castle,919 West Broadway Ave,,Forest Lake,MN,55025,,45.2797699,-92.99530792,2022-11-17 06:37:55
White Castle,241 North Randall Road,,Algonquin,IL,60156,,42.17805481,-88.33467102,2022-11-17 06:37:55
White Castle,1219 LAKE ST,,Aurora,IL,60506,,41.78157043,-88.31681061,2022-11-17 06:37:55
White Castle,1983 Wentzville Parkway,,Wentzville,MO,63385,,38.81600189,-90.87708282,2022-11-17 06:37:45
White Castle,2231 Rt. 59,,Joliet,IL,60435,,41.56210327,-88.20093536,2022-11-17 06:37:55
White Castle,110 W NORTH AVE,,Carol Stream,IL,60188,,41.90274811,-88.11907196,2022-11-17 06:37:55
White Castle,1100 W GOLF RD,,Hoffman Estates,IL,60169,,42.04851913,-88.10713196,2022-11-17 06:37:55
White Castle,1265 West Normantown,,Romeoville,IL,60446,,41.65180588,-88.12322998,2022-11-17 06:37:55
White Castle,1803 W JEFFERSON AVE,,Joliet,IL,60435,,41.52294922,-88.12513733,2022-11-17 06:37:55
White Castle,2212 HIGHWAY K,,O'Fallon,MO,63366,,38.77763367,-90.69928741,2022-11-17 06:37:45
White Castle,120 S BOLINGBROOK DR,,Bolingbrook,IL,60440,,41.69804382,-88.06776428,2022-11-17 06:37:55
White Castle,4201 VETERAN'S MEMORIAL PKWY,,St. Peters,MO,63376,,38.79587936,-90.57659912,2022-11-17 06:37:45
White Castle,4 E Roosevelt RD,,Lombard,IL,60148,,41.86043549,-88.01692963,2022-11-17 06:37:55
White Castle,1204 75TH ST,,Downers Grove,IL,60516,,41.75266647,-88.01333618,2022-11-17 06:37:55
White Castle,2000  HIGHWAY 94,,St. Charles,MO,63303-3725,,38.7578392,-90.53904724,2022-11-17 06:37:45
White Castle,6290 GRAND AVE,,Gurnee,IL,60031,,42.38447952,-87.95716095,2022-11-17 06:37:55
White Castle,306 W NORTH AVE,,Villa Park,IL,60181,,41.90601349,-87.94926453,2022-11-17 06:37:55
White Castle,2998 HOMER ADAMS PKY,,Alton,IL,62002,,38.91463852,-90.14009857,2022-11-17 06:37:45
White Castle,11730 75TH ST,,Kenosha,WI,53142,,42.56807327,-87.94845581,2022-11-17 06:37:55
White Castle,840 N  HIGHWAY 67,,Florissant,MO,63031,,38.79976654,-90.33330536,2022-11-17 06:37:45
White Castle,401 E.Lincoln Highway,,New Lenox,IL,60451,,41.51283646,-87.95710754,2022-11-17 06:37:55
White Castle,12640 West 143rd Street,,Homer Glen,IL,60491,,41.62959671,-87.92716217,2022-11-17 06:37:55
White Castle,11979 Paul Mayer Avenue,,Bridgeton,MO,63044,,38.74736023,-90.42269897,2022-11-17 06:37:45
White Castle,10339 W GRAND AVE,,Franklin Park,IL,60131,,41.92963028,-87.8841629,2022-11-17 06:37:55
White Castle,12025 DORSETT RD,,St Louis,MO,63043,,38.71486664,-90.43839264,2022-11-17 06:37:45
White Castle,6059 S LAGRANGE RD,,Countryside,IL,60525,,41.77961349,-87.86761475,2022-11-17 06:37:55
White Castle,840 W NORTH AVE,,Melrose Park,IL,60160,,41.90782166,-87.84449768,2022-11-17 06:37:55
White Castle,11120 NEW HALLS FERRY RD,,St. Louis,MO,66033,,38.77399063,-90.2699585,2022-11-17 06:37:45
White Castle,9301 NATURAL BRIDGE RD,,Berkeley,MO,63134,,38.72293854,-90.33618164,2022-11-17 06:37:45
White Castle,7550 N HARLEM AVE,,Chicago,IL,60631,,42.01868057,-87.80695343,2022-11-17 06:37:55
White Castle,3132 N HARLEM AVE,,Chicago,IL,60634,,41.93748474,-87.80702972,2022-11-17 06:37:55
White Castle,10720 Bellefontaine Rd.,,Bellefontaine Neighbors,MO,63137,,38.76708221,-90.22076416,2022-11-17 06:37:45
White Castle,9550 W 191ST ST,,Mokena,IL,60448,,41.54351044,-87.84931946,2022-11-17 06:37:55
White Castle,7155 W OGDEN AVE,,Berwyn,IL,60402,,41.82418823,-87.80242157,2022-11-17 06:37:55
White Castle,7900 S HARLEM AVE,,Bridgeview,IL,60455,,41.74769211,-87.80025482,2022-11-17 06:37:55
White Castle,10555 Harlem,,Chicago Ridge,IL,60415,,41.69913483,-87.79708099,2022-11-17 06:37:55
White Castle,5618 W NORTH AVE,,Chicago,IL,60639,,41.90966415,-87.76638031,2022-11-17 06:37:55
White Castle,5231 Jennings Station Road,,Jennings,MO,63136,,38.70612717,-90.27012634,2022-11-17 06:37:45
White Castle,15801 S HARLEM AVE,,Orland Park,IL,60462,,41.60390091,-87.79358673,2022-11-17 06:37:55
White Castle,7380 OLIVE BLVD,,University City,MO,63130,,38.67107773,-90.32899475,2022-11-17 06:37:45
White Castle,13600  MANCHESTER RD,,St. Louis,MO,63131,,38.59628677,-90.47426605,2022-11-17 06:37:45
White Castle,2209 S CICERO AVE,,Cicero,IL,60804,,41.85027695,-87.74382782,2022-11-17 06:37:55
White Castle,4750 W 63RD ST,,Chicago,IL,60629,,41.77876663,-87.74151611,2022-11-17 06:37:55
White Castle,3901 W MADISON ST,,Chicago,IL,60624,,41.88055038,-87.72359467,2022-11-17 06:37:55
White Castle,9501 S CICERO AVE,,Oak Lawn,IL,60453,,41.71972656,-87.74022675,2022-11-17 06:37:55
White Castle,3524 N KINGS HIGHWAY BLVD,,St. Louis,MO,63115,,38.6758194,-90.2516861,2022-11-17 06:37:45
White Castle,78 HILLTOP VILLAGE CENTER DR,,Eureka,MO,63025,,38.50488281,-90.6408844,2022-11-17 06:37:45
White Castle,12156 South Cicero Avenue,,Alsip,IL,60803,,41.67115784,-87.73946381,2022-11-17 06:37:55
White Castle,3212 W ADDISON ST,,Chicago,IL,60618,,41.94687271,-87.70837402,2022-11-17 06:37:55
White Castle,7912 S PULASKI RD,,Chicago,IL,60652,,41.74897385,-87.72220612,2022-11-17 06:37:55
White Castle,1583 N STATE ROUTE 50,,Bradley,IL,60915,,41.17273331,-87.85204315,2022-11-17 06:37:55
White Castle,14700 S CICERO AVE,,Midlothian,IL,60445,,41.62474823,-87.73767853,2022-11-17 06:37:55
White Castle,716 N. Kingshighway Blvd.,,St. Louis,MO,63108,,38.65215683,-90.26299286,2022-11-17 06:37:45
White Castle,7485 MANCHESTER RD,,Maplewood,MO,63143,,38.61264038,-90.32268524,2022-11-17 06:37:45
White Castle,2356 W Roosevelt Rd.,,Chicago,IL,60608,,41.86688614,-87.68571472,2022-11-17 06:37:55
White Castle,1789 BOWLES AVE,,Fenton,MO,63026,,38.54105377,-90.47401428,2022-11-17 06:37:45
White Castle,21049 S Cicero Rd,,Matteson,IL,60443,,41.50722504,-87.73184204,2022-11-17 06:37:55
White Castle,5940 N RIDGE AVE,,Chicago,IL,60626,,41.98961639,-87.67040253,2022-11-17 06:37:55
White Castle,6901 S. Western Ave.,,Chicago,IL,60636,,41.768116,-87.6825943,2022-11-17 06:37:55
White Castle,2555 W 95TH ST,,Evergreen Park,IL,60805,,41.72055435,-87.68733978,2022-11-17 06:37:55
White Castle,2009 HEBERT ST,,St. Louis,MO,63107,,38.65522766,-90.2020874,2022-11-17 06:37:45
White Castle,1224 S. Kirkwood Rd.,,Kirkwood,MO,63122,,38.56165695,-90.40541077,2022-11-17 06:37:45
White Castle,1002 S VANDEVENTER,,St. Louis,MO,63110,,38.62787628,-90.24757385,2022-11-17 06:37:45
White Castle,3205 S ASHLAND AVE,,Chicago,IL,60608,,41.83513641,-87.66526794,2022-11-17 06:37:55
White Castle,15902 S KEDZIE AVE,,Markham,IL,60428,,41.6004715,-87.69503021,2022-11-17 06:37:55
White Castle,12709 S WESTERN AVE.,,Blue Island,IL,60406,,41.662323,-87.67966461,2022-11-17 06:37:55
White Castle,1400 W 79TH ST,,Chicago,IL,60620,,41.75075531,-87.65892029,2022-11-17 06:37:55
White Castle,6646 South Halsted Street,,Chicago,IL,60621,,41.77287292,-87.64506531,2022-11-17 06:37:55
White Castle,4524 S KINGS HIGHWAY BLVD,,St. Louis,MO,63109,,38.58704758,-90.27590942,2022-11-17 06:37:45
White Castle,310 Emerson Rd,,High Ridge,MO,63049,,38.48430252,-90.50364685,2022-11-17 06:37:45
White Castle,2140 S WABASH AVE,,Chicago,IL,60616,,41.85312271,-87.62600708,2022-11-17 06:37:55
White Castle,806 S BROADWAY ST,,St. Louis,MO,63102,,38.61837006,-90.19248962,2022-11-17 06:37:45
White Castle,11050 S HALSTED,,Chicago,IL,60628,,41.69264984,-87.64281464,2022-11-17 06:37:55
White Castle,3601 GRAVOIS AVE,,St. Louis,MO,63116,,38.59262848,-90.24425507,2022-11-17 06:37:45
White Castle,701 W 14TH ST,,Chicago Heights,IL,60411,,41.5063858,-87.67300415,2022-11-17 06:37:55
White Castle,3457 S KING DR,,Chicago,IL,60616,,41.83150864,-87.61643982,2022-11-17 06:37:55
White Castle,329 FIRE MONUMENT RD,,Hinckley,MN,55037,,46.01147842,-92.93359375,2022-11-17 06:37:55
White Castle,10301 S MICHIGAN AVE,,Chicago,IL,60628,,41.70697784,-87.61977386,2022-11-17 06:37:55
White Castle,5615 S LINDBERGH BLVD,,St. Louis,MO,63123,,38.52309418,-90.35436249,2022-11-17 06:37:45
White Castle,3 E PORT PLAZA DR,,Collinsville,IL,62234,,38.68318558,-90.01324463,2022-11-17 06:37:45
White Castle,18250 S HALSTED ST,,Homewood,IL,60430,,41.5579071,-87.63613892,2022-11-17 06:37:55
White Castle,257 S BROADWAY,,Yonkers,NY,10705,,40.92499542,-73.89575958,2022-11-17 06:37:49
White Castle,2201 MIDDLE COUNTRY RD,,Centereach L.I.,NY,11720,,40.85851288,-73.08920288,2022-11-17 06:37:49
White Castle,2237 JERICHO TPKE,,Commack Long Island,NY,11725,,40.84318542,-73.29224396,2022-11-17 06:37:49
White Castle,3663 BOSTON RD,,Bronx,NY,10466,,40.88029861,-73.84192657,2022-11-17 06:37:49
White Castle,220 BROADWAY,,Paterson,NJ,07510,,40.91856766,-74.16594696,2022-11-17 06:37:49
White Castle,2701 BOSTON RD,,Bronx,NY,10467,,40.86605072,-73.86217499,2022-11-17 06:37:49
White Castle,550 E FORDHAM RD,,Bronx,NY,10458,,40.8588562,-73.88644409,2022-11-17 06:37:49
White Castle,1341 MAIN AVE,,Clifton,NJ,07011,,40.88015747,-74.14498901,2022-11-17 06:37:49
White Castle,2900 E TREMONT AVE,,Bronx,NY,10461,,40.84024429,-73.84133148,2022-11-17 06:37:49
White Castle,1831 WEBSTER AVE,,Bronx,NY,10457,,40.84618759,-73.90213013,2022-11-17 06:37:49
White Castle,310 Bergen Turnpike,,Little Ferry,NJ,07643,,40.85840225,-74.03575134,2022-11-17 06:37:49
White Castle,1677 BRUCKNER BLVD,,Bronx,NY,10472,,40.82511902,-73.87110138,2022-11-17 06:37:49
White Castle,37 STATE ROUTE 17,,Hasbrouck Heights,NJ,07604,,40.85013199,-74.07551575,2022-11-17 06:37:49
White Castle,931 WESTCHESTER AVE,,Bronx,NY,10459,,40.82207489,-73.89746857,2022-11-17 06:37:49
White Castle,2092-2094 7TH AVE,,New York,NY,10029,,40.80879974,-73.94882202,2022-11-17 06:37:49
White Castle,1690 Deer Park Avenue,,Deer Park,NY,11729,,40.7533226,-73.32653809,2022-11-17 06:37:49
White Castle,9271 Kennedy Blvd.,,North Bergen,NJ,07047,,40.80996704,-74.00131989,2022-11-17 06:37:49
White Castle,351 E 103RD ST,,New York,NY,10029,,40.78805542,-73.9417038,2022-11-17 06:37:49
White Castle,213-17 NORTHERN BLVD,,Bayside Queens,NY,11361,,40.76055908,-73.7698288,2022-11-17 06:37:49
White Castle,3810 KENNEDY BLVD,,Union City,NJ,07087,,40.77668381,-74.02870178,2022-11-17 06:37:49
White Castle,1113 U.S. Highway 46,,Ledgewood,NJ,07852,,40.88006973,-74.64479828,2022-11-17 06:37:49
White Castle,265 Broad Hollow Rd.,,Farmingdale,NY,11735-4806,,40.71579361,-73.42651367,2022-11-17 06:37:49
White Castle,43-02 QUEENS BLVD,,Sunnyside,NY,11104,,40.74298859,-73.9213562,2022-11-17 06:37:49
White Castle,642-654 BROADWAY,,Newark,NJ,07104,,40.77260208,-74.16186523,2022-11-17 06:37:49
White Castle,89-03 57TH AVE,,Elmhurst,NY,11373,,40.73476028,-73.87316895,2022-11-17 06:37:49
White Castle,19 HEMPSTEAD TPKE,,West Hempstead,NY,11552,,40.70441818,-73.63869476,2022-11-17 06:37:49
White Castle,175-28 HILLSIDE AVE,,Jamaica Queens,NY,11432,,40.71178436,-73.78652954,2022-11-17 06:37:49
White Castle,6207 SUNRISE HWY,,Massapequa,NY,11758,,40.68398285,-73.42913818,2022-11-17 06:37:49
White Castle,467 CENTRAL AVE,,Orange,NJ,07050,,40.76851273,-74.23996735,2022-11-17 06:37:49
White Castle,112-11 SPRINGFIELD BLVD,,Queens,NY,11429,,40.70526123,-73.73948669,2022-11-17 06:37:49
White Castle,2995 KENNEDY BLVD,,Jersey City,NJ,07306,,40.73579025,-74.06348419,2022-11-17 06:37:49
White Castle,951 South Orange Avenue,,East Orange,NJ,07018,,40.74657822,-74.22728729,2022-11-17 06:37:49
White Castle,1545 Myrtle Ave.,,Brooklyn,NY,11237,,40.69955063,-73.91287994,2022-11-17 06:37:49
White Castle,9808 ROCKAWAY BLVD,,Ozone Park Queens,NY,11417,,40.67980957,-73.84046173,2022-11-17 06:37:49
White Castle,3101 ATLANTIC AVE,,Brooklyn,NY,11208,,40.67924118,-73.88124084,2022-11-17 06:37:49
White Castle,490 SUNRISE HWY,,Lynbrook,NY,11563,,40.65537262,-73.67318726,2022-11-17 06:37:49
White Castle,307 ELIZABETH AVE,,Newark,NJ,07112,,40.71295547,-74.1946106,2022-11-17 06:37:49
White Castle,480 LYONS AVE,,Irvington,NJ,07111,,40.71508789,-74.22451019,2022-11-17 06:37:49
White Castle,846 LEFFERTS BLVD,,Brooklyn,NY,11213,,40.66322708,-73.93218231,2022-11-17 06:37:49
White Castle,900 PENNSYLVANIA AVE,,Brooklyn,NY,11207,,40.6558075,-73.88905334,2022-11-17 06:37:49
White Castle,2458 ROUTE 22,,Union,NJ,07083,,40.68926239,-74.29804993,2022-11-17 06:37:49
White Castle,2001 EDGAR RD,,Linden,NJ,07036,,40.64590073,-74.22671509,2022-11-17 06:37:49
White Castle,2238 Forest Avenue,,Staten Island,NY,10303,,40.62674332,-74.1643219,2022-11-17 06:37:49
White Castle,2901 NOLENSVILLE RD,,Nashville,TN,37211,,36.11046982,-86.7454071,2022-11-17 06:37:39
White Castle,1404 BROADWAY,,Nashville,TN,37203,,36.15611649,-86.79035187,2022-11-17 06:37:39
White Castle,3060 WILMA RUDOLPH BLVD,,Clarksville,TN,37040,,36.5943222,-87.28899384,2022-11-17 06:37:39
White Castle,3179 Scottsville Road,,Bowling Green,KY,42101,,36.9404335,-86.42154694,2022-11-17 06:37:39
White Castle,924 W. Main St.,,Glasgow,KY,42141,,37.00142288,-85.92608643,2022-11-17 06:37:39
White Castle,102 Seimers Drive,,Cape Girardeau,MO,63701,,37.30236053,-89.58214569,2022-11-17 06:37:45
White Castle,25 Madison Drive,,Somerset,KY,42501,,37.06869125,-84.62013245,2022-11-17 06:37:39
White Castle,405 West Highway 80,,London,KY,40741,,37.13067245,-84.07739258,2022-11-17 06:37:39
White Castle,6840 Logan Drive Suite J,,Evansville,IN,47715,,37.99552536,-87.4681778,2022-11-17 06:37:27
White Castle,2006 N MULBERRY ST,,Elizabethtown,KY,42701,,37.71525574,-85.82743073,2022-11-17 06:37:39
White Castle,680 W Karsch Boulevard,,Farmington,MO,63640,,37.78974915,-90.43179321,2022-11-17 06:37:45
White Castle,175 KEYSTONE CROSS RD,,Shepherdsville,KY,40165,,37.99184799,-85.70738983,2022-11-17 06:37:39
White Castle,12006 Dixie Highway,,Louisville,KY,40272,,38.08114624,-85.8829422,2022-11-17 06:37:39
White Castle,7400 DIXIE HWY,,Louisville,KY,40258,,38.14308548,-85.84040833,2022-11-17 06:37:21
White Castle,5520 NATIONAL TPKE,,Louisville,KY,40214,,38.15124893,-85.76432037,2022-11-17 06:37:21
White Castle,4108 OUTER LOOP,,Louisville,KY,40219,,38.13798523,-85.68544769,2022-11-17 06:37:21
White Castle,2711 Fern Valley Road,,Louisville,KY,40213,,38.15775681,-85.71477509,2022-11-17 06:37:21
White Castle,2430 Landmark Ave.,,Corydon,IN,47112,,38.23675537,-86.12586212,2022-11-17 06:37:21
White Castle,7200 Cedar Springs Blvd,,Louisville,KY,40291,,38.14463806,-85.585289,2022-11-17 06:37:21
White Castle,3701 7TH STREET,,Louisville,KY,40216,,38.1963501,-85.79943848,2022-11-17 06:37:21
White Castle,808 Eastern Bypass,,Richmond,KY,40475,,37.73058319,-84.28507233,2022-11-17 06:37:39
White Castle,1922 S 7TH ST,,Louisville,KY,40208,,38.2205658,-85.77729797,2022-11-17 06:37:21
White Castle,793 EASTERN PKY,,Louisville,KY,40217,,38.21500015,-85.74318695,2022-11-17 06:37:21
White Castle,3705 BARDSTOWN RD,,Louisville,KY,40218,,38.19898224,-85.65927887,2022-11-17 06:37:21
White Castle,700 W BROADWAY,,Louisville,KY,40202,,38.24612808,-85.76380157,2022-11-17 06:37:21
White Castle,2350 GREENE WAY,,Louisville,KY,40220,,38.21222305,-85.59643555,2022-11-17 06:37:21
White Castle,105 E. Market St.,,Louisville,KY,40202,,38.25484848,-85.75130463,2022-11-17 06:37:21
White Castle,4020 Shelbyville Road,,Louisville,KY,40207,,38.25236511,-85.65179443,2022-11-17 06:37:21
White Castle,1701 E SPRING ST,,New Albany,IN,47150,,38.29312515,-85.80715942,2022-11-17 06:37:21
White Castle,12413 Shelbyville Rd.,,Louisville,KY,40243,,38.24579239,-85.52431488,2022-11-17 06:37:21
White Castle,1608 E 10TH ST,,Jeffersonville,IN,47130,,38.29588318,-85.72627258,2022-11-17 06:37:21
White Castle,23 Fairway Crossing Suite 2,,Shelbyville,KY,40065,,38.17991638,-85.21283722,2022-11-17 06:37:21
White Castle,4023 E. U.S. Rt. 31,,Clarksville,IN,47129,,38.32209778,-85.75170135,2022-11-17 06:37:21
White Castle,9493 Westport Road,,Louisville,KY,40241,,38.2871933,-85.57445526,2022-11-17 06:37:21
White Castle,179 E REYNOLDS RD,,Lexington,KY,40517,,37.99014282,-84.51972198,2022-11-17 06:37:39
White Castle,307 E NEW CIRCLE RD NE,,Lexington,KY,40505,,38.05976105,-84.46398163,2022-11-17 06:37:21
White Castle,448 VERSAILLES RD,,Frankfort,KY,40601,,38.19561768,-84.82842255,2022-11-17 06:37:21
White Castle,9310 East Via De Ventura,,Scottsdale,AZ,85258,,33.55498123,-111.8825531,2022-11-17 06:06:13
White Castle,1000  HIGHWAY 21A AT I-55,,Festus,MO,63028,,38.21305466,-90.40415955,2022-11-17 06:37:45
White Castle,1905   Richardson RD,,Arnold,MO,63010,,38.41071701,-90.38305664,2022-11-17 06:37:45
White Castle,4395 LEMAY FERRY RD,,St. Louis,MO,63129,,38.50178909,-90.33242798,2022-11-17 06:37:45
White Castle,1260 Camp Jackson Road,,Cahokia,IL,62206,,38.55903625,-90.17365265,2022-11-17 06:37:45
White Castle,5820 Belleville Crossing Street,,Belleville,IL,62226,,38.52712631,-90.03511047,2022-11-17 06:37:45
White Castle,10849 LINCOLN TRL,,Fairview Heights,IL,62208,,38.59341812,-89.9901123,2022-11-17 06:37:45
White Castle,1141 N.Greenmount Road,,Belleville,IL,62221,,38.56932068,-89.92964172,2022-11-17 06:37:45
White Castle,247 STATE ROUTE 35,,Eatontown,NJ,07724,,40.28592682,-74.05027771,2022-11-17 06:37:49
White Castle,132 Route 37 East,,Toms River,NJ,08753,,39.96388626,-74.18961334,2022-11-17 06:37:49
White Castle,245 N. Main Street,,Forked River,NJ,08731,,39.84694672,-74.18534851,2022-11-17 06:37:49
White Castle,2301 U.S. Highway 9 North,,Howell,NJ,07731,,40.1822319,-74.24476624,2022-11-17 06:37:49
White Castle,2221 HYLAN BLVD,,Staten Island,NY,10306,,40.57640076,-74.10424042,2022-11-17 06:37:49
White Castle,987 HIGHWAY 9,,South Amboy,NJ,08879,,40.45599747,-74.29582214,2022-11-17 06:37:49
White Castle,8 Lafayette Road,,Metuchen,NJ,08840,,40.54691315,-74.32828522,2022-11-17 06:37:49
White Castle,5151 STELTON RD,,South Plainfield,NJ,07080,,40.54800797,-74.427948,2022-11-17 06:37:49
White Castle,4053 US Route 1,,South Brunswick,NJ,08852,,40.39656067,-74.55976105,2022-11-17 06:37:49
White Castle,366-68 ROUTE 22 W,,Greenbrook,NJ,08412,,40.58723831,-74.50764465,2022-11-17 06:37:49
White Castle,1236 Route 22,,Phillipsburg,NJ,08865,,40.67772675,-75.14961243,2022-11-17 06:37:49
White Castle,1280 MacArthur Road,,Whitehall,PA,18052,,40.62384415,-75.48246765,2022-11-17 06:37:49
White Castle,4340 US Highway 41,,Terre Haute,IN,47802,,39.41569901,-87.41505432,2022-11-17 06:37:55
White Castle,3233 W JACOB DR,,Bloomington,IN,47404,,39.16522598,-86.57455444,2022-11-17 06:06:40
White Castle,1970 East Tipton Street,,Seymour,IN,47274,,38.95762253,-85.85594177,2022-11-17 06:37:11
White Castle,1686 NATIONAL RD,,Columbus,IN,47201,,39.21650314,-85.8842926,2022-11-17 06:37:11
White Castle,1129 N. Morton Street,,Franklin,IN,46131,,39.49183655,-86.06381226,2022-11-16 21:00:12
White Castle,8290 Windfall Lane,,Camby,IN,46113,,39.64281464,-86.33313751,2022-11-16 21:00:12
White Castle,7630 Shelby Street,,Indianapolis,IN,46227,,39.65504456,-86.14009094,2022-11-16 21:00:12
White Castle,1414 W THOMPSON RD,,Indianapolis,IN,46217,,39.69294357,-86.18563843,2022-11-16 21:00:12
White Castle,10705 E U.S. HIGHWAY 36,,Avon,IN,46123,,39.76328659,-86.33240509,2022-11-17 06:37:55
White Castle,5301 W WASHINGTON ST,,Indianapolis,IN,46241,,39.75226593,-86.25087738,2022-11-17 06:37:55
White Castle,4520 S EMERSON AVE,,Indianapolis,IN,46107,,39.70152664,-86.08318329,2022-11-16 21:00:12
White Castle,1830 Marketplace Boulevard,,Shelbyville,IN,46176,,39.52118683,-85.74733734,2022-11-17 06:37:32
White Castle,2165 SHELBY ST,,Indianapolis,IN,46203,,39.73801041,-86.13941956,2022-11-16 21:00:12
White Castle,5910 CRAWFORDSVILLE RD,,Indianapolis,IN,46224,,39.79869843,-86.26396942,2022-11-17 06:37:55
White Castle,960 N GREEN ST,,Brownsburg,IN,46112,,39.85611725,-86.39313507,2022-11-17 06:37:55
White Castle,55 W SOUTH ST,,Indianapolis,IN,46225,,39.76116943,-86.15964508,2022-11-16 21:00:12
White Castle,5501 W 38TH ST,,Indianapolis,IN,46254,,39.82372665,-86.25707245,2022-11-17 06:37:55
White Castle,102 W 16TH ST,,Indianapolis,IN,46202,,39.78873444,-86.15963745,2022-11-17 06:37:55
White Castle,3210 E WASHINGTON ST,,Indianapolis,IN,46201,,39.76916122,-86.10984802,2022-11-16 21:00:12
White Castle,2368 E 38TH ST,,Indianapolis,IN,46218,,39.82562637,-86.12243652,2022-11-17 06:37:55
White Castle,10053 East Washington St,,Indianapolis,IN,46229,,39.77356339,-85.98919678,2022-11-16 21:00:12
White Castle,6901 PENDLETON PIKE,,Indianapolis,IN,46226,,39.82601929,-86.0480423,2022-11-16 21:00:12
White Castle,8740 N MICHIGAN RD,,Indianapolis,IN,46268,,39.91355896,-86.22492981,2022-11-17 06:37:55
White Castle,169 WINNING COLORS DR,,Richwood,KY,41094,,38.91839218,-84.62749481,2022-11-17 06:37:32
White Castle,8101 U.S. 42,,Florence,KY,41042,,38.98230362,-84.64516449,2022-11-17 06:37:32
White Castle,1157 Eads Parkway East,,Greendale,IN,47025,,39.12326813,-84.84849548,2022-11-17 06:37:32
White Castle,1742 Wildcat Blvd.,,Burlington,KY,41005,,39.01990128,-84.68967438,2022-11-17 06:37:32
White Castle,3150 DIXIE HWY,,Erlanger,KY,41018,,39.02041245,-84.59322357,2022-11-17 06:37:32
White Castle,120 N SAM RALSTON RD,,Lebanon,IN,46052,,40.04722214,-86.48790741,2022-11-17 06:37:55
White Castle,4723 MEIJER CT,,Lafayette,IN,47905,,40.4168663,-86.8160553,2022-11-17 06:37:55
White Castle,5440 E 82ND ST,,Indianapolis,IN,46250,,39.90562439,-86.07633972,2022-11-17 06:37:55
White Castle,10303 Pendleton Pike,,Indianapolis,IN,46236,,39.85653305,-85.98402405,2022-11-17 06:37:32
White Castle,15005 U.S. 31 N,,Westfield,IN,46074,,40.00616455,-86.12657166,2022-11-17 06:37:55
White Castle,16286 CLOVER RD,,Noblesville,IN,46060,,40.03036499,-85.99652863,2022-11-17 06:37:55
White Castle,2283 N STATE ST,,Greenfield,IN,46140,,39.81825256,-85.76912689,2022-11-17 06:37:32
White Castle,800 W LINCOLN HWY,,Schererville,IN,46375,,41.49117661,-87.47151947,2022-11-17 06:37:55
White Castle,9600 CALUMET AVE,,Munster,IN,46321,,41.53920746,-87.50975037,2022-11-17 06:37:55
White Castle,1551 RIVER OAKS DR,,Calumet City,IL,60409,,41.60062027,-87.5610199,2022-11-17 06:37:55
White Castle,6517 CALUMET AVE,,Hammond,IN,46324,,41.59528732,-87.50855255,2022-11-17 06:37:55
White Castle,7921 Indianapolis Blvd,,Hammond,IN,46324,,41.56985855,-87.47541046,2022-11-17 06:37:55
White Castle,440 W RIDGE RD,,Griffith,IN,46319,,41.55186844,-87.4307785,2022-11-17 06:37:55
White Castle,1 E 81ST AVE,,Merrillville,IN,46410,,41.47047424,-87.33503723,2022-11-17 06:37:55
White Castle,4632 CALUMET AVE,,Hammond,IN,46327,,41.62913895,-87.50926971,2022-11-17 06:37:55
White Castle,9450 S JEFFERY AVE,,Chicago,IL,60617,,41.72283936,-87.57576752,2022-11-17 06:37:55
White Castle,1801 MARKLAND AVE,,Kokomo,IN,46901,,40.47638321,-86.10723877,2022-11-17 06:37:55
White Castle,5523 SCATTERFIELD RD,,Anderson,IN,46013,,40.05918503,-85.65343475,2022-11-17 06:37:32
White Castle,8801 W MARKET SQUARE DR,,Daleville,IN,47334,,40.11425781,-85.56609344,2022-11-17 06:37:32
White Castle,1550 E 79TH Street,,Chicago,IL,60619,,41.7518158,-87.58679199,2022-11-17 06:37:55
White Castle,1879 INDIANAPOLIS BLVD,,Whiting,IN,46394,,41.67956543,-87.49917603,2022-11-17 06:37:55
White Castle,3956 GUTHRIE ST,,East Chicago,IN,46312,,41.64073944,-87.43360901,2022-11-17 06:37:55
White Castle,1304 BROADWAY,,Gary,IN,46407,,41.58984756,-87.33737946,2022-11-17 06:37:55
White Castle,7996 East Ridge Road,,Hobart,IN,46342,,41.5510025,-87.24118805,2022-11-17 06:37:55
White Castle,153 MORTHLAND DR,,Valparaiso,IN,46383,,41.45835114,-87.06304932,2022-11-17 06:37:55
White Castle,101 E U.S. 20,,Michigan City,IN,46360,,41.67983627,-86.89341736,2022-11-17 06:37:55
White Castle,482 Orphanage Road,,Ft. Wright,KY,41017,,39.03243637,-84.53701782,2022-11-17 06:37:32
White Castle,5301 DELHI PIKE,,Delhi,OH,45238,,39.0934639,-84.61860657,2022-11-17 06:37:32
White Castle,10910   NEW HAVEN RD,,Harrison,OH,45030,,39.25934601,-84.80032349,2022-11-17 06:37:32
White Castle,125 Plaza Drive,,Cold Spring,KY,41076,,39.00302124,-84.42431641,2022-11-17 06:37:32
White Castle,596 3RD ST,,Covington,KY,41011,,39.08774185,-84.51969147,2022-11-17 06:37:32
White Castle,3201 HARRISON AVE,,Cincinnati,OH,45211,,39.15368271,-84.60350037,2022-11-17 06:37:32
White Castle,6517 Harrison Avenue,,Cincinnati,OH,45247,,39.19276428,-84.65973663,2022-11-17 06:37:32
White Castle,811 West 8th Street,,Cincinnati,OH,45203,,39.10280609,-84.52926636,2022-11-17 06:37:32
White Castle,3030 CENTRAL PARKWAY,,Cincinnati,OH,45225,,39.13892746,-84.53257751,2022-11-17 06:37:32
White Castle,2650 READING RD,,Cincinnati,OH,45206,,39.1287117,-84.4985199,2022-11-17 06:37:32
White Castle,3940 LUDLOW AVE,,Cincinnati,OH,45223,,39.15839005,-84.53899384,2022-11-17 06:37:32
White Castle,64 W. Mitchell,,Cincinnati,OH,45217,,39.16164398,-84.50656128,2022-11-17 06:37:32
White Castle,9740 COLERAIN AVE,,Colerain Twp,OH,45251,,39.24849319,-84.59635162,2022-11-17 06:37:32
White Castle,7315 HAMILTON AVE,,Cincinnati,OH,45231,,39.22794342,-84.54902649,2022-11-17 06:37:32
White Castle,5075 MONTGOMERY RD,,Norwood,OH,45212,,39.16725159,-84.45355225,2022-11-17 06:37:32
White Castle,7400 VINE ST,,Cincinnati,OH,45216,,39.1972084,-84.47669983,2022-11-17 06:37:32
White Castle,4010 Williams Drive,,Cincinnati,OH,45255,,39.06951141,-84.3026123,2022-11-17 06:37:32
White Castle,8853 READING RD,,Reading,OH,45215,,39.22214127,-84.44165802,2022-11-17 06:37:32
White Castle,864 EASTGATE SOUTH DR,,Cincinnati,OH,45245,,39.09436035,-84.26345825,2022-11-17 06:37:32
White Castle,11575 SPRINGFIELD PIKE,,Springdale,OH,45246,,39.28627014,-84.48557281,2022-11-17 06:37:32
White Castle,1073 St. Rt. 28,,Milford,OH,45150,,39.19398499,-84.23838043,2022-11-17 06:37:32
White Castle,5590 Dixie Highway,,Hamilton,OH,45014,,39.33308029,-84.52175903,2022-11-17 06:37:32
White Castle,3980 HAUCK RD,,Sharonville,OH,45241,,39.29122162,-84.39492035,2022-11-17 06:37:32
White Castle,851 High Street,,Hamilton,OH,45011,,39.39639664,-84.55192566,2022-11-17 06:37:32
White Castle,8111 HIGHLAND POINTE DRIVE,,West Chester,OH,45069,,39.3494339,-84.3948288,2022-11-17 06:37:32
White Castle,614 Corwin Nixon Boulevard,,South Lebanon,OH,45065,,39.37936401,-84.22201538,2022-11-17 06:37:32
White Castle,4780 Roosevelt Boulevard,,Middletown,OH,45044,,39.49929428,-84.34457397,2022-11-17 06:37:32
White Castle,6901 SR 123,,Franklin,OH,45005,,39.54423523,-84.29407501,2022-11-17 06:37:32
White Castle,1000 N. Bridge Street,,Chillicothe,OH,45607,,39.35557175,-82.97692871,2022-11-17 06:37:32
White Castle,5201 Salem Bend,,Trotwood,OH,45426,,39.82013321,-84.28212738,2022-11-17 06:37:32
White Castle,1901 N. Bechtle Ave.,,Springfield,OH,45504,,39.95122147,-83.83159637,2022-11-17 06:37:32
White Castle,24599 US RT. 23 S,,Circleville,OH,43113,,39.58266449,-82.95472717,2022-11-17 06:37:32
White Castle,1090 Lydia Drive,,Marysville,OH,43040,,40.23877335,-83.34790039,2022-11-17 06:37:32
White Castle,1550 HILLIARD-ROME RD,,Columbus,OH,43026,,39.98324585,-83.15011597,2022-11-17 06:37:32
White Castle,1617 HOLT RD,,Columbus,OH,43228,,39.91931915,-83.12307739,2022-11-17 06:37:32
White Castle,3540 W BROAD ST,,Columbus,OH,43228,,39.95427322,-83.0952301,2022-11-17 06:37:32
White Castle,4525 KENNY RD,,Columbus,OH,43220,,40.05266953,-83.05020905,2022-11-17 06:37:32
White Castle,1620 STRINGTOWN RD,,Grove City,OH,43123,,39.87908936,-83.04599762,2022-11-17 06:37:32
White Castle,8787 Owenfield Drive,,Powell,OH,43035,,40.16358948,-83.02037811,2022-11-17 06:37:32
White Castle,965 N HIGH ST,,Columbus,OH,43201,,39.98206711,-83.004776,2022-11-17 06:37:32
White Castle,1111 S HIGH ST,,Columbus,OH,43206,,39.9391098,-82.99662781,2022-11-17 06:37:32
White Castle,3615 S. High Street,,Columbus,OH,43207,,39.88845062,-82.99864197,2022-11-17 06:37:32
White Castle,801 E FIFTH AVE,,Columbus,OH,43201,,39.98588562,-82.9835434,2022-11-17 06:37:32
White Castle,1435 DUBLIN-GRANVILLE RD,,Columbus,OH,43229,,40.08684158,-82.9781723,2022-11-17 06:37:32
White Castle,1025 ALUM CREEK DR,,Columbus,OH,43209,,39.9467926,-82.94551086,2022-11-17 06:37:32
White Castle,7120 US RT 37,,Sunbury,OH,43074,,40.2662468,-82.9344635,2022-11-17 06:37:32
White Castle,3751 S. Hamilton Road,,Columbus,OH,43232,,39.89802551,-82.8829422,2022-11-17 06:37:32
White Castle,1080 S HAMILTON RD,,Columbus,OH,43227,,39.95462418,-82.87653351,2022-11-17 06:37:32
White Castle,6791 E BROAD ST,,Columbus,OH,43213,,39.9812088,-82.82294464,2022-11-17 06:37:32
White Castle,2125 SCHORRWAY DR,,Lancaster,OH,43130,,39.73526382,-82.62671661,2022-11-17 06:37:32
White Castle,904 HEBRON RD,,Heath,OH,43056,,40.02690887,-82.44521332,2022-11-17 06:37:32
White Castle,3953 PACKARD RD,,Ann Arbor,MI,48108,,42.24597168,-83.68158722,2022-11-17 06:37:32
White Castle,20090 WEST RD,,Woodhaven,MI,48183,,42.14091873,-83.2285614,2022-11-17 06:37:32
White Castle,41205 FORD RD,,Canton,MI,48188,,42.32251358,-83.44690704,2022-11-17 06:37:32
White Castle,32925 MICHIGAN AVE,,Wayne,MI,48184,,42.28268433,-83.36372375,2022-11-17 06:37:32
White Castle,13000 TELEGRAPH RD,,Taylor,MI,48180,,42.21146393,-83.26953888,2022-11-17 06:37:32
White Castle,3832 E. Grand River,,Howell,MI,48843,,42.58771133,-83.87807465,2022-11-17 06:37:55
White Castle,16795 FORT ST,,Southgate,MI,48195,,42.18596268,-83.18845367,2022-11-17 06:37:32
White Castle,22340 Ecorse,,Taylor,MI,48180,,42.25626755,-83.2537384,2022-11-17 06:37:32
White Castle,2226 S TELEGRAPH RD,,Dearborn,MI,48124,,42.29497528,-83.27210999,2022-11-17 06:37:32
White Castle,27325 FORD RD,,Dearborn Heights,MI,48127,,42.3258667,-83.31098175,2022-11-17 06:37:32
White Castle,30105 PLYMOUTH RD,,Livonia,MI,48150,,42.36860275,-83.3403244,2022-11-17 06:37:32
White Castle,2115 FORT ST,,Lincoln Park,MI,48146,,42.24867249,-83.17725372,2022-11-17 06:37:32
White Castle,24000 SCHOOLCRAFT,,Redford,MI,48239,,42.38607788,-83.27716827,2022-11-17 06:37:32
White Castle,28130 W 8 MILE RD,,Farmington,MI,48336,,42.44221497,-83.32378387,2022-11-17 06:37:32
White Castle,8811 GREENFIELD AVE,,Detroit,MI,48228,,42.35844421,-83.19742584,2022-11-17 06:37:32
White Castle,17739 Grand River,,Detroit,MI,48227,,42.39998245,-83.21707153,2022-11-17 06:37:32
White Castle,1930 MICHIGAN AVE,,Detroit,MI,48216,,42.33174515,-83.07289886,2022-11-17 06:37:32
White Castle,6364 WOODWARD AVE,,Detroit,MI,48202,,42.36839676,-83.07143402,2022-11-17 06:37:32
White Castle,15365 WYOMING AVE,,Detroit,MI,48238,,42.40359497,-83.16001892,2022-11-17 06:37:32
White Castle,2735 W DAVISON,,Detroit,MI,48238,,42.39202881,-83.12384033,2022-11-17 06:37:32
White Castle,23000 TELEGRAPH RD,,Southfield,MI,48034,,42.45794296,-83.27781677,2022-11-17 06:37:32
White Castle,20409 JAMES COUZENS,,Detroit,MI,48235,,42.44185638,-83.20077515,2022-11-17 06:37:32
White Castle,10500 GRATIOT,,Detroit,MI,48213,,42.40039062,-82.99992371,2022-11-17 06:37:32
White Castle,21400 WOODWARD AVE,,Ferndale City,MI,48220,,42.44952011,-83.12659454,2022-11-17 06:37:32
White Castle,26500 Greenfield Rd.,,Oak Park,MI,48237,,42.48574448,-83.20175934,2022-11-17 06:37:32
White Castle,6711 E 8 MILE RD,,Warren,MI,48091,,42.44857407,-83.03416443,2022-11-17 06:37:32
White Castle,16737 Harper Avenue,,Detroit,MI,48224,,42.41465759,-82.93988037,2022-11-17 06:37:32
White Castle,20703 GRATIOT AVE,,Eastpointe,MI,48021,,42.45035553,-82.9684906,2022-11-17 06:37:32
White Castle,28840 DEQUINDRE RD,,Warren,MI,48092,,42.50456238,-83.08514404,2022-11-17 06:37:32
White Castle,31803 VAN DYKE AVE,,Warren,MI,48092,,42.52646637,-83.02954865,2022-11-17 06:37:32
White Castle,26900 GRATIOT AVE,,Roseville,MI,48066,,42.49360275,-82.93811798,2022-11-17 06:37:32
White Castle,2930 JOHN R. RD,,Troy,MI,48084,,42.56251526,-83.10765076,2022-11-17 06:37:32
White Castle,335 MARTIN LUTHER KING BLVD,,Pontiac,MI,48342,,42.64743423,-83.27106476,2022-11-17 06:37:32
White Castle,36850 GROESBECK HWY,,Mt. Clemens,MI,48043,,42.56793213,-82.9127121,2022-11-17 06:37:32
White Castle,12245 23 Mile Road,,Shelby Township,MI,48315,,42.6702652,-83.00833893,2022-11-17 06:37:32
White Castle,27760 23-MILE RD,,New Baltimore,MI,48051,,42.67408752,-82.83019257,2022-11-17 06:37:32
White Castle,4250 Corunna Road,,Flint,MI,48532,,43.00252914,-83.76264191,2022-11-17 06:37:55
White Castle,3015 Stillwell Ave,,Coney Island,NY,11224,,40.57513046,-73.98078156,2022-11-17 06:37:49
White Castle,3015 Stillwell Avenue,,Brooklyn,NY,11224,,40.5749588,-73.98075104,2022-11-17 06:37:49
White Castle,11595 Daryl Carter Parkway,,Orlando,FL,32836,,28.39889526,-81.49008179,2022-11-17 06:37:38
White Castle,11595 Daryl Carter Pkwy,,Orlando,FL,32836,,28.39931488,-81.49036407,2022-11-17 06:37:38
White Castle,11815 Glass House Lane Ste 120,,Orlando,FL,32836,,28.40027428,-81.48895264,2022-11-17 06:37:38
